id,map_id,address,description,pic,link,icon,lat,lng,anim,title,infoopen,category,approved,retina,type,did,sticky,other_data,layergroup,Custom Field: Barcode,Custom Field: Creditcard,Custom Field: Meter_ID,Custom Field: TapAndGo
1647452,21,"-37.8068522, 144.9637021","Victoria Street between Cardigan Street and Swanston Street, approximately 29m South of Royal Melbourne Institute Of Technology, 110-120 Victoria Street CARLTON VIC 3053",,,,-37.8068522,144.9637021,,,0,Parking Meters,1,1,,,,,,MPM1647452,Yes,695B,Yes
1647642,21,"-37.8025852, 144.9597089","Barry Street between Leicester Street and Pelham Street, approximately 13m NW of 60 Barry Street CARLTON VIC 3053",,,,-37.8025852,144.9597089,,,0,Parking Meters,1,1,,,,,,MPM1647642,Yes,307A,Yes
1647664,21,"-37.8032109, 144.9624218","Lincoln Square South between Swanston Street and Bouverie Street, approximately 3m North of Ground 33 Lincoln Square South CARLTON VIC 3053",,,,-37.8032109,144.9624218,,,0,Parking Meters,1,1,,,,,,MPM1647664,Yes,320B,Yes
1647676,21,"-37.8021627, 144.9615786","Pelham Street between Bouverie Street and Leicester Street, approximately 4m SW of Melbourne Business School Limited, 150-154 Pelham Street CARLTON VIC 3053",,,,-37.8021627,144.9615786,,,0,Parking Meters,1,1,,,,,,MPM1647676,Yes,321A,Yes
1647683,21,"-37.8037663, 144.9635381","Swanston Street between Queensberry Street and Lincoln Square South, approximately 5m NW of Audiology Hearing & Speech Sciences, 546-552 Swanston Street CARLTON VIC 3053",,,,-37.8037663,144.9635381,,,0,Parking Meters,1,1,,,,,,MPM1647683,Yes,262A,Yes
1647716,21,"-37.80169, 144.9629508","Lincoln Square North between Swanston Street and Bouverie Street, approximately 15m South of 20 Lincoln Square North CARLTON VIC 3053",,,,-37.80169,144.9629508,,,0,Parking Meters,1,1,,,,,,MPM1647716,Yes,355B,Yes
1647721,21,"-37.8020907, 144.9623273","Bouverie Street between Pelham Street and Lincoln Square North, approximately 28m East of Australian College Of Sport And Fitness, Level 1 183-189 Bouverie Street CARLTON VIC 3053",,,,-37.8020907,144.9623273,,,0,Parking Meters,1,1,,,,,,MPM1647721,Yes,364A,Yes
1647726,21,"-37.800883, 144.9585545","Berkeley Street between Pelham Street and Grattan Street, approximately 21m SW of School Of Health Services, Building 260 (MSHS) 182-200 Berkeley Street CARLTON VIC 3053",,,,-37.800883,144.9585545,,,0,Parking Meters,1,1,,,,,,MPM1647726,Yes,168B,Yes
1647745,21,"-37.8057276, 144.9601781","Leicester Street between Victoria Street and Berkeley Street, approximately 7m North of Journal Student Living Pty Ltd, 18 Leicester Street CARLTON VIC 3053",,,,-37.8057276,144.9601781,,,0,Parking Meters,1,1,,,,,,MPM1647745,Yes,308D,Yes
1647756,21,"-37.8029474, 144.9649101","Cardigan Street between Argyle Place South and Pelham Street, approximately 36m North of Voyager Distributing Company Pty Ltd, 143-147 Cardigan Street CARLTON VIC 3053",,,,-37.8029474,144.9649101,,,0,Parking Meters,1,1,,,,,,MPM1647756,Yes,363C,Yes
1647788,21,"-37.8047241, 144.9600773","Leicester Street between Berkeley Street and Queensberry Street, approximately 8m South of Ultima Max, 63 Leicester Street CARLTON VIC 3053",,,,-37.8047241,144.9600773,,,0,Parking Meters,1,1,,,,,,MPM1647788,Yes,308A,Yes
1647790,21,"-37.8026792, 144.9652326","Intersection of Cardigan Street and Pelham Street, approximately 43m SE of Liuzzi House, 86-94 Pelham Street CARLTON VIC 3053",,,,-37.8026792,144.9652326,,,0,Parking Meters,1,1,,,,,,MPM1647790,Yes,363B,Yes
1784235,21,"-37.7979002, 144.9673081","Lygon Street between Faraday Street and Elgin Street, approximately 6m SE of Bakers Delight, 319 Lygon Street CARLTON VIC 3053",,,,-37.7979002,144.9673081,,,0,Parking Meters,1,1,,,,,,MPM1784235,Yes,210B,Yes
1802329,21,"-37.7794753, 144.9626508","Bowen Crescent between Garton Street and Park Street, approximately 86m SE of Princes Park Carlton Bowls Club Inc, Princes Park Carlton Bowls Club Princes Park 109 Bowen Crescent CARLTON NORTH VIC 3054",,,,-37.7794753,144.9626508,,,0,Parking Meters,1,1,,,,,,MPM1802329,Yes,482B,Yes
1802333,21,"-37.7931718, 144.9671961","Cemetery Road East between College Crescent and Lygon Street, approximately 72m NE of Unit 2 Ground 495 Cardigan Street CARLTON VIC 3053",,,,-37.7931718,144.9671961,,,0,Parking Meters,1,1,,,,,,MPM1802333,Yes,475C,Yes
1802334,21,"-37.7929413, 144.9672751","Cemetery Road East between College Crescent and Lygon Street, approximately 80m NW of VicRoads, 459 Lygon Street CARLTON VIC 3053",,,,-37.7929413,144.9672751,,,0,Parking Meters,1,1,,,,,,MPM1802334,Yes,475D,Yes
1802335,21,"-37.7864138, 144.9692549","Lygon Street between Princes Street and Macpherson Street, approximately 79m South of CitiPower Pty Ltd, Substation 5 MacPherson Street CARLTON NORTH VIC 3054",,,,-37.7864138,144.9692549,,,0,Parking Meters,1,1,,,,,,MPM1802335,Yes,476A,Yes
1802368,21,"-37.7949789, 144.9721279","Kay Street between Canning Street and Rathdowne Street, approximately 3m South of 84 Kay Street CARLTON VIC 3053",,,,-37.7949789,144.9721279,,,0,Parking Meters,1,1,,,,,,MPM1802368,Yes,470B,Yes
1805611,21,"-37.8026843, 144.9642774","Pelham Street between Cardigan Street and Swanston Street, approximately 3m North of Mid Square Coffee, 119 Pelham Street CARLTON VIC 3053",,,,-37.8026843,144.9642774,,,0,Parking Meters,1,1,,,,,,MPM1805611,,304D,Yes
1805613,21,"-37.799908, 144.9654326","Cardigan Street between Grattan Street and Faraday Street, approximately 12m South of The Lofts At Melbourne Connect, Ground Mezzanine & Levels 1-13 285 Cardigan Street CARLTON VIC 3053",,,,-37.799908,144.9654326,,,0,Parking Meters,1,1,,,,,,MPM1805613,,192B,Yes
1805614,21,"-37.7990559, 144.9655804","Cardigan Street between Grattan Street and Faraday Street, approximately 6m SE of The Royal Womens Hospital Andrology Department, Ground 321 Cardigan Street CARLTON VIC 3053",,,,-37.7990559,144.9655804,,,0,Parking Meters,1,1,,,,,,MPM1805614,,192A,Yes
1805660,21,"-37.7983892, 144.9708199","MacArthur Place South between Canning Street and Rathdowne Street, approximately 19m North of 61-63 MacArthur Place South CARLTON VIC 3053",,,,-37.7983892,144.9708199,,,0,Parking Meters,1,1,,,,,,MPM1805660,,174A,Yes
1805687,21,"-37.8029115, 144.9606752","Leicester Street between Queensberry Street and Pelham Street, approximately 5m NW of 130-138 Leicester Street CARLTON VIC 3053",,,,-37.8029115,144.9606752,,,0,Parking Meters,1,1,,,,,,MPM1805687,,306C,Yes
1805688,21,"-37.8033892, 144.9603105","Leicester Street between Queensberry Street and Pelham Street, approximately 20m South of 115 Leicester Street CARLTON VIC 3053",,,,-37.8033892,144.9603105,,,0,Parking Meters,1,1,,,,,,MPM1805688,,306D,Yes
1805691,21,"-37.8031034, 144.9596539","Barry Street between Leicester Street and Pelham Street, approximately 34m SW of 52-54 Barry Street CARLTON VIC 3053",,,,-37.8031034,144.9596539,,,0,Parking Meters,1,1,,,,,,MPM1805691,,307D,Yes
1805700,21,"-37.8017251, 144.9632721","Lincoln Square North between Swanston Street and Bouverie Street, approximately 32m SE of 20 Lincoln Square North CARLTON VIC 3053",,,,-37.8017251,144.9632721,,,0,Parking Meters,1,1,,,,,,MPM1805700,,355D,Yes
1805702,21,"-37.8011969, 144.9624814","Bouverie Street between Lincoln Square North and Grattan Street, approximately 4m NW of Lincoln Bakery Cafe, 154 Bouverie Street CARLTON VIC 3053",,,,-37.8011969,144.9624814,,,0,Parking Meters,1,1,,,,,,MPM1805702,,178D,Yes
1805708,21,"-37.8041961, 144.961958","Bouverie Street between Queensberry Street and Lincoln Square South, approximately 12m NW of Dan's Deli, 210 Queensberry Street CARLTON VIC 3053",,,,-37.8041961,144.961958,,,0,Parking Meters,1,1,,,,,,MPM1805708,,365D,Yes
1805709,21,"-37.8064429, 144.9658104","Lygon Street between Victoria Street and Queensberry Street, approximately 7m South of RMIT City Campus Children's Centre, RMIT 17-25 Lygon Street CARLTON VIC 3053",,,,-37.8064429,144.9658104,,,0,Parking Meters,1,1,,,,,,MPM1805709,,223C,Yes
1805715,21,"-37.8016436, 144.965417","Cardigan Street between Argyle Place North and Grattan Street, approximately 6m North of The University of Melbourne, 138-146 Cardigan Street CARLTON VIC 3053",,,,-37.8016436,144.965417,,,0,Parking Meters,1,1,,,,,,MPM1805715,,296D,Yes
1805797,21,"-37.7933997, 144.9680544","Lygon Street between Lytton Street and Princes Street, approximately 8m South of VicRoads, 459 Lygon Street CARLTON VIC 3053",,,,-37.7933997,144.9680544,,,0,Parking Meters,1,1,,,,,,MPM1805797,,472A,Yes
1805807,21,"-37.793349, 144.966241","Cemetery Road East between College Crescent and Lygon Street, approximately 29m NW of Unit 2 Ground 495 Cardigan Street CARLTON VIC 3053",,,,-37.793349,144.966241,,,0,Parking Meters,1,1,,,,,,MPM1805807,,475A,Yes
1805820,21,"-37.7787747, 144.9621767","Bowen Crescent between Garton Street and Park Street, approximately 3m North of Princes Park Carlton Bowls Club Inc, Princes Park Carlton Bowls Club Princes Park 109 Bowen Crescent CARLTON NORTH VIC 3054",,,,-37.7787747,144.9621767,,,0,Parking Meters,1,1,,,,,,MPM1805820,,482A,Yes
1851924,21,"-37.7978657, 144.967548","Lygon Street between Faraday Street and Elgin Street, approximately 7m SW of Idyl, 388 Lygon Street CARLTON VIC 3053",,,,-37.7978657,144.967548,,,0,Parking Meters,1,1,,,,,,MPM1851924,Yes,210A,Yes
1891630,21,"-37.8029919, 144.9671122","Pelham Street between Drummond Street and Lygon Street, approximately 2m North of Option-O Brew Lab, 67 Pelham Street CARLTON VIC 3053",,,,-37.8029919,144.9671122,,,0,Parking Meters,1,1,,,,,,MPM1891630,Yes,167C,Yes
1891634,21,"-37.8029229, 144.9684861","Pelham Street between Rathdowne Street and Drummond Street, approximately 33m NW of Carpark Basement 15-31 Pelham Street CARLTON VIC 3053",,,,-37.8029229,144.9684861,,,0,Parking Meters,1,1,,,,,,MPM1891634,Yes,293C,Yes
1891639,21,"-37.8002483, 144.9671348","Lygon Street between Grattan Street and Faraday Street, approximately 7m NW of Bendigo Bank, 282 Lygon Street CARLTON VIC 3053",,,,-37.8002483,144.9671348,,,0,Parking Meters,1,1,,,,,,MPM1891639,Yes,349C,Yes
1891640,21,"-37.8019211, 144.9666111","Lygon Street between Argyle Place North and Grattan Street, approximately 6m East of 7-Eleven, 161 Lygon Street CARLTON VIC 3053",,,,-37.8019211,144.9666111,,,0,Parking Meters,1,1,,,,,,MPM1891640,Yes,367B,Yes
1891643,21,"-37.8023353, 144.9697918","Rathdowne Street between Pelham Street and Grattan Street, approximately 26m East of Sacred Heart, 199 Rathdowne Street CARLTON VIC 3053",,,,-37.8023353,144.9697918,,,0,Parking Meters,1,1,,,,,,MPM1891643,Yes,162C,Yes
1891646,21,"-37.8049538, 144.965715","Queensberry Street between Lygon Street and Cardigan Street, approximately 28m South of Miss Siam Massage, 98 Queensberry Street CARLTON VIC 3053",,,,-37.8049538,144.965715,,,0,Parking Meters,1,1,,,,,,MPM1891646,Yes,191C,Yes
1891660,21,"-37.804583, 144.9623429","Queensberry Street between Swanston Street and Bouverie Street, approximately 14m East of Central Cleaning Supplies (Aust) Pty Ltd, 201-203 Queensberry Street CARLTON VIC 3053",,,,-37.804583,144.9623429,,,0,Parking Meters,1,1,,,,,,MPM1891660,Yes,318A,Yes
1891665,21,"-37.8024443, 144.9641409","Pelham Street between Cardigan Street and Swanston Street, approximately 18m West of Voodu Marketing Pty Ltd, Part Ground 106 Pelham Street CARLTON VIC 3053",,,,-37.8024443,144.9641409,,,0,Parking Meters,1,1,,,,,,MPM1891665,Yes,304A,Yes
1891666,21,"-37.7985548, 144.9651129","Faraday Street between Cardigan Street and Swanston Street, approximately 17m East of VCS Foundation Ltd, Part Ground 265 Faraday Street CARLTON VIC 3053",,,,-37.7985548,144.9651129,,,0,Parking Meters,1,1,,,,,,MPM1891666,Yes,303B,Yes
1891670,21,"-37.7984641, 144.9714939","MacArthur Place South between Canning Street and Rathdowne Street, approximately 18m North of 37-39 MacArthur Place South CARLTON VIC 3053",,,,-37.7984641,144.9714939,,,0,Parking Meters,1,1,,,,,,MPM1891670,Yes,174C,Yes
1891681,21,"-37.8052028, 144.9680263","Queensberry Street between Rathdowne Street and Drummond Street, approximately 18m NE of Elmsmere House, 70-72 Drummond Street CARLTON VIC 3053",,,,-37.8052028,144.9680263,,,0,Parking Meters,1,1,,,,,,MPM1891681,Yes,313A,Yes
1891686,21,"-37.8063917, 144.9688405","Rathdowne Street between Victoria Street and Queensberry Street, approximately 5m SE of 35 Rathdowne Street CARLTON VIC 3053",,,,-37.8063917,144.9688405,,,0,Parking Meters,1,1,,,,,,MPM1891686,Yes,361A,Yes
1891692,21,"-37.8017585, 144.9698977","Rathdowne Street between Pelham Street and Grattan Street, approximately 27m East of 233 Rathdowne Street CARLTON VIC 3053",,,,-37.8017585,144.9698977,,,0,Parking Meters,1,1,,,,,,MPM1891692,Yes,162B,Yes
1891694,21,"-37.8049304, 144.9655245","Queensberry Street between Lygon Street and Cardigan Street, approximately 27m South of Triggah Hair, 102 Queensberry Street CARLTON VIC 3053",,,,-37.8049304,144.9655245,,,0,Parking Meters,1,1,,,,,,MPM1891694,Yes,191B,Yes
1891697,21,"-37.8031545, 144.9686101","Pelham Street between Rathdowne Street and Drummond Street, approximately 6m NW of Carpark Basement 15-31 Pelham Street CARLTON VIC 3053",,,,-37.8031545,144.9686101,,,0,Parking Meters,1,1,,,,,,MPM1891697,Yes,293A,Yes
1891698,21,"-37.8001601, 144.9669189","Lygon Street between Grattan Street and Faraday Street, approximately 6m SE of Phoenix Live, 223 Lygon Street CARLTON VIC 3053",,,,-37.8001601,144.9669189,,,0,Parking Meters,1,1,,,,,,MPM1891698,Yes,349B,Yes
1891699,21,"-37.7994086, 144.9672708","Lygon Street between Grattan Street and Faraday Street, approximately 6m West of Husk, Ground 324 Lygon Street CARLTON VIC 3053",,,,-37.7994086,144.9672708,,,0,Parking Meters,1,1,,,,,,MPM1891699,Yes,349A,Yes
1891702,21,"-37.8014403, 144.9669251","Lygon Street between Argyle Place North and Grattan Street, approximately 8m NW of Biryani Maama, 242-244 Lygon Street CARLTON VIC 3053",,,,-37.8014403,144.9669251,,,0,Parking Meters,1,1,,,,,,MPM1891702,Yes,367A,Yes
1891703,21,"-37.8021583, 144.966192","Argyle Place North between Lygon Street and Cardigan Street, approximately 28m South of 10 Argyle Place North CARLTON VIC 3053",,,,-37.8021583,144.966192,,,0,Parking Meters,1,1,,,,,,MPM1891703,Yes,357A,Yes
1891706,21,"-37.8027745, 144.9671203","Pelham Street between Drummond Street and Lygon Street, approximately 4m South of Streetwise Psychology, 68 Pelham Street CARLTON VIC 3053",,,,-37.8027745,144.9671203,,,0,Parking Meters,1,1,,,,,,MPM1891706,Yes,167B,Yes
1647451,21,"-37.8066142, 144.9635479","Victoria Street between Cardigan Street and Swanston Street, approximately 8m West of Royal Melbourne Institute Of Technology, 110-120 Victoria Street CARLTON VIC 3053",,,,-37.8066142,144.9635479,,,0,Parking Meters,1,1,,,,,,MPM1647451,Yes,695A,Yes
1647640,21,"-37.8047484, 144.9598658","Berkeley Street between Leicester Street and Queensberry Street, approximately 20m SW of Ultima Max, 63 Leicester Street CARLTON VIC 3053",,,,-37.8047484,144.9598658,,,0,Parking Meters,1,1,,,,,,MPM1647640,Yes,169A,Yes
1647659,21,"-37.8034073, 144.9597909","Barry Street between Leicester Street and Pelham Street, approximately 29m SW of Gnd & Flr1 34-40 Barry Street CARLTON VIC 3053",,,,-37.8034073,144.9597909,,,0,Parking Meters,1,1,,,,,,MPM1647659,Yes,307C,Yes
1647660,21,"-37.8030369, 144.9590797","Berkeley Street between Queensberry Street and Pelham Street, approximately 15m South of Seven Seeds, 106-114 Berkeley Street CARLTON VIC 3053",,,,-37.8030369,144.9590797,,,0,Parking Meters,1,1,,,,,,MPM1647660,Yes,172E,Yes
1647706,21,"-37.8034415, 144.9620908","Bouverie Street between Queensberry Street and Lincoln Square South, approximately 26m North of Bouverie Residence Pty Ltd, 116-120 Bouverie Street CARLTON VIC 3053",,,,-37.8034415,144.9620908,,,0,Parking Meters,1,1,,,,,,MPM1647706,Yes,365A,Yes
1647713,21,"-37.8034062, 144.9605877","Leicester Street between Queensberry Street and Pelham Street, approximately 10m SW of Student Village, 108-128 Leicester Street CARLTON VIC 3053",,,,-37.8034062,144.9605877,,,0,Parking Meters,1,1,,,,,,MPM1647713,Yes,306B,Yes
1647735,21,"-37.8034732, 144.9632961","Swanston Street between Queensberry Street and Lincoln Square South, approximately 18m North of Press & Grocers Co, 625-635 Swanston Street CARLTON VIC 3053",,,,-37.8034732,144.9632961,,,0,Parking Meters,1,1,,,,,,MPM1647735,Yes,262E,Yes
1647737,21,"-37.8039671, 144.9617201","Bouverie Street between Queensberry Street and Lincoln Square South, approximately 15m South of Anthos Dental, 117 Bouverie Street CARLTON VIC 3053",,,,-37.8039671,144.9617201,,,0,Parking Meters,1,1,,,,,,MPM1647737,Yes,365B,Yes
1647759,21,"-37.8015626, 144.9627604","Lincoln Square North between Swanston Street and Bouverie Street, approximately 9m SE of Ground East Suite 32 Lincoln Square North CARLTON VIC 3053",,,,-37.8015626,144.9627604,,,0,Parking Meters,1,1,,,,,,MPM1647759,Yes,355A,Yes
1647770,21,"-37.806336, 144.9652481","Orr Street between Victoria Street and Earl Street, approximately 5m SW of Unilodge D2 Apartments, Part Ground 22 Orr Street CARLTON VIC 3053",,,,-37.806336,144.9652481,,,0,Parking Meters,1,1,,,,,,MPM1647770,Yes,224A,Yes
1647776,21,"-37.7886183, 144.9591377","Royal Parade between MacArthur Road and Leonard Street, approximately 46m South of Southern Sports Pavilion Princes Park 240 Royal Parade CARLTON NORTH VIC 3054",,,,-37.7886183,144.9591377,,,0,Parking Meters,1,1,,,,,,MPM1647776,Yes,490B,Yes
1647795,21,"-37.8023438, 144.9611889","Pelham Street between Bouverie Street and Leicester Street, approximately 3m NW of 161 Pelham Street CARLTON VIC 3053",,,,-37.8023438,144.9611889,,,0,Parking Meters,1,1,,,,,,MPM1647795,Yes,321B,Yes
1802352,21,"-37.7935462, 144.9671394","Lytton Street between Lygon Street and Cardigan Street, approximately 56m East of Unit 2 Ground 495 Cardigan Street CARLTON VIC 3053",,,,-37.7935462,144.9671394,,,0,Parking Meters,1,1,,,,,,MPM1802352,Yes,471A,Yes
1802353,21,"-37.7937757, 144.9673992","Lytton Street between Lygon Street and Cardigan Street, approximately 75m SW of VicRoads, 459 Lygon Street CARLTON VIC 3053",,,,-37.7937757,144.9673992,,,0,Parking Meters,1,1,,,,,,MPM1802353,Yes,471B,Yes
1802355,21,"-37.7932391, 144.9680835","Lygon Street between Lytton Street and Princes Street, approximately 11m North of VicRoads, 459 Lygon Street CARLTON VIC 3053",,,,-37.7932391,144.9680835,,,0,Parking Meters,1,1,,,,,,MPM1802355,Yes,472B,Yes
1805609,21,"-37.8030171, 144.9651751","Cardigan Street between Argyle Place South and Pelham Street, approximately 42m NE of Voyager Distributing Company Pty Ltd, 143-147 Cardigan Street CARLTON VIC 3053",,,,-37.8030171,144.9651751,,,0,Parking Meters,1,1,,,,,,MPM1805609,,363E,Yes
1805610,21,"-37.8022646, 144.9653024","Cardigan Street between Pelham Street and Argyle Place North, approximately 30m SE of 199 Cardigan Street CARLTON VIC 3053",,,,-37.8022646,144.9653024,,,0,Parking Meters,1,1,,,,,,MPM1805610,,363D,Yes
1805656,21,"-37.7983548, 144.9653117","Faraday Street between Cardigan Street and Swanston Street, approximately 4m SE of 260 Faraday Street CARLTON VIC 3053",,,,-37.7983548,144.9653117,,,0,Parking Meters,1,1,,,,,,MPM1805656,,303C,Yes
1805657,21,"-37.7985818, 144.9654061","Faraday Street between Cardigan Street and Swanston Street, approximately 8m NW of Kathleen Syme Library And Community Centre, 251 Faraday Street CARLTON VIC 3053",,,,-37.7985818,144.9654061,,,0,Parking Meters,1,1,,,,,,MPM1805657,,303D,Yes
1805661,21,"-37.7982043, 144.9709913","MacArthur Place North between Canning Street and Rathdowne Street, approximately 19m South of 64 MacArthur Place North CARLTON VIC 3053",,,,-37.7982043,144.9709913,,,0,Parking Meters,1,1,,,,,,MPM1805661,,174D,Yes
1805675,21,"-37.8004602, 144.9588104","Berkeley Street between Pelham Street and Grattan Street, approximately 3m West of Building 206, 214 Berkeley Street CARLTON VIC 3053",,,,-37.8004602,144.9588104,,,0,Parking Meters,1,1,,,,,,MPM1805675,,168A,Yes
1805679,21,"-37.802572, 144.9588603","Berkeley Street between Queensberry Street and Pelham Street, approximately 2m SW of 122-136 Berkeley Street CARLTON VIC 3053",,,,-37.802572,144.9588603,,,0,Parking Meters,1,1,,,,,,MPM1805679,,172D,Yes
1805690,21,"-37.8049823, 144.9603038","Leicester Street between Berkeley Street and Queensberry Street, approximately 9m SW of The Hon Samantha Ratnam, Suite G1 Ground 60 Leicester Street CARLTON VIC 3053",,,,-37.8049823,144.9603038,,,0,Parking Meters,1,1,,,,,,MPM1805690,,308C,Yes
1805697,21,"-37.8049172, 144.961834","Bouverie Street between Victoria Street and Queensberry Street, approximately 18m North of 46-78 Bouverie Street CARLTON VIC 3053",,,,-37.8049172,144.961834,,,0,Parking Meters,1,1,,,,,,MPM1805697,,228D,Yes
1805701,21,"-37.8020222, 144.96205","Bouverie Street between Pelham Street and Lincoln Square North, approximately 8m North of Australian College Of Sport And Fitness, Level 1 183-189 Bouverie Street CARLTON VIC 3053",,,,-37.8020222,144.96205,,,0,Parking Meters,1,1,,,,,,MPM1805701,,364C,Yes
1805703,21,"-37.8034852, 144.9635891","Swanston Street between Queensberry Street and Lincoln Square South, approximately 4m NW of Scape Lincoln Square, 562 Swanston Street CARLTON VIC 3053",,,,-37.8034852,144.9635891,,,0,Parking Meters,1,1,,,,,,MPM1805703,,262D,Yes
1805704,21,"-37.8059902, 144.9613717","Bouverie Street between Victoria Street and Queensberry Street, approximately 17m South of 21-25 Bouverie Street CARLTON VIC 3053",,,,-37.8059902,144.9613717,,,0,Parking Meters,1,1,,,,,,MPM1805704,,228C,Yes
1805711,21,"-37.8029717, 144.9633964","Swanston Street between Lincoln Square South and Pelham Street, approximately 28m West of Voyager Distributing Company Pty Ltd, 586-590 Swanston Street CARLTON VIC 3053",,,,-37.8029717,144.9633964,,,0,Parking Meters,1,1,,,,,,MPM1805711,,262C,Yes
1805713,21,"-37.8011263, 144.9652163","Cardigan Street between Argyle Place North and Grattan Street, approximately 11m South of 245 Cardigan Street CARLTON VIC 3053",,,,-37.8011263,144.9652163,,,0,Parking Meters,1,1,,,,,,MPM1805713,,296C,Yes
1805714,21,"-37.8032734, 144.9630005","Lincoln Square South between Swanston Street and Bouverie Street, approximately 10m East of Hareruya Pantry, Ground 15-17 Lincoln Square South CARLTON VIC 3053",,,,-37.8032734,144.9630005,,,0,Parking Meters,1,1,,,,,,MPM1805714,,320A,Yes
1805800,21,"-37.7946478, 144.9648436","Swanston Street between Elgin Street and College Crescent, approximately 27m West of 928 Swanston Street CARLTON VIC 3053",,,,-37.7946478,144.9648436,,,0,Parking Meters,1,1,,,,,,MPM1805800,,473B,Yes
1805816,21,"-37.788077, 144.9592037","Royal Parade between MacArthur Road and Leonard Street, approximately 18m NW of Southern Sports Pavilion Princes Park 240 Royal Parade CARLTON NORTH VIC 3054",,,,-37.788077,144.9592037,,,0,Parking Meters,1,1,,,,,,MPM1805816,,490A,Yes
1805893,21,"-37.8063042, 144.9651702","Orr Street between Victoria Street and Earl Street, approximately 7m North of Royal Melbourne Institute Of Technology, 15 Orr Street CARLTON VIC 3053",,,,-37.8063042,144.9651702,,,0,Parking Meters,1,1,,,,,,MPM1805893,,224B,Yes
1891615,21,"-37.804411, 144.969178","Rathdowne Street between Queensberry Street and Pelham Street, approximately 20m North of Sheng Run House, 97-105 Rathdowne Street CARLTON VIC 3053",,,,-37.804411,144.969178,,,0,Parking Meters,1,1,,,,,,MPM1891615,Yes,338B,Yes
1891626,21,"-37.8033586, 144.966586","Lygon Street between Argyle Place South and Pelham Street, approximately 6m West of Carlton Audio/Visual, 164 Lygon Street CARLTON VIC 3053",,,,-37.8033586,144.966586,,,0,Parking Meters,1,1,,,,,,MPM1891626,Yes,368A,Yes
1891628,21,"-37.8050601, 144.966708","Queensberry Street between Drummond Street and Lygon Street, approximately 22m West of Romanian Orthodox Church, Part 61-63 Queensberry Street CARLTON VIC 3053",,,,-37.8050601,144.966708,,,0,Parking Meters,1,1,,,,,,MPM1891628,Yes,311D,Yes
1891631,21,"-37.8028103, 144.967516","Pelham Street between Drummond Street and Lygon Street, approximately 3m South of 54 Pelham Street CARLTON VIC 3053",,,,-37.8028103,144.967516,,,0,Parking Meters,1,1,,,,,,MPM1891631,Yes,167D,Yes
1891633,21,"-37.8032073, 144.9690909","Pelham Street between Rathdowne Street and Drummond Street, approximately 20m West of Incolink, 1 Pelham Street CARLTON VIC 3053",,,,-37.8032073,144.9690909,,,0,Parking Meters,1,1,,,,,,MPM1891633,Yes,293D,Yes
1891635,21,"-37.8062154, 144.9688702","Rathdowne Street between Victoria Street and Queensberry Street, approximately 16m North of 35 Rathdowne Street CARLTON VIC 3053",,,,-37.8062154,144.9688702,,,0,Parking Meters,1,1,,,,,,MPM1891635,Yes,361B,Yes
1891636,21,"-37.8040903, 144.964709","Cardigan Street between Queensberry Street and Argyle Place South, approximately 4m NE of 109 Cardigan Street CARLTON VIC 3053",,,,-37.8040903,144.964709,,,0,Parking Meters,1,1,,,,,,MPM1891636,Yes,297C,Yes
1891642,21,"-37.802738, 144.9694498","Rathdowne Street between Pelham Street and Grattan Street, approximately 26m North of Sacred Heart, 169 Rathdowne Street CARLTON VIC 3053",,,,-37.802738,144.9694498,,,0,Parking Meters,1,1,,,,,,MPM1891642,Yes,162D,Yes
1891644,21,"-37.8057459, 144.9662079","Lygon Street between Victoria Street and Queensberry Street, approximately 5m NW of Christian Chapel - Lygon St Church Of Christ Inc, 54 Lygon Street CARLTON VIC 3053",,,,-37.8057459,144.9662079,,,0,Parking Meters,1,1,,,,,,MPM1891644,Yes,223D,Yes
1891645,21,"-37.8063199, 144.9661085","Lygon Street between Victoria Street and Queensberry Street, approximately 12m North of The Victorian Trades Hall Council, Trades Hall 2-40 Lygon Street CARLTON VIC 3053",,,,-37.8063199,144.9661085,,,0,Parking Meters,1,1,,,,,,MPM1891645,Yes,223E,Yes
1891648,21,"-37.8027195, 144.9739333","Nicholson Street between Victoria Street and Carlton Street, approximately 67m SE of Carlton Gardens Tennis Club (Inc), Carlton Gardens Tennis Club Carlton Gardens North Nicholson Street CARLTON VIC 3053",,,,-37.8027195,144.9739333,,,0,Parking Meters,1,1,,,,,,MPM1891648,Yes,161B,Yes
1891667,21,"-37.8014552, 144.9651675","Cardigan Street between Argyle Place North and Grattan Street, approximately 20m South of Unit 1 233 Cardigan Street CARLTON VIC 3053",,,,-37.8014552,144.9651675,,,0,Parking Meters,1,1,,,,,,MPM1891667,Yes,296B,Yes
1891669,21,"-37.8011074, 144.965505","Cardigan Street between Argyle Place North and Grattan Street, approximately 3m SW of 170-174 Cardigan Street CARLTON VIC 3053",,,,-37.8011074,144.965505,,,0,Parking Meters,1,1,,,,,,MPM1891669,Yes,296A,Yes
1891672,21,"-37.8006188, 144.964964","Grattan Street between Cardigan Street and Swanston Street, approximately 23m West of Domino's Pizza, Shop 2 Ground 121 Grattan Street CARLTON VIC 3053",,,,-37.8006188,144.964964,,,0,Parking Meters,1,1,,,,,,MPM1891672,Yes,373B,Yes
1891674,21,"-37.8013609, 144.9639506","Swanston Street between Lincoln Square North and Grattan Street, approximately 7m SW of Laundromat @ 650 Swanston Street, 650 Swanston Street CARLTON VIC 3053",,,,-37.8013609,144.9639506,,,0,Parking Meters,1,1,,,,,,MPM1891674,Yes,371B,Yes
1891679,21,"-37.8047554, 144.9639338","Queensberry Street between Cardigan Street and Swanston Street, approximately 9m East of Kagetsu, 151 Queensberry Street CARLTON VIC 3053",,,,-37.8047554,144.9639338,,,0,Parking Meters,1,1,,,,,,MPM1891679,Yes,342B,Yes
1891682,21,"-37.804867, 144.9669995","Queensberry Street between Drummond Street and Lygon Street, approximately 16m East of 68 Queensberry Street CARLTON VIC 3053",,,,-37.804867,144.9669995,,,0,Parking Meters,1,1,,,,,,MPM1891682,Yes,311B,Yes
1891689,21,"-37.8056929, 144.9659384","Lygon Street between Victoria Street and Queensberry Street, approximately 6m South of Royal Melbourne Institute Of Technology, 53-59 Lygon Street CARLTON VIC 3053",,,,-37.8056929,144.9659384,,,0,Parking Meters,1,1,,,,,,MPM1891689,Yes,223A,Yes
1891691,21,"-37.8016499, 144.9696287","Rathdowne Street between Pelham Street and Grattan Street, approximately 3m NE of 233 Rathdowne Street CARLTON VIC 3053",,,,-37.8016499,144.9696287,,,0,Parking Meters,1,1,,,,,,MPM1891691,Yes,162A,Yes
1891696,21,"-37.8039406, 144.9650097","Cardigan Street between Queensberry Street and Argyle Place South, approximately 4m NW of 114 Cardigan Street CARLTON VIC 3053",,,,-37.8039406,144.9650097,,,0,Parking Meters,1,1,,,,,,MPM1891696,Yes,297B,Yes
1891704,21,"-37.8033801, 144.9660053","Argyle Place South between Lygon Street and Cardigan Street, approximately 16m NW of Parco Canteen, 2 Argyle Place South CARLTON VIC 3053",,,,-37.8033801,144.9660053,,,0,Parking Meters,1,1,,,,,,MPM1891704,Yes,356A,Yes
1891705,21,"-37.8030326, 144.9675203","Pelham Street between Drummond Street and Lygon Street, approximately 12m East of 57 Pelham Street CARLTON VIC 3053",,,,-37.8030326,144.9675203,,,0,Parking Meters,1,1,,,,,,MPM1891705,Yes,167A,Yes
1891708,21,"-37.8068652, 144.9732328",Nicholson Street between Victoria Street and Carlton Street,,,,-37.8068652,144.9732328,,,0,Parking Meters,1,1,,,,,,MPM1891708,Yes,161D,Yes
1898609,21,"-37.7983171, 144.9720709","MacArthur Place North between Canning Street and Rathdowne Street, approximately 19m South of 20 MacArthur Place North CARLTON VIC 3053",,,,-37.7983171,144.9720709,,,0,Parking Meters,1,1,,,,,,MPM1898609,Yes,174F,Yes
1647140,21,"-37.8027478, 144.961933","Bouverie Street between Lincoln Square South and Pelham Street, approximately 3m SE of Carpark Ground 165 Bouverie Street CARLTON VIC 3053",,,,-37.8027478,144.961933,,,0,Parking Meters,1,1,,,,,,MPM1647140,Yes,365E,Yes
1647361,21,"-37.8067554, 144.9648324","Victoria Street between Lygon Street and Cardigan Street, approximately 4m South of Royal Melbourne Institute Of Technology, 80-92 Victoria Street CARLTON VIC 3053",,,,-37.8067554,144.9648324,,,0,Parking Meters,1,1,,,,,,MPM1647361,Yes,694A,Yes
1647470,21,"-37.8068145, 144.9653653","Victoria Street between Lygon Street and Cardigan Street, approximately 4m SE of Chinger Biang Biang Noodle, Ground 74 Victoria Street CARLTON VIC 3053",,,,-37.8068145,144.9653653,,,0,Parking Meters,1,1,,,,,,MPM1647470,Yes,694B,Yes
1647471,21,"-37.8070277, 144.9653208","Victoria Street between Lygon Street and Cardigan Street, approximately 27m South of Chinger Biang Biang Noodle, Ground 74 Victoria Street CARLTON VIC 3053",,,,-37.8070277,144.9653208,,,0,Parking Meters,1,1,,,,,,MPM1647471,Yes,694C,Yes
1647483,21,"-37.8069487, 144.966591","Victoria Street between Drummond Street and Lygon Street, approximately 6m SE of Hope Kiosk, Kiosk Ground 54 Victoria Street CARLTON VIC 3053",,,,-37.8069487,144.966591,,,0,Parking Meters,1,1,,,,,,MPM1647483,Yes,693A,Yes
1647527,21,"-37.8071094, 144.9681163","Victoria Street between Rathdowne Street and Drummond Street, approximately 19m East of ZAP Fitness 24/7, Ground 28 Victoria Street CARLTON VIC 3053",,,,-37.8071094,144.9681163,,,0,Parking Meters,1,1,,,,,,MPM1647527,Yes,692B,Yes
1647643,21,"-37.8011234, 144.9622147","Bouverie Street between Lincoln Square North and Grattan Street, approximately 6m South of Faculty Of Business & Economics, 225-235 Bouverie Street CARLTON VIC 3053",,,,-37.8011234,144.9622147,,,0,Parking Meters,1,1,,,,,,MPM1647643,Yes,178B,Yes
1647647,21,"-37.8037229, 144.9665355","Lygon Street between Queensberry Street and Argyle Place South, approximately 5m NW of Khabbay Restaurant, 144-146 Lygon Street CARLTON VIC 3053",,,,-37.8037229,144.9665355,,,0,Parking Meters,1,1,,,,,,MPM1647647,Yes,368D,Yes
1647655,21,"-37.800856, 144.9587418","Berkeley Street between Pelham Street and Grattan Street, approximately 6m SW of School Of Health Services, Building 260 (MSHS) 182-200 Berkeley Street CARLTON VIC 3053",,,,-37.800856,144.9587418,,,0,Parking Meters,1,1,,,,,,MPM1647655,Yes,168D,Yes
1647673,21,"-37.8028024, 144.9604178","Leicester Street between Queensberry Street and Pelham Street, approximately 3m East of John A Morris, 135-139 Leicester Street CARLTON VIC 3053",,,,-37.8028024,144.9604178,,,0,Parking Meters,1,1,,,,,,MPM1647673,Yes,306A,Yes
1647707,21,"-37.8019055, 144.9659662","Argyle Place North between Lygon Street and Cardigan Street, approximately 3m SW of 16-18 Argyle Place North CARLTON VIC 3053",,,,-37.8019055,144.9659662,,,0,Parking Meters,1,1,,,,,,MPM1647707,Yes,357C,Yes
1647710,21,"-37.8018886, 144.9590923","Pelham Street between Berkeley Street and Barry Street, approximately 19m West of Spot Mart, 196 Pelham Street CARLTON VIC 3053",,,,-37.8018886,144.9590923,,,0,Parking Meters,1,1,,,,,,MPM1647710,Yes,322A,Yes
1647722,21,"-37.8054182, 144.961452","Bouverie Street between Victoria Street and Queensberry Street, approximately 17m South of CitiPower Pty Ltd, Substation BQ 43-61 Bouverie Street CARLTON VIC 3053",,,,-37.8054182,144.961452,,,0,Parking Meters,1,1,,,,,,MPM1647722,Yes,228E,Yes
1647723,21,"-37.805141, 144.9598516","Berkeley Street between Leicester Street and Queensberry Street, approximately 24m SW of Ground 51 Leicester Street CARLTON VIC 3053",,,,-37.805141,144.9598516,,,0,Parking Meters,1,1,,,,,,MPM1647723,Yes,169B,Yes
1647747,21,"-37.8021682, 144.9650433","Cardigan Street between Pelham Street and Argyle Place North, approximately 6m SE of 199 Cardigan Street CARLTON VIC 3053",,,,-37.8021682,144.9650433,,,0,Parking Meters,1,1,,,,,,MPM1647747,Yes,363A,Yes
1647754,21,"-37.8011041, 144.962497","Bouverie Street between Lincoln Square North and Grattan Street, approximately 3m SW of The University Of Melbourne - Digitisation Service, 158-164 Bouverie Street CARLTON VIC 3053",,,,-37.8011041,144.962497,,,0,Parking Meters,1,1,,,,,,MPM1647754,Yes,178A,Yes
1784234,21,"-37.8027108, 144.9645579","Pelham Street between Cardigan Street and Swanston Street, approximately 25m East of Mid Square Coffee, 119 Pelham Street CARLTON VIC 3053",,,,-37.8027108,144.9645579,,,0,Parking Meters,1,1,,,,,,MPM1784234,Yes,304B,Yes
1802357,21,"-37.7783095, 144.9614764","Park Street between Royal Parade and Bowen Crescent, approximately 82m NW of Princes Park Carlton Bowls Club Inc, Princes Park Carlton Bowls Club Princes Park 109 Bowen Crescent CARLTON NORTH VIC 3054",,,,-37.7783095,144.9614764,,,0,Parking Meters,1,1,,,,,,MPM1802357,Yes,483B,Yes
1802360,21,"-37.8079697, 144.9726402","Victoria Parade between Nicholson Street and Spring Street, approximately 35m SE of Burton Reserve 1A Victoria Parade CARLTON VIC 3053",,,,-37.8079697,144.9726402,,,0,Parking Meters,1,1,,,,,,MPM1802360,Yes,899B,Yes
1802364,21,"-37.7939478, 144.9652253","Swanston Street between Elgin Street and College Crescent, approximately 52m NW of 106 Keppel Street CARLTON VIC 3053",,,,-37.7939478,144.9652253,,,0,Parking Meters,1,1,,,,,,MPM1802364,Yes,473A,Yes
1802367,21,"-37.7951917, 144.972069","Kay Street between Canning Street and Rathdowne Street, approximately 3m North of 89-91 Kay Street CARLTON VIC 3053",,,,-37.7951917,144.972069,,,0,Parking Meters,1,1,,,,,,MPM1802367,Yes,470A,Yes
1805612,21,"-37.8024848, 144.9645308","Pelham Street between Cardigan Street and Swanston Street, approximately 18m East of Voodu Marketing Pty Ltd, Part Ground 106 Pelham Street CARLTON VIC 3053",,,,-37.8024848,144.9645308,,,0,Parking Meters,1,1,,,,,,MPM1805612,,304C,Yes
1805676,21,"-37.8014368, 144.9586368","Berkeley Street between Pelham Street and Grattan Street, approximately 9m North of Faculty Of Business & Economics, 156-180 Berkeley Street CARLTON VIC 3053",,,,-37.8014368,144.9586368,,,0,Parking Meters,1,1,,,,,,MPM1805676,,168C,Yes
1805689,21,"-37.803087, 144.9599363","Barry Street between Leicester Street and Pelham Street, approximately 18m NW of Gnd & Flr1 34-40 Barry Street CARLTON VIC 3053",,,,-37.803087,144.9599363,,,0,Parking Meters,1,1,,,,,,MPM1805689,,307B,Yes
1805692,21,"-37.8023841, 144.9616112","Pelham Street between Bouverie Street and Leicester Street, approximately 8m East of Law And Advocacy Centre For Women, Part Ground 147-155 Pelham Street CARLTON VIC 3053",,,,-37.8023841,144.9616112,,,0,Parking Meters,1,1,,,,,,MPM1805692,,321D,Yes
1805694,21,"-37.8020693, 144.9587548","Pelham Street between Berkeley Street and Barry Street, approximately 31m North of 140 Berkeley Street CARLTON VIC 3053",,,,-37.8020693,144.9587548,,,0,Parking Meters,1,1,,,,,,MPM1805694,,322B,Yes
1805695,21,"-37.8021114, 144.9611469","Pelham Street between Bouverie Street and Leicester Street, approximately 15m West of The University of Melbourne, 164-170 Pelham Street CARLTON VIC 3053",,,,-37.8021114,144.9611469,,,0,Parking Meters,1,1,,,,,,MPM1805695,,321C,Yes
1805696,21,"-37.8035212, 144.9617821","Bouverie Street between Queensberry Street and Lincoln Square South, approximately 18m North of Unilodge Lincoln House, 125 Bouverie Street CARLTON VIC 3053",,,,-37.8035212,144.9617821,,,0,Parking Meters,1,1,,,,,,MPM1805696,,365C,Yes
1805698,21,"-37.8060132, 144.961641","Bouverie Street between Victoria Street and Queensberry Street, approximately 7m North of Mr Dad Asian Supermarket, 16 Bouverie Street CARLTON VIC 3053",,,,-37.8060132,144.961641,,,0,Parking Meters,1,1,,,,,,MPM1805698,,228F,Yes
1805699,21,"-37.8015912, 144.9630921","Lincoln Square North between Swanston Street and Bouverie Street, approximately 11m East of 20 Lincoln Square North CARLTON VIC 3053",,,,-37.8015912,144.9630921,,,0,Parking Meters,1,1,,,,,,MPM1805699,,355C,Yes
1805705,21,"-37.8028082, 144.962196","Bouverie Street between Lincoln Square South and Pelham Street, approximately 27m East of Carpark Ground 165 Bouverie Street CARLTON VIC 3053",,,,-37.8028082,144.962196,,,0,Parking Meters,1,1,,,,,,MPM1805705,,365F,Yes
1805707,21,"-37.8007486, 144.9622728","Bouverie Street between Lincoln Square North and Grattan Street, approximately 4m SE of The University of Melbourne, Ground 247-249 Bouverie Street CARLTON VIC 3053",,,,-37.8007486,144.9622728,,,0,Parking Meters,1,1,,,,,,MPM1805707,,178C,Yes
1805710,21,"-37.8048971, 144.9615567","Bouverie Street between Victoria Street and Queensberry Street, approximately 3m NE of Bouverie Dental, 69 Bouverie Street CARLTON VIC 3053",,,,-37.8048971,144.9615567,,,0,Parking Meters,1,1,,,,,,MPM1805710,,228A,Yes
1805712,21,"-37.8039564, 144.9632259","Swanston Street between Queensberry Street and Lincoln Square South, approximately 23m North of Essence Hotel Carlton, 609 Swanston Street CARLTON VIC 3053",,,,-37.8039564,144.9632259,,,0,Parking Meters,1,1,,,,,,MPM1805712,,262B,Yes
1805808,21,"-37.793159, 144.9662727","Cemetery Road East between College Crescent and Lygon Street, approximately 44m NW of Unit 2 Ground 495 Cardigan Street CARLTON VIC 3053",,,,-37.793159,144.9662727,,,0,Parking Meters,1,1,,,,,,MPM1805808,,475B,Yes
1805862,21,"-37.8079284, 144.972265","Victoria Parade between Nicholson Street and Spring Street, approximately 20m South of Burton Reserve 1A Victoria Parade CARLTON VIC 3053",,,,-37.8079284,144.972265,,,0,Parking Meters,1,1,,,,,,MPM1805862,,899A,Yes
1805875,21,"-37.8061881, 144.964625","Cardigan Street between Victoria Street and Queensberry Street, approximately 3m West of Royal Melbourne Institute Of Technology, 24 Cardigan Street CARLTON VIC 3053",,,,-37.8061881,144.964625,,,0,Parking Meters,1,1,,,,,,MPM1805875,,319C,Yes
1805894,21,"-37.8051761, 144.964525","Cardigan Street between Victoria Street and Queensberry Street, approximately 4m East of 71 Cardigan Street CARLTON VIC 3053",,,,-37.8051761,144.964525,,,0,Parking Meters,1,1,,,,,,MPM1805894,,319D,Yes
1851923,21,"-37.8053829, 144.9617533","Bouverie Street between Victoria Street and Queensberry Street, approximately 7m North of Icake, 44 Bouverie Street CARLTON VIC 3053",,,,-37.8053829,144.9617533,,,0,Parking Meters,1,1,,,,,,MPM1851923,Yes,228B,Yes
1891619,21,"-37.8033198, 144.9654189","Argyle Place South between Lygon Street and Cardigan Street, approximately 27m North of Functional Legacy Mindset Pty Ltd, 29 Argyle Place South CARLTON VIC 3053",,,,-37.8033198,144.9654189,,,0,Parking Meters,1,1,,,,,,MPM1891619,Yes,356B,Yes
1891625,21,"-37.8045061, 144.966167","Lygon Street between Queensberry Street and Argyle Place South, approximately 10m NE of Iga Express On Lygon, 101 Lygon Street CARLTON VIC 3053",,,,-37.8045061,144.966167,,,0,Parking Meters,1,1,,,,,,MPM1891625,Yes,368E,Yes
1891627,21,"-37.8041598, 144.9664515","Lygon Street between Queensberry Street and Argyle Place South, approximately 6m West of Kantin, 122 Lygon Street CARLTON VIC 3053",,,,-37.8041598,144.9664515,,,0,Parking Meters,1,1,,,,,,MPM1891627,Yes,368C,Yes
1891629,21,"-37.8048348, 144.9667033","Queensberry Street between Drummond Street and Lygon Street, approximately 11m West of 68 Queensberry Street CARLTON VIC 3053",,,,-37.8048348,144.9667033,,,0,Parking Meters,1,1,,,,,,MPM1891629,Yes,311C,Yes
1891638,21,"-37.8021001, 144.9656556","Argyle Place North between Lygon Street and Cardigan Street, approximately 28m South of Case Management Services Pty Ltd, 26 Argyle Place North CARLTON VIC 3053",,,,-37.8021001,144.9656556,,,0,Parking Meters,1,1,,,,,,MPM1891638,Yes,357B,Yes
1891641,21,"-37.8049826, 144.9680645","Queensberry Street between Rathdowne Street and Drummond Street, approximately 9m West of Capital Radiology, Ground 32 Queensberry Street CARLTON VIC 3053",,,,-37.8049826,144.9680645,,,0,Parking Meters,1,1,,,,,,MPM1891641,Yes,313C,Yes
1891647,21,"-37.8043995, 144.9649384","Cardigan Street between Queensberry Street and Argyle Place South, approximately 19m South of 102 Cardigan Street CARLTON VIC 3053",,,,-37.8043995,144.9649384,,,0,Parking Meters,1,1,,,,,,MPM1891647,Yes,297D,Yes
1891655,21,"-37.7994701, 144.9655","Cardigan Street between Grattan Street and Faraday Street, approximately 38m North of The Lofts At Melbourne Connect, Ground Mezzanine & Levels 1-13 285 Cardigan Street CARLTON VIC 3053",,,,-37.7994701,144.9655,,,0,Parking Meters,1,1,,,,,,MPM1891655,Yes,192C,Yes
1891656,21,"-37.8061593, 144.9643493","Cardigan Street between Victoria Street and Queensberry Street, approximately 5m SE of Royal Melbourne Institute Of Technology, 23-27 Cardigan Street CARLTON VIC 3053",,,,-37.8061593,144.9643493,,,0,Parking Meters,1,1,,,,,,MPM1891656,Yes,319B,Yes
1891658,21,"-37.8054587, 144.9647539","Cardigan Street between Victoria Street and Queensberry Street, approximately 5m NW of Royal Melbourne Institute Of Technology, RMIT Building 4374 & 76 52-56 Cardigan Street CARLTON VIC 3053",,,,-37.8054587,144.9647539,,,0,Parking Meters,1,1,,,,,,MPM1891658,Yes,319A,Yes
1891661,21,"-37.8043926, 144.9626364","Queensberry Street between Swanston Street and Bouverie Street, approximately 4m South of Adozen Adozen, 188 Queensberry Street CARLTON VIC 3053",,,,-37.8043926,144.9626364,,,0,Parking Meters,1,1,,,,,,MPM1891661,Yes,318B,Yes
1891662,21,"-37.8044183, 144.9608776","Queensberry Street between Bouverie Street and Leicester Street, approximately 11m East of 233-251 Queensberry Street CARLTON VIC 3053",,,,-37.8044183,144.9608776,,,0,Parking Meters,1,1,,,,,,MPM1891662,Yes,310A,Yes
1891663,21,"-37.8042149, 144.961043","Queensberry Street between Bouverie Street and Leicester Street, approximately 4m South of Melbourne Graduate School Of Education, 234 Queensberry Street CARLTON VIC 3053",,,,-37.8042149,144.961043,,,0,Parking Meters,1,1,,,,,,MPM1891663,Yes,310B,Yes
1891664,21,"-37.7983016, 144.9648223","Faraday Street between Cardigan Street and Swanston Street, approximately 7m West of The Peter McPhee Centre, 272-278 Faraday Street CARLTON VIC 3053",,,,-37.7983016,144.9648223,,,0,Parking Meters,1,1,,,,,,MPM1891664,Yes,303A,Yes
1891671,21,"-37.8035656, 144.9655871","Argyle Place South between Lygon Street and Cardigan Street, approximately 4m NE of Clinica Lase, Ground 23-25 Argyle Place South CARLTON VIC 3053",,,,-37.8035656,144.9655871,,,0,Parking Meters,1,1,,,,,,MPM1891671,Yes,356C,Yes
1891673,21,"-37.8003943, 144.9645284","Grattan Street between Cardigan Street and Swanston Street, approximately 46m NE of Colourful Yunnan Restaurant, 680-682 Swanston Street CARLTON VIC 3053",,,,-37.8003943,144.9645284,,,0,Parking Meters,1,1,,,,,,MPM1891673,Yes,373A,Yes
1891675,21,"-37.8009227, 144.964032","Swanston Street between Lincoln Square North and Grattan Street, approximately 7m SW of Scott's Print & Design, 670 Swanston Street CARLTON VIC 3053",,,,-37.8009227,144.964032,,,0,Parking Meters,1,1,,,,,,MPM1891675,Yes,371A,Yes
1891676,21,"-37.8007434, 144.9661134","Grattan Street between Lygon Street and Cardigan Street, approximately 7m NW of 99 Grattan Street CARLTON VIC 3053",,,,-37.8007434,144.9661134,,,0,Parking Meters,1,1,,,,,,MPM1891676,Yes,366B,Yes
1891677,21,"-37.7982443, 144.9713974","MacArthur Place North between Canning Street and Rathdowne Street, approximately 19m South of 46 MacArthur Place North CARLTON VIC 3053",,,,-37.7982443,144.9713974,,,0,Parking Meters,1,1,,,,,,MPM1891677,Yes,174B,Yes
1891678,21,"-37.805008, 144.9682601","Queensberry Street between Rathdowne Street and Drummond Street, approximately 4m SW of Lifestyle Loans (Vic) Pty Ltd, Ground 28 Queensberry Street CARLTON VIC 3053",,,,-37.805008,144.9682601,,,0,Parking Meters,1,1,,,,,,MPM1891678,Yes,313B,Yes
1891680,21,"-37.8045375, 144.9639762","Queensberry Street between Cardigan Street and Swanston Street, approximately 3m SW of Melbourne Chinese Church Of Christ, Chinese Church Of Christ 148-150 Queensberry Street CARLTON VIC 3053",,,,-37.8045375,144.9639762,,,0,Parking Meters,1,1,,,,,,MPM1891680,Yes,342A,Yes
1891683,21,"-37.8050844, 144.9669545","Queensberry Street between Drummond Street and Lygon Street, approximately 3m North of Romanian Orthodox Church, Part 61-63 Queensberry Street CARLTON VIC 3053",,,,-37.8050844,144.9669545,,,0,Parking Meters,1,1,,,,,,MPM1891683,Yes,311A,Yes
1891684,21,"-37.8005488, 144.9659403","Grattan Street between Lygon Street and Cardigan Street, approximately 16m West of Suite 1 96 Grattan Street CARLTON VIC 3053",,,,-37.8005488,144.9659403,,,0,Parking Meters,1,1,,,,,,MPM1891684,Yes,366A,Yes
1891685,21,"-37.8029791, 144.9689968","Pelham Street between Rathdowne Street and Drummond Street, approximately 35m West of Sacred Heart, 169 Rathdowne Street CARLTON VIC 3053",,,,-37.8029791,144.9689968,,,0,Parking Meters,1,1,,,,,,MPM1891685,Yes,293B,Yes
1891688,21,"-37.8061388, 144.9628396","Swanston Street between Victoria Street and Queensberry Street, approximately 28m West of Essential Media Communications Pty Ltd, Unit 3-4 458 Swanston Street CARLTON VIC 3053",,,,-37.8061388,144.9628396,,,0,Parking Meters,1,1,,,,,,MPM1891688,Yes,360A,Yes
1891690,21,"-37.8060044, 144.9661659","Lygon Street between Victoria Street and Queensberry Street, approximately 16m South of Christian Chapel - Lygon St Church Of Christ Inc, Carpark Rear 42-54 Lygon Street CARLTON VIC 3053",,,,-37.8060044,144.9661659,,,0,Parking Meters,1,1,,,,,,MPM1891690,Yes,223B,Yes
1891693,21,"-37.8047115, 144.9655418","Queensberry Street between Lygon Street and Cardigan Street, approximately 3m South of Captain Style, 104 Queensberry Street CARLTON VIC 3053",,,,-37.8047115,144.9655418,,,0,Parking Meters,1,1,,,,,,MPM1891693,Yes,191A,Yes
1891695,21,"-37.8043004, 144.9646988","Cardigan Street between Queensberry Street and Argyle Place South, approximately 6m East of 101 Cardigan Street CARLTON VIC 3053",,,,-37.8043004,144.9646988,,,0,Parking Meters,1,1,,,,,,MPM1891695,Yes,297A,Yes
1891700,21,"-37.8040384, 144.9662559","Lygon Street between Queensberry Street and Argyle Place South, approximately 6m East of Juiced The Juice Is Yours, Ground 129 Lygon Street CARLTON VIC 3053",,,,-37.8040384,144.9662559,,,0,Parking Meters,1,1,,,,,,MPM1891700,Yes,368B,Yes
1891701,21,"-37.8027595, 144.9664687","Intersection of Lygon Street and Pelham Street, approximately 22m North of City of Melbourne, Argyle Square 153-159 Lygon Street CARLTON VIC 3053",,,,-37.8027595,144.9664687,,,0,Parking Meters,1,1,,,,,,MPM1891701,Yes,367C,Yes
1891707,21,"-37.8019665, 144.9740586","Nicholson Street between Victoria Street and Carlton Street, approximately 74m NE of Carlton Gardens Tennis Club (Inc), Carlton Gardens Tennis Club Carlton Gardens North Nicholson Street CARLTON VIC 3053",,,,-37.8019665,144.9740586,,,0,Parking Meters,1,1,,,,,,MPM1891707,Yes,161A,Yes
1898608,21,"-37.7985296, 144.972103","MacArthur Place South between Canning Street and Rathdowne Street, approximately 20m North of 11-13 MacArthur Place South CARLTON VIC 3053",,,,-37.7985296,144.972103,,,0,Parking Meters,1,1,,,,,,MPM1898608,Yes,174E,Yes
1901852,21,"-37.8040332, 144.969245","Rathdowne Street between Queensberry Street and Pelham Street, approximately 62m North of Sheng Run House, 97-105 Rathdowne Street CARLTON VIC 3053",,,,-37.8040332,144.969245,,,0,Parking Meters,1,1,,,,,,MPM1901852,Yes,338A,Yes
1647646,21,"-37.8017369, 144.9565159","Peel Street between Queensberry Street and Elizabeth Street, approximately 9m East of 43 Bedford Street NORTH MELBOURNE VIC 3051",,,,-37.8017369,144.9565159,,,0,Parking Meters,1,1,,,,,,MPM1647646,Yes,231A,Yes
1647662,21,"-37.8015465, 144.9545654","Blackwood Street between Flemington Road and Courtney Street, approximately 13m NE of Courtyard Ground 1-7 Blackwood Street NORTH MELBOURNE VIC 3051",,,,-37.8015465,144.9545654,,,0,Parking Meters,1,1,,,,,,MPM1647662,Yes,330A,Yes
1647671,21,"-37.8040394, 144.9510943","Leveson Street between Victoria Street and Queensberry Street, approximately 3m NW of 30 Leveson Street NORTH MELBOURNE VIC 3051",,,,-37.8040394,144.9510943,,,0,Parking Meters,1,1,,,,,,MPM1647671,Yes,208B,Yes
1647695,21,"-37.8003724, 144.9555655","Flemington Road between Blackwood Street and Wreckyn Street, approximately 7m NE of 29 Flemington Road NORTH MELBOURNE VIC 3051",,,,-37.8003724,144.9555655,,,0,Parking Meters,1,1,,,,,,MPM1647695,Yes,334A,Yes
1647702,21,"-37.7922681, 144.9461538","Flemington Road between Brougham Street and Curran Street, approximately 54m NE of Jezmen Investments Pty Ltd, 279-281 Flemington Road NORTH MELBOURNE VIC 3051",,,,-37.7922681,144.9461538,,,0,Parking Meters,1,1,,,,,,MPM1647702,Yes,149D,Yes
1647718,21,"-37.8044105, 144.955274","Capel Street between Victoria Street and Queensberry Street, approximately 9m NE of Kennards Self Storage Pty Limited, 149-159 Capel Street NORTH MELBOURNE VIC 3051",,,,-37.8044105,144.955274,,,0,Parking Meters,1,1,,,,,,MPM1647718,Yes,327A,Yes
1647732,21,"-37.7984722, 144.9524692","Harcourt Street between Courtney Street and Flemington Road, approximately 39m SW of Avist Cafe, 101 Flemington Road NORTH MELBOURNE VIC 3051",,,,-37.7984722,144.9524692,,,0,Parking Meters,1,1,,,,,,MPM1647732,Yes,332C,Yes
1805601,21,"-37.8055586, 144.954128","Victoria Street between Capel Street and Howard Street, approximately 2m SW of Kathmandu Banquet, 364-366 Victoria Street NORTH MELBOURNE VIC 3051",,,,-37.8055586,144.954128,,,0,Parking Meters,1,1,,,,,,MPM1805601,,351C,Yes
1805605,21,"-37.803774, 144.9550934","Queensberry Street between Capel Street and Howard Street, approximately 26m East of St Joseph's Flexible Learning Centre, St Josephs College 367-395 Queensberry Street NORTH MELBOURNE VIC 3051",,,,-37.803774,144.9550934,,,0,Parking Meters,1,1,,,,,,MPM1805605,,302D,Yes
1805666,21,"-37.7916518, 144.9453832","Flemington Road between Melrose Street and Dryburgh Street, approximately 54m NE of 295 Flemington Road NORTH MELBOURNE VIC 3051",,,,-37.7916518,144.9453832,,,0,Parking Meters,1,1,,,,,,MPM1805666,,149C,Yes
1805882,21,"-37.8031492, 144.9483761",Approximately 10m South of 571-573 Queensberry Street NORTH MELBOURNE VIC 3051,,,,-37.8031492,144.9483761,,,0,Parking Meters,1,1,,,,,,MPM1805882,,277A,Yes
1805883,21,"-37.805023, 144.9539333","Howard Street between Victoria Street and Queensberry Street, approximately 7m North of Le Bajo, Ground 8-14 Howard Street NORTH MELBOURNE VIC 3051",,,,-37.805023,144.9539333,,,0,Parking Meters,1,1,,,,,,MPM1805883,,301C,Yes
1805888,21,"-37.8040889, 144.9556031","Capel Street between Victoria Street and Queensberry Street, approximately 19m North of 162 Capel Street NORTH MELBOURNE VIC 3051",,,,-37.8040889,144.9556031,,,0,Parking Meters,1,1,,,,,,MPM1805888,,327D,Yes
1805890,21,"-37.8050064, 144.9524316","Chetwynd Street between Victoria Street and Queensberry Street, approximately 9m SW of 118 Chetwynd Street NORTH MELBOURNE VIC 3051",,,,-37.8050064,144.9524316,,,0,Parking Meters,1,1,,,,,,MPM1805890,,328D,Yes
1805891,21,"-37.8003645, 144.9543436","Wreckyn Street between Flemington Road and Courtney Street, approximately 3m North of North Melbourne ENT Surgery, Ground 32 Wreckyn Street NORTH MELBOURNE VIC 3051",,,,-37.8003645,144.9543436,,,0,Parking Meters,1,1,,,,,,MPM1805891,,329E,Yes
1805892,21,"-37.8011062, 144.9555197","Blackwood Street between Flemington Road and Courtney Street, approximately 28m SE of Sinjeon, 31 Blackwood Street NORTH MELBOURNE VIC 3051",,,,-37.8011062,144.9555197,,,0,Parking Meters,1,1,,,,,,MPM1805892,,330D,Yes
1805898,21,"-37.8037158, 144.9496247","Errol Street between Victoria Street and Queensberry Street, approximately 5m West of The Paw Principality, Shop 60 Errol Street NORTH MELBOURNE VIC 3051",,,,-37.8037158,144.9496247,,,0,Parking Meters,1,1,,,,,,MPM1805898,,215D,Yes
1805899,21,"-37.8051792, 144.9551296","Capel Street between Victoria Street and Queensberry Street, approximately 7m South of Safe Steps Family Violence Response Centre Inc, Ground 117-131 Capel Street NORTH MELBOURNE VIC 3051",,,,-37.8051792,144.9551296,,,0,Parking Meters,1,1,,,,,,MPM1805899,,327C,Yes
1805904,21,"-37.7991383, 144.9537585","Villiers Street between Flemington Road and Courtney Street, approximately 26m NW of Melbourne Mothers Obstetrics And Gynaecology, 69 Flemington Road NORTH MELBOURNE VIC 3051",,,,-37.7991383,144.9537585,,,0,Parking Meters,1,1,,,,,,MPM1805904,,331F,Yes
1805905,21,"-37.7999291, 144.952751","Villiers Street between Flemington Road and Courtney Street, approximately 6m North of Lort Smith Animal Hospital, 24-34 Villiers Street NORTH MELBOURNE VIC 3051",,,,-37.7999291,144.952751,,,0,Parking Meters,1,1,,,,,,MPM1805905,,331E,Yes
1805906,21,"-37.7998044, 144.952516","Villiers Street between Flemington Road and Courtney Street, approximately 3m East of 17 Villiers Street NORTH MELBOURNE VIC 3051",,,,-37.7998044,144.952516,,,0,Parking Meters,1,1,,,,,,MPM1805906,,331A,Yes
1805909,21,"-37.8005631, 144.9536777","Wreckyn Street between Flemington Road and Courtney Street, approximately 11m SW of Unilodge Royal Melbourne, Part 15-27 Wreckyn Street NORTH MELBOURNE VIC 3051",,,,-37.8005631,144.9536777,,,0,Parking Meters,1,1,,,,,,MPM1805909,,329D,Yes
1851934,21,"-37.8057166, 144.9583486","O'Connell Street between Victoria Street and Queensberry Street, approximately 17m NE of Cafe On O'Connell Pty Ltd, Unit 30 Ground 1 O'Connell Street NORTH MELBOURNE VIC 3051",,,,-37.8057166,144.9583486,,,0,Parking Meters,1,1,,,,,,MPM1851934,Yes,222A,Yes
1647632,21,"-37.8001329, 144.9542225","Wreckyn Street between Flemington Road and Courtney Street, approximately 3m East of Daniel Meszaros Architects, 31 Wreckyn Street NORTH MELBOURNE VIC 3051",,,,-37.8001329,144.9542225,,,0,Parking Meters,1,1,,,,,,MPM1647632,Yes,329C,Yes
1647635,21,"-37.8008982, 144.9562351","Flemington Road between Elizabeth Street and Blackwood Street, approximately 8m NE of Gai Wong, Shop 1 5-17 Flemington Road NORTH MELBOURNE VIC 3051",,,,-37.8008982,144.9562351,,,0,Parking Meters,1,1,,,,,,MPM1647635,Yes,333A,Yes
1647645,21,"-37.8024742, 144.9555394","Bedford Street between Courtney Street and Peel Street, approximately 31m North of Bedford Street Reserve 2 Bedford Street NORTH MELBOURNE VIC 3051",,,,-37.8024742,144.9555394,,,0,Parking Meters,1,1,,,,,,MPM1647645,Yes,209A,Yes
1647648,21,"-37.8041348, 144.9495512","Errol Street between Victoria Street and Queensberry Street, approximately 6m NW of Casa Verde, 40-42 Errol Street NORTH MELBOURNE VIC 3051",,,,-37.8041348,144.9495512,,,0,Parking Meters,1,1,,,,,,MPM1647648,Yes,215B,Yes
1647649,21,"-37.8044122, 144.9492639","Errol Street between Victoria Street and Queensberry Street, approximately 5m East of North Melbourne Lotto, Ground 25 Errol Street NORTH MELBOURNE VIC 3051",,,,-37.8044122,144.9492639,,,0,Parking Meters,1,1,,,,,,MPM1647649,Yes,215C,Yes
1647663,21,"-37.8013713, 144.9551839","Blackwood Street between Flemington Road and Courtney Street, approximately 5m North of Maben Group Pty Ltd, 22-24 Blackwood Street NORTH MELBOURNE VIC 3051",,,,-37.8013713,144.9551839,,,0,Parking Meters,1,1,,,,,,MPM1647663,Yes,330B,Yes
1647667,21,"-37.7993997, 144.9530181","Villiers Street between Flemington Road and Courtney Street, approximately 6m NE of 23-47 Villiers Street NORTH MELBOURNE VIC 3051",,,,-37.7993997,144.9530181,,,0,Parking Meters,1,1,,,,,,MPM1647667,Yes,331D,Yes
1647672,21,"-37.8046028, 144.9507191","Leveson Street between Victoria Street and Queensberry Street, approximately 4m NE of Ut Consulting Pty Ltd, Ground 11-17 Leveson Street NORTH MELBOURNE VIC 3051",,,,-37.8046028,144.9507191,,,0,Parking Meters,1,1,,,,,,MPM1647672,Yes,208C,Yes
1647678,21,"-37.8047966, 144.952187","Chetwynd Street between Victoria Street and Queensberry Street, approximately 5m NE of 55-57 Chetwynd Street NORTH MELBOURNE VIC 3051",,,,-37.8047966,144.952187,,,0,Parking Meters,1,1,,,,,,MPM1647678,Yes,328C,Yes
1647687,21,"-37.8037089, 144.9545108","Queensberry Street between Capel Street and Howard Street, approximately 13m East of Royal Park Hotel, 399-405 Queensberry Street NORTH MELBOURNE VIC 3051",,,,-37.8037089,144.9545108,,,0,Parking Meters,1,1,,,,,,MPM1647687,Yes,302A,Yes
1647699,21,"-37.7898288, 144.9430935","Flemington Road between Racecourse Road and Melrose Street, approximately 54m NE of Tomkin Australia Pty Ltd, Gnd & Flr1 371-377 Flemington Road NORTH MELBOURNE VIC 3051",,,,-37.7898288,144.9430935,,,0,Parking Meters,1,1,,,,,,MPM1647699,Yes,149A,Yes
1647717,21,"-37.8048076, 144.9554725","Capel Street between Victoria Street and Queensberry Street, approximately 4m West of 138 Capel Street NORTH MELBOURNE VIC 3051",,,,-37.8048076,144.9554725,,,0,Parking Meters,1,1,,,,,,MPM1647717,Yes,327B,Yes
1647719,21,"-37.8019888, 144.9514653","Leveson Street between Queensberry Street and Arden Street, approximately 4m SW of Utilizer, 92 Leveson Street NORTH MELBOURNE VIC 3051",,,,-37.8019888,144.9514653,,,0,Parking Meters,1,1,,,,,,MPM1647719,Yes,344E,Yes
1647720,21,"-37.8021609, 144.9511459","Leveson Street between Queensberry Street and Arden Street, approximately 27m South of 103A Leveson Street NORTH MELBOURNE VIC 3051",,,,-37.8021609,144.9511459,,,0,Parking Meters,1,1,,,,,,MPM1647720,Yes,344F,Yes
1647729,21,"-37.8032529, 144.9504349","Queensberry Street between Leveson Street and Errol Street, approximately 3m North of Domov House Accommodation, 509-511 Queensberry Street NORTH MELBOURNE VIC 3051",,,,-37.8032529,144.9504349,,,0,Parking Meters,1,1,,,,,,MPM1647729,Yes,340A,Yes
1647730,21,"-37.7991954, 144.9511651","Harcourt Street between Courtney Street and Flemington Road, approximately 27m NW of 40 Harcourt Street NORTH MELBOURNE VIC 3051",,,,-37.7991954,144.9511651,,,0,Parking Meters,1,1,,,,,,MPM1647730,Yes,332A,Yes
1805602,21,"-37.8034885, 144.9545484","Queensberry Street between Capel Street and Howard Street, approximately 4m SE of Unit 1 394-398 Queensberry Street NORTH MELBOURNE VIC 3051",,,,-37.8034885,144.9545484,,,0,Parking Meters,1,1,,,,,,MPM1805602,,302C,Yes
1805603,21,"-37.802518, 144.9513642","Leveson Street between Queensberry Street and Arden Street, approximately 18m North of 66 Leveson Street NORTH MELBOURNE VIC 3051",,,,-37.802518,144.9513642,,,0,Parking Meters,1,1,,,,,,MPM1805603,,344C,Yes
1805604,21,"-37.8017168, 144.9512278","Leveson Street between Queensberry Street and Arden Street, approximately 8m South of 113 Leveson Street NORTH MELBOURNE VIC 3051",,,,-37.8017168,144.9512278,,,0,Parking Meters,1,1,,,,,,MPM1805604,,344B,Yes
1805606,21,"-37.8026397, 144.9510613","Leveson Street between Queensberry Street and Arden Street, approximately 10m South of 77 Leveson Street NORTH MELBOURNE VIC 3051",,,,-37.8026397,144.9510613,,,0,Parking Meters,1,1,,,,,,MPM1805606,,344D,Yes
1805627,21,"-37.8055743, 144.95728","Cobden Street between Victoria Street and Princess Street, approximately 8m North of Unilodge College Square On Cobden, 2 Cobden Street NORTH MELBOURNE VIC 3051",,,,-37.8055743,144.95728,,,0,Parking Meters,1,1,,,,,,MPM1805627,,221E,Yes
1805655,21,"-37.8049453, 144.9485732","Victoria Street between Errol Street and Curzon Street, approximately 3m South of Masala Jo, 528 Victoria Street NORTH MELBOURNE VIC 3051",,,,-37.8049453,144.9485732,,,0,Parking Meters,1,1,,,,,,MPM1805655,,214A,Yes
1805667,21,"-37.7924987, 144.9464426","Flemington Road between Brougham Street and Curran Street, approximately 54m NE of Hughenden, 271-275 Flemington Road NORTH MELBOURNE VIC 3051",,,,-37.7924987,144.9464426,,,0,Parking Meters,1,1,,,,,,MPM1805667,,149E,Yes
1805681,21,"-37.8047987, 144.9572375","Cobden Street between Princess Street and Queensberry Street, approximately 18m West of Bild Architecture, Part 36 Cobden Street NORTH MELBOURNE VIC 3051",,,,-37.8047987,144.9572375,,,0,Parking Meters,1,1,,,,,,MPM1805681,,221A,Yes
1805884,21,"-37.8040353, 144.9538292","Howard Street between Victoria Street and Queensberry Street, approximately 4m SE of 131 Howard Street NORTH MELBOURNE VIC 3051",,,,-37.8040353,144.9538292,,,0,Parking Meters,1,1,,,,,,MPM1805884,,301D,Yes
1805885,21,"-37.8036674, 144.9508843","Leveson Street between Victoria Street and Queensberry Street, approximately 14m North of 47-59 Leveson Street NORTH MELBOURNE VIC 3051",,,,-37.8036674,144.9508843,,,0,Parking Meters,1,1,,,,,,MPM1805885,,208A,Yes
1805887,21,"-37.8037009, 144.9493864","Errol Street between Victoria Street and Queensberry Street, approximately 5m East of Ground 59 Errol Street NORTH MELBOURNE VIC 3051",,,,-37.8037009,144.9493864,,,0,Parking Meters,1,1,,,,,,MPM1805887,,215A,Yes
1805897,21,"-37.8044718, 144.9494924","Errol Street between Victoria Street and Queensberry Street, approximately 5m NW of North Melbourne Supa IGA, Ground 26 Errol Street NORTH MELBOURNE VIC 3051",,,,-37.8044718,144.9494924,,,0,Parking Meters,1,1,,,,,,MPM1805897,,215E,Yes
1805908,21,"-37.7987906, 144.9520713","Harcourt Street between Courtney Street and Flemington Road, approximately 16m NE of 68 Harcourt Street NORTH MELBOURNE VIC 3051",,,,-37.7987906,144.9520713,,,0,Parking Meters,1,1,,,,,,MPM1805908,,332D,Yes
1805910,21,"-37.8010537, 144.9551877","Blackwood Street between Flemington Road and Courtney Street, approximately 7m South of 27 Blackwood Street NORTH MELBOURNE VIC 3051",,,,-37.8010537,144.9551877,,,0,Parking Meters,1,1,,,,,,MPM1805910,,330C,Yes
1851936,21,"-37.8033287, 144.9562282","Peel Street between Queensberry Street and Elizabeth Street, approximately 5m SE of Media Arts Lawyers Pty Ltd, 187-189 Peel Street NORTH MELBOURNE VIC 3051",,,,-37.8033287,144.9562282,,,0,Parking Meters,1,1,,,,,,MPM1851936,Yes,231C,Yes
1851943,21,"-37.8021954, 144.9560867","Bedford Street between Courtney Street and Peel Street, approximately 17m SE of Campus Services, 13-21 Bedford Street NORTH MELBOURNE VIC 3051",,,,-37.8021954,144.9560867,,,0,Parking Meters,1,1,,,,,,MPM1851943,Yes,209B,Yes
1891126,21,"-37.8058698, 144.9568583","Victoria Street between Cobden Street and Peel Street, approximately 3m SW of 284 Victoria Street NORTH MELBOURNE VIC 3051",,,,-37.8058698,144.9568583,,,0,Parking Meters,1,1,,,,,,MPM1891126,Yes,690A,Yes
1891632,21,"-37.80251, 144.9563762","Peel Street between Queensberry Street and Elizabeth Street, approximately 13m North of Artisans Of Spring, 217 Peel Street NORTH MELBOURNE VIC 3051",,,,-37.80251,144.9563762,,,0,Parking Meters,1,1,,,,,,MPM1891632,Yes,231D,Yes
1647636,21,"-37.8007912, 144.9537958","Wreckyn Street between Flemington Road and Courtney Street, approximately 17m NE of The Royal Melbourne Hospital, 10-14 Wreckyn Street NORTH MELBOURNE VIC 3051",,,,-37.8007912,144.9537958,,,0,Parking Meters,1,1,,,,,,MPM1647636,Yes,329B,Yes
1647637,21,"-37.8008775, 144.9532826","Wreckyn Street between Flemington Road and Courtney Street, approximately 3m SE of 3-9 Wreckyn Street NORTH MELBOURNE VIC 3051",,,,-37.8008775,144.9532826,,,0,Parking Meters,1,1,,,,,,MPM1647637,Yes,329A,Yes
1647638,21,"-37.8046756, 144.9537178","Howard Street between Victoria Street and Queensberry Street, approximately 7m NE of 99-101 Howard Street NORTH MELBOURNE VIC 3051",,,,-37.8046756,144.9537178,,,0,Parking Meters,1,1,,,,,,MPM1647638,Yes,301B,Yes
1647644,21,"-37.8046137, 144.9540062","Howard Street between Victoria Street and Queensberry Street, approximately 5m SW of North Melbourne Children's Centre, 28-34 Howard Street NORTH MELBOURNE VIC 3051",,,,-37.8046137,144.9540062,,,0,Parking Meters,1,1,,,,,,MPM1647644,Yes,301E,Yes
1647665,21,"-37.8053359, 144.9571371","Cobden Street between Victoria Street and Princess Street, approximately 4m NE of Bean Shoots, 11 Cobden Street NORTH MELBOURNE VIC 3051",,,,-37.8053359,144.9571371,,,0,Parking Meters,1,1,,,,,,MPM1647665,Yes,221C,Yes
1647666,21,"-37.7995175, 144.9532697","Villiers Street between Flemington Road and Courtney Street, approximately 4m West of North Melbourne Physiotherapy Clinic, 44 Villiers Street NORTH MELBOURNE VIC 3051",,,,-37.7995175,144.9532697,,,0,Parking Meters,1,1,,,,,,MPM1647666,Yes,331B,Yes
1647669,21,"-37.8032793, 144.9482203","Curzon Street between Elm Street and Queensberry Street, approximately 8m North of Carpark 44-60 Curzon Street NORTH MELBOURNE VIC 3051",,,,-37.8032793,144.9482203,,,0,Parking Meters,1,1,,,,,,MPM1647669,Yes,277B,Yes
1647677,21,"-37.8044861, 144.9525231","Chetwynd Street between Victoria Street and Queensberry Street, approximately 13m South of 140 Chetwynd Street NORTH MELBOURNE VIC 3051",,,,-37.8044861,144.9525231,,,0,Parking Meters,1,1,,,,,,MPM1647677,Yes,328B,Yes
1647684,21,"-37.7983242, 144.9529996","Flemington Road between Villiers Street and Harcourt Street, approximately 13m East of Avist Cafe, 101 Flemington Road NORTH MELBOURNE VIC 3051",,,,-37.7983242,144.9529996,,,0,Parking Meters,1,1,,,,,,MPM1647684,Yes,345A,Yes
1647688,21,"-37.8035476, 144.9550493","Queensberry Street between Capel Street and Howard Street, approximately 32m NE of St Joseph's Flexible Learning Centre, St Josephs College 367-395 Queensberry Street NORTH MELBOURNE VIC 3051",,,,-37.8035476,144.9550493,,,0,Parking Meters,1,1,,,,,,MPM1647688,Yes,302B,Yes
1647689,21,"-37.8056099, 144.9545219","Victoria Street between Capel Street and Howard Street, approximately 3m South of Nahm Tao Thai Kitchen, 348 Victoria Street NORTH MELBOURNE VIC 3051",,,,-37.8056099,144.9545219,,,0,Parking Meters,1,1,,,,,,MPM1647689,Yes,351A,Yes
1647700,21,"-37.7910479, 144.9446226","Flemington Road between Melrose Street and Dryburgh Street, approximately 54m NE of Winterville, 323 Flemington Road NORTH MELBOURNE VIC 3051",,,,-37.7910479,144.9446226,,,0,Parking Meters,1,1,,,,,,MPM1647700,Yes,149B,Yes
1647738,21,"-37.8051052, 144.9573627","Intersection of Cobden Street and Princess Street, approximately 24m South of Dent-A-Find, Part 34 Cobden Street NORTH MELBOURNE VIC 3051",,,,-37.8051052,144.9573627,,,0,Parking Meters,1,1,,,,,,MPM1647738,Yes,221B,Yes
1784232,21,"-37.8031369, 144.9556048","Intersection of Courtney Street and Capel Street, approximately 18m NW of Australian National College Pty Ltd, Ground 182 Capel Street NORTH MELBOURNE VIC 3051",,,,-37.8031369,144.9556048,,,0,Parking Meters,1,1,,,,,,MPM1784232,Yes,273A,Yes
1784233,21,"-37.8027548, 144.9556798","Capel Street between Courtney Street and Bedford Street, approximately 16m West of 204 Capel Street NORTH MELBOURNE VIC 3051",,,,-37.8027548,144.9556798,,,0,Parking Meters,1,1,,,,,,MPM1784233,Yes,209D,Yes
1805600,21,"-37.8032221, 144.9501444","Queensberry Street between Leveson Street and Errol Street, approximately 6m NE of Arts House North Melbourne Townhall, Arts House North Melbourne Town Hall 521 Queensberry Street NORTH MELBOURNE VIC 3051",,,,-37.8032221,144.9501444,,,0,Parking Meters,1,1,,,,,,MPM1805600,,340B,Yes
1805607,21,"-37.8014625, 144.9515522","Leveson Street between Queensberry Street and Arden Street, approximately 3m SW of 114 Leveson Street NORTH MELBOURNE VIC 3051",,,,-37.8014625,144.9515522,,,0,Parking Meters,1,1,,,,,,MPM1805607,,344A,Yes
1805674,21,"-37.795952, 144.9507579","Flemington Road between Gatehouse Street and Abbotsford Street, approximately 53m NE of 135 Flemington Road NORTH MELBOURNE VIC 3051",,,,-37.795952,144.9507579,,,0,Parking Meters,1,1,,,,,,MPM1805674,,376B,Yes
1805682,21,"-37.804652, 144.9574436","Cobden Street between Princess Street and Queensberry Street, approximately 18m SW of 51 O'Connell Street NORTH MELBOURNE VIC 3051",,,,-37.804652,144.9574436,,,0,Parking Meters,1,1,,,,,,MPM1805682,,221D,Yes
1805685,21,"-37.8037682, 144.9570258","Queensberry Street between Cobden Street and Peel Street, approximately 8m SE of Northside Cycles, Ground 334-336 Queensberry Street NORTH MELBOURNE VIC 3051",,,,-37.8037682,144.9570258,,,0,Parking Meters,1,1,,,,,,MPM1805685,,220A,Yes
1805686,21,"-37.8039847, 144.9570023","Queensberry Street between Cobden Street and Peel Street, approximately 3m NE of Foursight Architects Pty Ltd, 333 Queensberry Street NORTH MELBOURNE VIC 3051",,,,-37.8039847,144.9570023,,,0,Parking Meters,1,1,,,,,,MPM1805686,,220B,Yes
1805742,21,"-37.8021172, 144.9559616","Bedford Street between Courtney Street and Peel Street, approximately 3m East of Campus Services, 13-21 Bedford Street NORTH MELBOURNE VIC 3051",,,,-37.8021172,144.9559616,,,0,Parking Meters,1,1,,,,,,MPM1805742,,209C,Yes
1805886,21,"-37.8048327, 144.9509562","Leveson Street between Victoria Street and Queensberry Street, approximately 9m South of Mancuso And Co Salon, 2 Leveson Street NORTH MELBOURNE VIC 3051",,,,-37.8048327,144.9509562,,,0,Parking Meters,1,1,,,,,,MPM1805886,,208D,Yes
1805889,21,"-37.8039934, 144.9523308","Chetwynd Street between Victoria Street and Queensberry Street, approximately 6m SE of 87-91 Chetwynd Street NORTH MELBOURNE VIC 3051",,,,-37.8039934,144.9523308,,,0,Parking Meters,1,1,,,,,,MPM1805889,,328A,Yes
1805895,21,"-37.801629, 144.9565364","Peel Street between Queensberry Street and Elizabeth Street, approximately 4m SE of ST Skin, 243 Peel Street NORTH MELBOURNE VIC 3051",,,,-37.801629,144.9565364,,,0,Parking Meters,1,1,,,,,,MPM1805895,,231B,Yes
1805896,21,"-37.8041186, 144.954097","Howard Street between Victoria Street and Queensberry Street, approximately 3m NW of Emotional Growth Family Psychology Clinic, Unit 1 Ground 50-52 Howard Street NORTH MELBOURNE VIC 3051",,,,-37.8041186,144.954097,,,0,Parking Meters,1,1,,,,,,MPM1805896,,301A,Yes
1805903,21,"-37.7991478, 144.953344","Villiers Street between Flemington Road and Courtney Street, approximately 10m SW of Unit 1 Ground 55 Villiers Street NORTH MELBOURNE VIC 3051",,,,-37.7991478,144.953344,,,0,Parking Meters,1,1,,,,,,MPM1805903,,331C,Yes
1805907,21,"-37.7986452, 144.9518627","Harcourt Street between Courtney Street and Flemington Road, approximately 31m North of 68 Harcourt Street NORTH MELBOURNE VIC 3051",,,,-37.7986452,144.9518627,,,0,Parking Meters,1,1,,,,,,MPM1805907,,332B,Yes
1851942,21,"-37.8029667, 144.9571023","O'Connell Street between Queensberry Street and Peel Street, approximately 37m East of Unit 2 198 Peel Street NORTH MELBOURNE VIC 3051",,,,-37.8029667,144.9571023,,,0,Parking Meters,1,1,,,,,,MPM1851942,Yes,190B,Yes
1851944,21,"-37.8032832, 144.9554046","Courtney Street between Queensberry Street and Howard Street, approximately 34m West of Australian National College Pty Ltd, Ground 182 Capel Street NORTH MELBOURNE VIC 3051",,,,-37.8032832,144.9554046,,,0,Parking Meters,1,1,,,,,,MPM1851944,Yes,273B,Yes
1891128,21,"-37.8059396, 144.9574837","Victoria Street between O'Connell Street and Cobden Street, approximately 3m South of Hallah, 268 Victoria Street NORTH MELBOURNE VIC 3051",,,,-37.8059396,144.9574837,,,0,Parking Meters,1,1,,,,,,MPM1891128,Yes,690C,Yes
1647634,21,"-37.7847034, 144.9577237","Walker Street between Royal Parade and The Avenue, approximately 37m SW of 30 Walker Street PARKVILLE VIC 3052",,,,-37.7847034,144.9577237,,,0,Parking Meters,1,1,,,,,,MPM1647634,Yes,325A,Yes
1647692,21,"-37.7817892, 144.9589736","Ievers Street between Royal Parade and The Avenue, approximately 27m South of 14 Ievers Street PARKVILLE VIC 3052",,,,-37.7817892,144.9589736,,,0,Parking Meters,1,1,,,,,,MPM1647692,Yes,326B,Yes
1647696,21,"-37.796995, 144.9520629","Flemington Road between Murphy Street and Harker Street, approximately 8m SW of Ievers Reserve 42 Flemington Road PARKVILLE VIC 3052",,,,-37.796995,144.9520629,,,0,Parking Meters,1,1,,,,,,MPM1647696,Yes,375A,Yes
1647697,21,"-37.7954574, 144.9501428","Flemington Road between Gatehouse Street and Abbotsford Street, approximately 10m West of The Larwill Studio, 48 Flemington Road PARKVILLE VIC 3052",,,,-37.7954574,144.9501428,,,0,Parking Meters,1,1,,,,,,MPM1647697,Yes,376A,Yes
1647724,21,"-37.7956044, 144.9523364","Intersection of Gatehouse Street and Story Street, approximately 22m North of Parkville House Inc, 34 Gatehouse Street PARKVILLE VIC 3052",,,,-37.7956044,144.9523364,,,0,Parking Meters,1,1,,,,,,MPM1647724,Yes,300B,Yes
1647736,21,"-37.7882055, 144.9570532","The Avenue between Leonard Street and MacArthur Road, approximately 24m SW of Selvetta, 22 The Avenue PARKVILLE VIC 3052",,,,-37.7882055,144.9570532,,,0,Parking Meters,1,1,,,,,,MPM1647736,Yes,206B,Yes
1647748,21,"-37.779495, 144.9583842","The Avenue between Ievers Street and Park Street, approximately 23m West of 328 The Avenue PARKVILLE VIC 3052",,,,-37.779495,144.9583842,,,0,Parking Meters,1,1,,,,,,MPM1647748,Yes,141D,Yes
1647752,21,"-37.783203, 144.9570963","The Avenue between Walker Street and Ievers Street, approximately 24m SW of Boarding House Level 1-2 190 The Avenue PARKVILLE VIC 3052",,,,-37.783203,144.9570963,,,0,Parking Meters,1,1,,,,,,MPM1647752,Yes,205B,Yes
1802363,21,"-37.7905758, 144.9584319","Royal Parade between Gatehouse Street and MacArthur Road, approximately 11m SE of 157 Royal Parade PARKVILLE VIC 3052",,,,-37.7905758,144.9584319,,,0,Parking Meters,1,1,,,,,,MPM1802363,Yes,491A,Yes
1802366,21,"-37.7956603, 144.9646923","Swanston Street between Elgin Street and College Crescent, approximately 16m South of Newman College 873-945 Swanston Street PARKVILLE VIC 3052",,,,-37.7956603,144.9646923,,,0,Parking Meters,1,1,,,,,,MPM1802366,Yes,473C,Yes
1802377,21,"-37.7865698, 144.9593892","Royal Parade between Leonard Street and Walker Street, approximately 51m East of Lisa Bellear House, Lise Bellear House 303-309 Royal Parade PARKVILLE VIC 3052",,,,-37.7865698,144.9593892,,,0,Parking Meters,1,1,,,,,,MPM1802377,Yes,489B,Yes
1805658,21,"-37.791499, 144.9577344","The Avenue between MacArthur Road and Gatehouse Street, approximately 47m West of Mar Thoma Syrian Church Australia Inc, Mar Thoma Syrian Church Australia 149 Royal Parade PARKVILLE VIC 3052",,,,-37.791499,144.9577344,,,0,Parking Meters,1,1,,,,,,MPM1805658,,159A,Yes
1805664,21,"-37.7870675, 144.9569304","The Avenue between Leonard Street and Walker Street, approximately 21m SW of Whitley College 44-52 The Avenue PARKVILLE VIC 3052",,,,-37.7870675,144.9569304,,,0,Parking Meters,1,1,,,,,,MPM1805664,,206D,Yes
1805665,21,"-37.7854249, 144.9568931","The Avenue between Leonard Street and Walker Street, approximately 42m SW of Treacy Conference Centre 116-156 The Avenue PARKVILLE VIC 3052",,,,-37.7854249,144.9568931,,,0,Parking Meters,1,1,,,,,,MPM1805665,,206F,Yes
1805669,21,"-37.7877578, 144.9582737","Leonard Street between Royal Parade and The Avenue, approximately 33m SW of Unilodge Park Avenue, 8 Leonard Street PARKVILLE VIC 3052",,,,-37.7877578,144.9582737,,,0,Parking Meters,1,1,,,,,,MPM1805669,,324B,Yes
1805670,21,"-37.7844801, 144.9577429","Walker Street between Royal Parade and The Avenue, approximately 25m West of 30 Walker Street PARKVILLE VIC 3052",,,,-37.7844801,144.9577429,,,0,Parking Meters,1,1,,,,,,MPM1805670,,325C,Yes
1805672,21,"-37.7978379, 144.9531841","Flemington Road between Villiers Street and Harcourt Street, approximately 18m South of The University of Melbourne, Building 400 Veterinary Preclinical Sciences Building 30 Flemington Road PARKVILLE VIC 3052",,,,-37.7978379,144.9531841,,,0,Parking Meters,1,1,,,,,,MPM1805672,,345C,Yes
1805802,21,"-37.7918748, 144.9625198","College Crescent between Swanston Street and Princes Park Drive, approximately 41m NW of St Hilda's College Limited, St Hilda's College 19-27 College Crescent PARKVILLE VIC 3052",,,,-37.7918748,144.9625198,,,0,Parking Meters,1,1,,,,,,MPM1805802,,485A,Yes
1805822,21,"-37.7785836, 144.9603771","Royal Parade between Ievers Street and Park Street, approximately 50m East of CitiPower Pty Ltd, Substation 4 577 Royal Parade PARKVILLE VIC 3052",,,,-37.7785836,144.9603771,,,0,Parking Meters,1,1,,,,,,MPM1805822,,487A,Yes
1805824,21,"-37.7825512, 144.9598876","Royal Parade between Ievers Street and Walker Street, approximately 74m NE of The Parkmore Hotel, 419-443 Royal Parade PARKVILLE VIC 3052",,,,-37.7825512,144.9598876,,,0,Parking Meters,1,1,,,,,,MPM1805824,,488A,Yes
1805827,21,"-37.7935595, 144.9586832","College Crescent between Royal Parade and Cemetery Road West, approximately 23m North of Janet Clarke Hall 57-63 College Crescent PARKVILLE VIC 3052",,,,-37.7935595,144.9586832,,,0,Parking Meters,1,1,,,,,,MPM1805827,,486A,Yes
1851927,21,"-37.7965272, 144.9582377","Royal Parade between Morrah Street and Story Street, approximately 42m NW of The University of Melbourne, Faculty of Vet & Ag Science Building 142 56 Royal Parade PARKVILLE VIC 3010",,,,-37.7965272,144.9582377,,,0,Parking Meters,1,1,,,,,,MPM1851927,,493B,Yes
1898610,21,"-37.7817039, 144.9504136","Royal Park, approximately 90m NW of Rail Cafe, Kiosk 5 Melbourne Zoological Gardens 6 Elliott Avenue PARKVILLE VIC 3052",,,,-37.7817039,144.9504136,,,0,Parking Meters,1,1,,,,,,MPM1898610,Yes,ZOO25,Yes
1898624,21,"-37.7830122, 144.9539618","Royal Park, approximately 92m NE of Zoo Bakery, Kiosk 6 Melbourne Zoological Gardens 6 Elliott Avenue PARKVILLE VIC 3052",,,,-37.7830122,144.9539618,,,0,Parking Meters,1,1,,,,,,MPM1898624,Yes,ZOO17,Yes
1898625,21,"-37.7818904, 144.9522183","Royal Park, approximately 67m East of Leopard Lodge Function Centre Melbourne Zoological Gardens 6 Elliott Avenue PARKVILLE VIC 3052",,,,-37.7818904,144.9522183,,,0,Parking Meters,1,1,,,,,,MPM1898625,Yes,ZOO22,Yes
1647633,21,"-37.784548, 144.9585752","Walker Street between Royal Parade and The Avenue, approximately 44m West of Monash University Parkville Campus, Bmt Pt Gnd Pt Lvl 1 & Lvls 2-5 381 Royal Parade PARKVILLE VIC 3052",,,,-37.784548,144.9585752,,,0,Parking Meters,1,1,,,,,,MPM1647633,Yes,325B,Yes
1647725,21,"-37.7877082, 144.9576458","Leonard Street between Royal Parade and The Avenue, approximately 40m NE of Sorella, 28-32 The Avenue PARKVILLE VIC 3052",,,,-37.7877082,144.9576458,,,0,Parking Meters,1,1,,,,,,MPM1647725,Yes,324A,Yes
1647742,21,"-37.790611, 144.9574589","The Avenue between MacArthur Road and Gatehouse Street, approximately 17m SW of Townhouse 5 4B The Avenue PARKVILLE VIC 3052",,,,-37.790611,144.9574589,,,0,Parking Meters,1,1,,,,,,MPM1647742,Yes,159D,Yes
1647743,21,"-37.7915463, 144.9578648","The Avenue between MacArthur Road and Gatehouse Street, approximately 39m SW of Mar Thoma Syrian Church Australia Inc, Mar Thoma Syrian Church Australia 149 Royal Parade PARKVILLE VIC 3052",,,,-37.7915463,144.9578648,,,0,Parking Meters,1,1,,,,,,MPM1647743,Yes,159B,Yes
1647746,21,"-37.7807627, 144.9576477","The Avenue between Ievers Street and Park Street, approximately 19m West of 274 The Avenue PARKVILLE VIC 3052",,,,-37.7807627,144.9576477,,,0,Parking Meters,1,1,,,,,,MPM1647746,Yes,141B,Yes
1647749,21,"-37.7785866, 144.9592448","The Avenue between Ievers Street and Park Street, approximately 30m South of Royal Park Lodge, 369 The Avenue PARKVILLE VIC 3052",,,,-37.7785866,144.9592448,,,0,Parking Meters,1,1,,,,,,MPM1647749,Yes,141E,Yes
1647793,21,"-37.7980063, 144.9533959","Flemington Road between Villiers Street and Harcourt Street, approximately 19m West of Bio21 Institute, David Penington Building 30 Flemington Road PARKVILLE VIC 3052",,,,-37.7980063,144.9533959,,,0,Parking Meters,1,1,,,,,,MPM1647793,Yes,345B,Yes
1802354,21,"-37.7978365, 144.9575345","Royal Parade between Grattan Street and Story Street, approximately 52m NE of Melbourne Private Hospital, RMH Private Hospital 1F Royal Parade PARKVILLE VIC 3050",,,,-37.7978365,144.9575345,,,0,Parking Meters,1,1,,,,,,MPM1802354,Yes,494A,Yes
1802359,21,"-37.792024, 144.9630571","College Crescent between Swanston Street and Princes Park Drive, approximately 33m NE of St Hilda's College Limited, St Hilda's College 19-27 College Crescent PARKVILLE VIC 3052",,,,-37.792024,144.9630571,,,0,Parking Meters,1,1,,,,,,MPM1802359,Yes,485B,Yes
1802362,21,"-37.7927363, 144.9593642","College Crescent between Royal Parade and Cemetery Road West, approximately 10m North of Ormond College 49 College Crescent PARKVILLE VIC 3052",,,,-37.7927363,144.9593642,,,0,Parking Meters,1,1,,,,,,MPM1802362,Yes,486C,Yes
1802372,21,"-37.7803908, 144.9601561","Royal Parade between Ievers Street and Park Street, approximately 59m NE of Auld Reekie, 509-513 Royal Parade PARKVILLE VIC 3052",,,,-37.7803908,144.9601561,,,0,Parking Meters,1,1,,,,,,MPM1802372,Yes,487D,Yes
1805668,21,"-37.7960336, 144.951793","Gatehouse Street between Flemington Road and Story Street, approximately 18m North of Parkville House Inc, 14-18 Gatehouse Street PARKVILLE VIC 3052",,,,-37.7960336,144.951793,,,0,Parking Meters,1,1,,,,,,MPM1805668,,300A,Yes
1805671,21,"-37.784761, 144.9584374","Walker Street between Royal Parade and The Avenue, approximately 48m SE of 30 Walker Street PARKVILLE VIC 3052",,,,-37.784761,144.9584374,,,0,Parking Meters,1,1,,,,,,MPM1805671,,325D,Yes
1805803,21,"-37.7921221, 144.9605998","College Crescent between Royal Parade and Cemetery Road West, approximately 54m East of University College 40 College Crescent PARKVILLE VIC 3052",,,,-37.7921221,144.9605998,,,0,Parking Meters,1,1,,,,,,MPM1805803,,486D,Yes
1805809,21,"-37.791192, 144.9617313","Princes Park, approximately 95m North of The Centre For Theology & Ministry, Centre for Theology & Ministry 29 College Crescent PARKVILLE VIC 3052",,,,-37.791192,144.9617313,,,0,Parking Meters,1,1,,,,,,MPM1805809,,479D,Yes
1805826,21,"-37.787161, 144.9593151","Royal Parade between Leonard Street and Walker Street, approximately 68m SE of Victorian Doctors' Health Program Limited, Part Ground AMA House 293 Royal Parade PARKVILLE VIC 3052",,,,-37.787161,144.9593151,,,0,Parking Meters,1,1,,,,,,MPM1805826,,489C,Yes
1805865,21,"-37.7972774, 144.9581173","Intersection of Royal Parade and Story Street, approximately 25m West of Grainger Museum, Part Grainger Museum Building 140 48 Royal Parade PARKVILLE VIC 3010",,,,-37.7972774,144.9581173,,,0,Parking Meters,1,1,,,,,,MPM1805865,,493C,Yes
1805866,21,"-37.795889, 144.9582717","Intersection of Morrah Street and Royal Parade, approximately 51m NW of The University of Melbourne, Western Edge Biosciences Building 125 University of Melbourne 107 Tin Alley PARKVILLE VIC 3010",,,,-37.795889,144.9582717,,,0,Parking Meters,1,1,,,,,,MPM1805866,,493A,Yes
1805867,21,"-37.7944363, 144.9584424","Royal Parade between Bayles Street and Degraves Street, approximately 39m North of Trinity College 100 Royal Parade PARKVILLE VIC 3052",,,,-37.7944363,144.9584424,,,0,Parking Meters,1,1,,,,,,MPM1805867,,492A,Yes
1805869,21,"-37.7777467, 144.9567453","Park Street between West Coburg Tramway and Royal Parade, approximately 57m East of City of Melbourne, Royal Park Depot 750 Park Street PARKVILLE VIC 3052",,,,-37.7777467,144.9567453,,,0,Parking Meters,1,1,,,,,,MPM1805869,,110A,Yes
1805900,21,"-37.7765084, 144.9464781","Park Street between Oak Street and West Coburg Tramway, approximately 59m East of Parkville Youth Justice Precinct, 900 Park Street PARKVILLE VIC 3052",,,,-37.7765084,144.9464781,,,0,Parking Meters,1,1,,,,,,MPM1805900,,108A,Yes
1805901,21,"-37.7915314, 144.9587845","Royal Parade between Gatehouse Street and MacArthur Road, approximately 52m East of Mar Thoma Syrian Church Australia Inc, Mar Thoma Syrian Church Australia 149 Royal Parade PARKVILLE VIC 3052",,,,-37.7915314,144.9587845,,,0,Parking Meters,1,1,,,,,,MPM1805901,,491D,Yes
1851926,21,"-37.7951574, 144.9583655","Royal Parade between Bayles Street and Morrah Street, approximately 43m South of Trinity College 100 Royal Parade PARKVILLE VIC 3052",,,,-37.7951574,144.9583655,,,0,Parking Meters,1,1,,,,,,MPM1851926,Yes,492B,Yes
1851941,21,"-37.7780058, 144.9589011","Park Street between West Coburg Tramway and Royal Parade, approximately 53m NW of Royal Park Lodge, 369 The Avenue PARKVILLE VIC 3052",,,,-37.7780058,144.9589011,,,0,Parking Meters,1,1,,,,,,MPM1851941,Yes,110B,Yes
1891610,21,"-37.7800007, 144.9579976","The Avenue between Ievers Street and Park Street, approximately 23m West of 304 The Avenue PARKVILLE VIC 3052",,,,-37.7800007,144.9579976,,,0,Parking Meters,1,1,,,,,,MPM1891610,Yes,141C,Yes
1891611,21,"-37.7839191, 144.9569982","The Avenue between Walker Street and Ievers Street, approximately 28m SW of Ridley College, Gnd & Flr1 Ridley College 170-172 The Avenue PARKVILLE VIC 3052",,,,-37.7839191,144.9569982,,,0,Parking Meters,1,1,,,,,,MPM1891611,Yes,205A,Yes
1891612,21,"-37.7824506, 144.9571986","The Avenue between Walker Street and Ievers Street, approximately 34m NW of Flat 24 202 The Avenue PARKVILLE VIC 3052",,,,-37.7824506,144.9571986,,,0,Parking Meters,1,1,,,,,,MPM1891612,Yes,205C,Yes
1891613,21,"-37.7888682, 144.9571547","The Avenue between Leonard Street and MacArthur Road, approximately 28m SW of Clunies Ross Reserve 8 The Avenue PARKVILLE VIC 3052",,,,-37.7888682,144.9571547,,,0,Parking Meters,1,1,,,,,,MPM1891613,Yes,206A,Yes
1898621,21,"-37.7849386, 144.9542174","Royal Park, approximately 92m East of Meerkat Cafe, Kiosk 3 Melbourne Zoological Gardens 6 Elliott Avenue PARKVILLE VIC 3052",,,,-37.7849386,144.9542174,,,0,Parking Meters,1,1,,,,,,MPM1898621,Yes,ZOO8,Yes
1647691,21,"-37.7815665, 144.9589776","Ievers Street between Royal Parade and The Avenue, approximately 3m South of 14 Ievers Street PARKVILLE VIC 3052",,,,-37.7815665,144.9589776,,,0,Parking Meters,1,1,,,,,,MPM1647691,Yes,326A,Yes
1647739,21,"-37.786358, 144.9568932","The Avenue between Leonard Street and Walker Street, approximately 36m SW of Unit 1 90 The Avenue PARKVILLE VIC 3052",,,,-37.786358,144.9568932,,,0,Parking Meters,1,1,,,,,,MPM1647739,Yes,206E,Yes
1647750,21,"-37.7785922, 144.959452","The Avenue between Ievers Street and Park Street, approximately 31m South of Royal Park Lodge, 369 The Avenue PARKVILLE VIC 3052",,,,-37.7785922,144.959452,,,0,Parking Meters,1,1,,,,,,MPM1647750,Yes,141F,Yes
1802341,21,"-37.7913487, 144.960522","Cemetery Road West between Royal Parade and College Crescent, approximately 85m NE of University College 40 College Crescent PARKVILLE VIC 3052",,,,-37.7913487,144.960522,,,0,Parking Meters,1,1,,,,,,MPM1802341,Yes,478C,Yes
1802361,21,"-37.7929218, 144.9588931","College Crescent Reserve, approximately 10m SE of College Crescent Reserve 48-52 College Crescent PARKVILLE VIC 3052",,,,-37.7929218,144.9588931,,,0,Parking Meters,1,1,,,,,,MPM1802361,Yes,486B,Yes
1802370,21,"-37.7791234, 144.9603128","Royal Parade between Ievers Street and Park Street, approximately 50m East of Nock Lofty, 551-559 Royal Parade PARKVILLE VIC 3052",,,,-37.7791234,144.9603128,,,0,Parking Meters,1,1,,,,,,MPM1802370,Yes,487B,Yes
1802375,21,"-37.7839759, 144.9597138","Royal Parade between Ievers Street and Walker Street, approximately 50m East of Monash University Victorian College Of Pharmacy, Manning Building 395 Royal Parade PARKVILLE VIC 3052",,,,-37.7839759,144.9597138,,,0,Parking Meters,1,1,,,,,,MPM1802375,Yes,488B,Yes
1805659,21,"-37.7906573, 144.9576109","The Avenue between MacArthur Road and Gatehouse Street, approximately 4m NW of Townhouse 1 4A The Avenue PARKVILLE VIC 3052",,,,-37.7906573,144.9576109,,,0,Parking Meters,1,1,,,,,,MPM1805659,,159C,Yes
1805663,21,"-37.7876655, 144.9569832","Intersection of Leonard Street and The Avenue, approximately 29m NW of Sorella, 28-32 The Avenue PARKVILLE VIC 3052",,,,-37.7876655,144.9569832,,,0,Parking Meters,1,1,,,,,,MPM1805663,,206C,Yes
1805673,21,"-37.796722, 144.9517272","Flemington Road between Murphy Street and Harker Street, approximately 36m SE of William Buckland House, 2-4 Gatehouse Street PARKVILLE VIC 3052",,,,-37.796722,144.9517272,,,0,Parking Meters,1,1,,,,,,MPM1805673,,375B,Yes
1805815,21,"-37.7796331, 144.9602487","Royal Parade between Ievers Street and Park Street, approximately 50m East of 537 Royal Parade PARKVILLE VIC 3052",,,,-37.7796331,144.9602487,,,0,Parking Meters,1,1,,,,,,MPM1805815,,487C,Yes
1805818,21,"-37.7914686, 144.9603865","Cemetery Road West between Royal Parade and College Crescent, approximately 68m NE of University College 40 College Crescent PARKVILLE VIC 3052",,,,-37.7914686,144.9603865,,,0,Parking Meters,1,1,,,,,,MPM1805818,,478D,Yes
1805823,21,"-37.7809838, 144.9600812","Royal Parade between Ievers Street and Park Street, approximately 50m East of Deloraine Terrace, 501 Royal Parade PARKVILLE VIC 3052",,,,-37.7809838,144.9600812,,,0,Parking Meters,1,1,,,,,,MPM1805823,,487E,Yes
1805825,21,"-37.7860853, 144.9594499","Royal Parade between Leonard Street and Walker Street, approximately 66m NE of Lisa Bellear House, Lise Bellear House 303-309 Royal Parade PARKVILLE VIC 3052",,,,-37.7860853,144.9594499,,,0,Parking Meters,1,1,,,,,,MPM1805825,,489A,Yes
1805868,21,"-37.7773412, 144.9534139","Park Street between West Coburg Tramway and Royal Parade, approximately 81m West of Royal Park Brunswick Cricket Club Inc, Western Pavilion Royal Park 776 Park Street PARKVILLE VIC 3052",,,,-37.7773412,144.9534139,,,0,Parking Meters,1,1,,,,,,MPM1805868,,109B,Yes
1805902,21,"-37.7910902, 144.9583713","Royal Parade between Gatehouse Street and MacArthur Road, approximately 9m East of Parkville Tennis Club 151-153 Royal Parade PARKVILLE VIC 3052",,,,-37.7910902,144.9583713,,,0,Parking Meters,1,1,,,,,,MPM1805902,,491C,Yes
1851925,21,"-37.7907875, 144.9588752","Royal Parade between Gatehouse Street and MacArthur Road, approximately 51m East of 155 Royal Parade PARKVILLE VIC 3052",,,,-37.7907875,144.9588752,,,0,Parking Meters,1,1,,,,,,MPM1851925,Yes,491B,Yes
1851928,21,"-37.7978353, 144.9580348","Royal Parade between Grattan Street and Story Street, approximately 28m North of The Florey Inst. Of Neuroscience And Mental Health, Part Kenneth Myer Building 144 30 Royal Parade PARKVILLE VIC 3010",,,,-37.7978353,144.9580348,,,0,Parking Meters,1,1,,,,,,MPM1851928,Yes,494B,Yes
1891609,21,"-37.7814908, 144.9573903","Intersection of Ievers Street and The Avenue, approximately 53m SW of Marilyn Rowe House, 260-270 The Avenue PARKVILLE VIC 3052",,,,-37.7814908,144.9573903,,,0,Parking Meters,1,1,,,,,,MPM1891609,Yes,141A,Yes
1898611,21,"-37.7814806, 144.9508916","Royal Park, approximately 82m SW of Royal Park Railway Station Poplar Road PARKVILLE VIC 3052",,,,-37.7814806,144.9508916,,,0,Parking Meters,1,1,,,,,,MPM1898611,Yes,ZOO23,Yes
1898620,21,"-37.785996, 144.9526703","Royal Park, approximately 84m SW of Melbourne Zoological Gardens 6 Elliott Avenue PARKVILLE VIC 3052",,,,-37.785996,144.9526703,,,0,Parking Meters,1,1,,,,,,MPM1898620,Yes,ZOO7,Yes
1898626,21,"-37.7817446, 144.9507757","Royal Park, approximately 70m North of Rail Cafe, Kiosk 5 Melbourne Zoological Gardens 6 Elliott Avenue PARKVILLE VIC 3052",,,,-37.7817446,144.9507757,,,0,Parking Meters,1,1,,,,,,MPM1898626,Yes,ZOO24,Yes
