id,map_id,address,descriptio,pic,link,icon,lat,lng,anim,title,infoopen,category,approved,retina,type,did,sticky,other_data,layergroup,Custom Field: geo_shape,prop_id,Custom Field: addresspt1,Custom Field: addressp_1,asset_clas,asset_type,objectid,,addresspt_,asset_subt,model_desc,mcc_id,roadseg_id,,model_no
1231226,21,"-37.81548699581418, 144.9581794249902",Sign - Public Transport 1 Panel Bus Stop Type 8,,,,-37.815487,144.9581794249902,,,,1,1,0,,,,,,"{""coordinates"": [144.9581794249902, -37.81548699581418], ""type"": ""Point""}",0,21.56130407,83,Signage,Sign - Public Transport,600,,548056,,Sign - Public Transport 1 Panel,1231226,20184,,P.16
1232777,21,"-37.82191394843844, 144.95539345270072",Sign - Public Transport 1 Panel Bus Stop Type 8,,,,-37.82191395,144.95539345270072,,,,1,1,0,,,,,,"{""coordinates"": [144.95539345270072, -37.82191394843844], ""type"": ""Point""}",0,15.86043382,181,Signage,Sign - Public Transport,918,,103975,,Sign - Public Transport 1 Panel,1232777,22174,,P.16
1245491,21,"-37.81925793836065, 144.96137134270353",Sign - Public Transport 1 Panel Bus Stop Type 13,,,,-37.81925794,144.96137134270353,,,,1,1,0,,,,,,"{""coordinates"": [144.96137134270353, -37.81925793836065], ""type"": ""Point""}",0,20.83965494,92,Signage,Sign - Public Transport,10046,,627343,,Sign - Public Transport 1 Panel,1245491,20218,,P.16
1239427,21,"-37.823393054989104, 144.9697464050253",Sign - Public Transport 1 Panel Bus Stop Type 8,,,,-37.82339305,144.9697464050253,,,,1,1,0,,,,,,"{""coordinates"": [144.9697464050253, -37.823393054989104], ""type"": ""Point""}",0,17.58473113,291,Signage,Sign - Public Transport,10991,,566451,,Sign - Public Transport 1 Panel,1239427,22080,,P.16
1252358,21,"-37.77939815716074, 144.9601599346738",Sign - Public Transport 1 Panel Bus Stop Type 8,,,,-37.77939816,144.9601599346738,,,,1,1,0,,,,,,"{""coordinates"": [144.9601599346738, -37.77939815716074], ""type"": ""Point""}",0,39.94329877,175,Signage,Sign - Public Transport,19799,,108524,,Sign - Public Transport 1 Panel,1252358,22393,,P.16
1248655,21,"-37.83654500710552, 144.98680793880067",Sign - Public Transport 1 Panel Bus Stop Type 3,,,,-37.83654501,144.98680793880067,,,,1,1,0,,,,,,"{""coordinates"": [144.98680793880067, -37.83654500710552], ""type"": ""Point""}",0,17.18439679,89,Signage,Sign - Public Transport,20193,,107820,,Sign - Public Transport 1 Panel,1248655,22300,,P.16
1253844,21,"-37.81496421167442, 144.9523146850266",Sign - Public Transport 1 Panel Bus Stop Type 8,,,,-37.81496421,144.9523146850266,,,,1,1,0,,,,,,"{""coordinates"": [144.9523146850266, -37.81496421167442], ""type"": ""Point""}",0,25.38230139,242,Signage,Sign - Public Transport,20421,,611234,,Sign - Public Transport 1 Panel,1253844,20077,,P.16
1246971,21,"-37.81888176511253, 144.95412220092587",Sign - Public Transport 1 Panel Bus Stop Type 8,,,,-37.81888177,144.95412220092587,,,,1,1,0,,,,,,"{""coordinates"": [144.95412220092587, -37.81888176511253], ""type"": ""Point""}",0,14.34503015,58,Signage,Sign - Public Transport,21204,,579287,,Sign - Public Transport 1 Panel,1246971,20071,,P.16
1255226,21,"-37.85056307604563, 144.98401830869636",Sign - Public Transport 1 Panel Bus Stop Type 8,,,,-37.85056308,144.98401830869636,,,,1,1,0,,,,,,"{""coordinates"": [144.98401830869636, -37.85056307604563], ""type"": ""Point""}",0,0,0,Signage,Sign - Public Transport,22793,,0,,Sign - Public Transport 1 Panel,1255226,22479,,P.16
1239035,21,"-37.82824301520561, 144.97131044726999",Sign - Public Transport 1 Panel Bus Stop Type 8,,,,-37.82824302,144.97131044726999,,,,1,1,0,,,,,,"{""coordinates"": [144.97131044726999, -37.82824301520561], ""type"": ""Point""}",0,0,0,Signage,Sign - Public Transport,28118,,0,,Sign - Public Transport 1 Panel,1239035,22704,,P.16
1233941,21,"-37.79958533655315, 144.9576673729389",Sign - Public Transport 1 Panel Bus Stop Type 8,,,,-37.79958534,144.9576673729389,,,,1,1,0,,,,,,"{""coordinates"": [144.9576673729389, -37.79958533655315], ""type"": ""Point""}",0,53.64351101,290,Signage,Sign - Public Transport,28127,,633969,,Sign - Public Transport 1 Panel,1233941,22514,,P.16
1252887,21,"-37.81313468607944, 144.9517210522907",Sign - Public Transport 1 Panel Bus Stop Type 8,,,,-37.81313469,144.9517210522907,,,,1,1,0,,,,,,"{""coordinates"": [144.9517210522907, -37.81313468607944], ""type"": ""Point""}",0,13.98277844,334,Signage,Sign - Public Transport,28440,,562944,,Sign - Public Transport 1 Panel,1252887,20030,,P.16
1252544,21,"-37.789581766621325, 144.9688057046247",Sign - Public Transport 1 Panel Bus Stop Type 8,,,,-37.78958177,144.9688057046247,,,,1,1,0,,,,,,"{""coordinates"": [144.9688057046247, -37.789581766621325], ""type"": ""Point""}",0,0,0,Signage,Sign - Public Transport,31096,,0,,Sign - Public Transport 1 Panel,1252544,22508,,P.16
1249156,21,"-37.83180250187986, 144.9717147014062",Sign - Public Transport 1 Panel Bus Stop Type 13,,,,-37.8318025,144.9717147014062,,,,1,1,0,,,,,,"{""coordinates"": [144.9717147014062, -37.83180250187986], ""type"": ""Point""}",0,0,0,Signage,Sign - Public Transport,31499,,0,,Sign - Public Transport 1 Panel,1249156,22467,,P.16
1239395,21,"-37.82357696553344, 144.97021045708078",Sign - Public Transport 1 Panel Bus Stop Type 8,,,,-37.82357697,144.97021045708078,,,,1,1,0,,,,,,"{""coordinates"": [144.97021045708078, -37.82357696553344], ""type"": ""Point""}",0,35.24283401,175,Signage,Sign - Public Transport,32385,,566451,,Sign - Public Transport 1 Panel,1239395,22466,,P.16
1235578,21,"-37.79828271711812, 144.9206180551749",Sign - Public Transport 1 Panel Bus Stop Type 12,,,,-37.79828272,144.9206180551749,,,,1,1,0,,,,,,"{""coordinates"": [144.9206180551749, -37.79828271711812], ""type"": ""Point""}",0,17.94134959,130,Signage,Sign - Public Transport,33087,,559172,,Sign - Public Transport 1 Panel,1235578,21845,,P.16
1231223,21,"-37.81389991110184, 144.95734143620206",Sign - Public Transport 1 Panel Bus Stop Type 8,,,,-37.81389991,144.95734143620206,,,,1,1,0,,,,,,"{""coordinates"": [144.95734143620206, -37.81389991110184], ""type"": ""Point""}",0,16.88512037,251,Signage,Sign - Public Transport,36659,,110101,,Sign - Public Transport 1 Panel,1231223,20185,,P.16
1236979,21,"-37.81689800649741, 144.9618384108209",Sign - Public Transport 1 Panel Bus Stop Type 8,,,,-37.81689801,144.9618384108209,,,,1,1,0,,,,,,"{""coordinates"": [144.9618384108209, -37.81689800649741], ""type"": ""Point""}",0,24.66895752,72,Signage,Sign - Public Transport,36738,,579386,,Sign - Public Transport 1 Panel,1236979,20114,,P.16
1240839,21,"-37.79731310405415, 144.967955914192",Sign - Public Transport 1 Panel Bus Stop Type 3,,,,-37.7973131,144.9679559,,,,1,1,0,,,,,,"{""coordinates"": [144.967955914192, -37.79731310405415], ""type"": ""Point""}",0,10.9808405,336,Signage,Sign - Public Transport,37956,,103108,,Sign - Public Transport 1 Panel,1240839,20689,,P.16
1248457,21,"-37.80365281271108, 144.9564163595527",Sign - Public Transport 1 Panel Bus Stop Type 8,,,,-37.80365281,144.9564163595527,,,,1,1,0,,,,,,"{""coordinates"": [144.9564163595527, -37.80365281271108], ""type"": ""Point""}",0,18.16455397,21,Signage,Sign - Public Transport,38386,,589314,,Sign - Public Transport 1 Panel,1248457,20942,,P.16
1479426,21,"-37.79790612032, 144.9705713015547",Sign - Public Transport 1 Panel Bus Stop Type 3,,,,-37.79790612,144.9705713015547,,,,1,1,0,,,,,,"{""coordinates"": [144.9705713015547, -37.79790612032], ""type"": ""Point""}",0,26.30246726,335,Signage,Sign - Public Transport,40180,,106271,,Sign - Public Transport 1 Panel,1479426,20563,,P.16
1491448,21,"-37.787760777855524, 144.9253892133351",Sign - Public Transport 1 Panel Bus Stop Type 8,,,,-37.78776078,144.9253892133351,,,,1,1,0,,,,,,"{""coordinates"": [144.9253892133351, -37.787760777855524], ""type"": ""Point""}",0,52.27276699,342,Signage,Sign - Public Transport,41353,,618547,,Sign - Public Transport 1 Panel,1491448,23146,,P.16
1239918,21,"-37.82565495609574, 144.96017643000502",Sign - Public Transport 1 Panel Bus Stop Type 8,,,,-37.82565496,144.96017643000502,,,,1,1,0,,,,,,"{""coordinates"": [144.96017643000502, -37.82565495609574], ""type"": ""Point""}",0,33.5189726,72,Signage,Sign - Public Transport,42750,,108053,,Sign - Public Transport 1 Panel,1239918,22042,,P.16
1255248,21,"-37.84636998833038, 144.98481744885754",Sign - Public Transport 1 Panel Bus Stop Type 3,,,,-37.84636999,144.98481744885754,,,,1,1,0,,,,,,"{""coordinates"": [144.98481744885754, -37.84636998833038], ""type"": ""Point""}",0,63.9730963,90,Signage,Sign - Public Transport,44170,,645774,,Sign - Public Transport 1 Panel,1255248,22481,,P.16
1247042,21,"-37.81767597164006, 144.95888238475013",Sign - Public Transport 1 Panel Bus Stop Type 8,,,,-37.81767597,144.95888238475013,,,,1,1,0,,,,,,"{""coordinates"": [144.95888238475013, -37.81767597164006], ""type"": ""Point""}",0,10.53790207,105,Signage,Sign - Public Transport,2098,,507646,,Sign - Public Transport 1 Panel,1247042,20118,,P.16
1249788,21,"-37.793726533289785, 144.94716743007305",Sign - Public Transport 1 Panel Bus Stop Type 8,,,,-37.79372653,144.94716743007305,,,,1,1,0,,,,,,"{""coordinates"": [144.94716743007305, -37.793726533289785], ""type"": ""Point""}",0,44.2305064,237,Signage,Sign - Public Transport,2627,,100087,,Sign - Public Transport 1 Panel,1249788,20919,,P.16
1239032,21,"-37.82825403073943, 144.97139535783998",Sign - Public Transport 1 Panel Bus Stop Type 8,,,,-37.82825403,144.97139535783998,,,,1,1,0,,,,,,"{""coordinates"": [144.97139535783998, -37.82825403073943], ""type"": ""Point""}",0,0,0,Signage,Sign - Public Transport,4934,,0,,Sign - Public Transport 1 Panel,1239032,22704,,P.16
1245405,21,"-37.81810589679171, 144.9619763819388",Sign - Public Transport 1 Panel Bus Stop Type 3,,,,-37.8181059,144.9619763819388,,,,1,1,0,,,,,,"{""coordinates"": [144.9619763819388, -37.81810589679171], ""type"": ""Point""}",0,42.39381829,331,Signage,Sign - Public Transport,5041,,527935,,Sign - Public Transport 1 Panel,1245405,20170,,P.16
1370841,21,"-37.82793320904311, 144.90887617925307",Sign - Public Transport 1 Panel Bus Stop Type 3,,,,-37.82793321,144.90887617925307,,,,1,1,0,,,,,,"{""coordinates"": [144.90887617925307, -37.82793320904311], ""type"": ""Point""}",0,36.91007002,100,Signage,Sign - Public Transport,7599,,586084,,Sign - Public Transport 1 Panel,1370841,22170,,P.16
1235519,21,"-37.79564672738665, 144.92489593979033",Sign - Public Transport 1 Panel Bus Stop Type 12,,,,-37.79564673,144.92489593979033,,,,1,1,0,,,,,,"{""coordinates"": [144.92489593979033, -37.79564672738665], ""type"": ""Point""}",0,10.9475722,204,Signage,Sign - Public Transport,8935,,568579,,Sign - Public Transport 1 Panel,1235519,21749,,P.16
1232670,21,"-37.82725097105045, 144.95787041193037",Sign - Public Transport 1 Panel Bus Stop Type 8,,,,-37.82725097,144.95787041193037,,,,1,1,0,,,,,,"{""coordinates"": [144.95787041193037, -37.82725097105045], ""type"": ""Point""}",0,37.24941515,357,Signage,Sign - Public Transport,9970,,664059,,Sign - Public Transport 1 Panel,1232670,22016,,P.16
1257205,21,"-37.805396239323905, 144.9520285962586",Sign - Public Transport 1 Panel Bus Stop Type 8,,,,-37.80539624,144.9520285962586,,,,1,1,0,,,,,,"{""coordinates"": [144.9520285962586, -37.805396239323905], ""type"": ""Point""}",0,11.15153124,93,Signage,Sign - Public Transport,11093,,533907,,Sign - Public Transport 1 Panel,1257205,20979,,P.16
1234310,21,"-37.790425430580804, 144.94352558479113",Sign - Public Transport 1 Panel Bus Stop Type 8,,,,-37.79042543,144.94352558479113,,,,1,1,0,,,,,,"{""coordinates"": [144.94352558479113, -37.790425430580804], ""type"": ""Point""}",0,30.53653951,68,Signage,Sign - Public Transport,12044,,525732,,Sign - Public Transport 1 Panel,1234310,22425,,P.16
1239189,21,"-37.82961907563178, 144.96406241965494",Sign - Public Transport 1 Panel Bus Stop Type 8,,,,-37.82961908,144.96406241965494,,,,1,1,0,,,,,,"{""coordinates"": [144.96406241965494, -37.82961907563178], ""type"": ""Point""}",0,73.04996609,115,Signage,Sign - Public Transport,13942,,537240,,Sign - Public Transport 1 Panel,1239189,22459,,P.16
1235307,21,"-37.802508730068354, 144.92456498204757",Sign - Public Transport 1 Panel Bus Stop Type 13,,,,-37.80250873,144.92456498204757,,,,1,1,0,,,,,,"{""coordinates"": [144.92456498204757, -37.802508730068354], ""type"": ""Point""}",0,35.14735701,162,Signage,Sign - Public Transport,13987,,110970,,Sign - Public Transport 1 Panel,1235307,21680,,P.16
1245209,21,"-37.82069471465366, 144.92473362878667",Sign - Public Transport 1 Panel Bus Stop Type 3,,,,-37.82069471,144.92473362878667,,,,1,1,0,,,,,,"{""coordinates"": [144.92473362878667, -37.82069471465366], ""type"": ""Point""}",0,9.08151028,51,Signage,Sign - Public Transport,15587,,637267,,Sign - Public Transport 1 Panel,1245209,22156,,P.16
1241441,21,"-37.8003609261965, 144.97442342241808",Sign - Public Transport 1 Panel Bus Stop Type 8,,,,-37.80036093,144.97442342241808,,,,1,1,0,,,,,,"{""coordinates"": [144.97442342241808, -37.8003609261965], ""type"": ""Point""}",0,11.93225984,159,Signage,Sign - Public Transport,15760,,106922,,Sign - Public Transport 1 Panel,1241441,20608,,P.16
1249814,21,"-37.79830746372871, 144.94633943083986",Sign - Public Transport 1 Panel Bus Stop Type 8,,,,-37.79830746,144.94633943083986,,,,1,1,0,,,,,,"{""coordinates"": [144.94633943083986, -37.79830746372871], ""type"": ""Point""}",0,16.62867695,349,Signage,Sign - Public Transport,16213,,516357,,Sign - Public Transport 1 Panel,1249814,22517,,P.16
1272248,21,"-37.825833042409954, 144.9666164228847",Sign - Public Transport 1 Panel Bus Stop Type 8,,,,-37.82583304,144.9666164228847,,,,1,1,0,,,,,,"{""coordinates"": [144.9666164228847, -37.825833042409954], ""type"": ""Point""}",0,16.64400973,127,Signage,Sign - Public Transport,16400,,110623,,Sign - Public Transport 1 Panel,1272248,22121,,P.16
1240256,21,"-37.804633940884784, 144.9663703776215",Sign - Public Transport 1 Panel Bus Stop Type 3,,,,-37.80463394,144.9663703776215,,,,1,1,0,,,,,,"{""coordinates"": [144.9663703776215, -37.804633940884784], ""type"": ""Point""}",0,5.94289029,342,Signage,Sign - Public Transport,16844,,522527,,Sign - Public Transport 1 Panel,1240256,20524,,P.16
1254737,21,"-37.83299002899975, 144.97293669624193",Sign - Public Transport 1 Panel Bus Stop Type 8,,,,-37.83299003,144.97293669624193,,,,1,1,0,,,,,,"{""coordinates"": [144.97293669624193, -37.83299002899975], ""type"": ""Point""}",0,11.54086253,350,Signage,Sign - Public Transport,17605,,639648,,Sign - Public Transport 1 Panel,1254737,22708,,P.16
1240314,21,"-37.80111524772101, 144.96674878780823",Sign - Public Transport 1 Panel Bus Stop Type 3,,,,-37.80111525,144.96674878780823,,,,1,1,0,,,,,,"{""coordinates"": [144.96674878780823, -37.80111524772101], ""type"": ""Point""}",0,5.22849577,179,Signage,Sign - Public Transport,17860,,106109,,Sign - Public Transport 1 Panel,1240314,20530,,P.16
1345004,21,"-37.82403291338346, 144.97056844604276",Sign - Public Transport 1 Panel Bus Stop Type 12,,,,-37.82403291,144.97056844604276,,,,1,1,0,,,,,,"{""coordinates"": [144.97056844604276, -37.82403291338346], ""type"": ""Point""}",0,39.68297552,206,Signage,Sign - Public Transport,19359,,540075,,Sign - Public Transport 1 Panel,1345004,22466,,P.16
1233408,21,"-37.79412896547033, 144.96811766271057",Sign - Public Transport 1 Panel Bus Stop Type 8,,,,-37.79412897,144.96811766271057,,,,1,1,0,,,,,,"{""coordinates"": [144.96811766271057, -37.79412896547033], ""type"": ""Point""}",0,49.91185911,140,Signage,Sign - Public Transport,26046,,522611,,Sign - Public Transport 1 Panel,1233408,20538,,P.16
1256151,21,"-37.80823830232059, 144.94862350162495",Sign - Public Transport 1 Panel Bus Stop Type 11,,,,-37.8082383,144.94862350162495,,,,1,1,0,,,,,,"{""coordinates"": [144.94862350162495, -37.80823830232059], ""type"": ""Point""}",0,26.06071423,124,Signage,Sign - Public Transport,27002,,108936,,Sign - Public Transport 1 Panel,1256151,21651,,P.16
1251688,21,"-37.8032564323768, 144.9495344838827",Sign - Public Transport 1 Panel Bus Stop Type 8,,,,-37.80325643,144.9495344838827,,,,1,1,0,,,,,,"{""coordinates"": [144.9495344838827, -37.8032564323768], ""type"": ""Point""}",0,10.78174874,176,Signage,Sign - Public Transport,37223,,103419,,Sign - Public Transport 1 Panel,1251688,20992,,P.16
1560878,21,"-37.84112272045477, 144.98584971613218",Sign - Public Transport 1 Panel Bus Stop Type 3,,,,-37.84112272,144.98584971613218,,,,1,1,0,,,,,,"{""coordinates"": [144.98584971613218, -37.84112272045477], ""type"": ""Point""}",0,13.50218119,87,Signage,Sign - Public Transport,37335,,107803,,Sign - Public Transport 1 Panel,1560878,22485,,P.16
1231165,21,"-37.8137522630152, 144.96027134357547",Sign - Public Transport 1 Panel Bus Stop Type 3,,,,-37.81375226,144.96027134357547,,,,1,1,0,,,,,,"{""coordinates"": [144.96027134357547, -37.8137522630152], ""type"": ""Point""}",0,27.03952622,200,Signage,Sign - Public Transport,38355,,655044,,Sign - Public Transport 1 Panel,1231165,20175,,P.16
1251191,21,"-37.80299443103376, 144.94943962445097",Sign - Public Transport 1 Panel Bus Stop Type 8,,,,-37.80299443,144.94943962445097,,,,1,1,0,,,,,,"{""coordinates"": [144.94943962445097, -37.80299443103376], ""type"": ""Point""}",0,13.28562306,115,Signage,Sign - Public Transport,40452,,107995,,Sign - Public Transport 1 Panel,1251191,20999,,P.16
1247064,21,"-37.818381951580605, 144.95640938337968",Sign - Public Transport 1 Panel Bus Stop Type 8,,,,-37.81838195,144.95640938337968,,,,1,1,0,,,,,,"{""coordinates"": [144.95640938337968, -37.818381951580605], ""type"": ""Point""}",0,22.6165292,172,Signage,Sign - Public Transport,43437,,587898,,Sign - Public Transport 1 Panel,1247064,20120,,P.16
1252668,21,"-37.809751877544066, 144.95544537030668",Sign - Public Transport 1 Panel Bus Stop Type 8,,,,-37.80975188,144.95544537030668,,,,1,1,0,,,,,,"{""coordinates"": [144.95544537030668, -37.809751877544066], ""type"": ""Point""}",0,34.30768912,217,Signage,Sign - Public Transport,43508,,102941,,Sign - Public Transport 1 Panel,1252668,21529,,P.16
1581210,21,"-37.7874453383767, 144.92185552555435",Sign - Public Transport 1 Panel Bus Stop Type 8,,,,-37.78744534,144.92185552555435,,,,1,1,0,,,,,,"{""coordinates"": [144.92185552555435, -37.7874453383767], ""type"": ""Point""}",0,0,0,Signage,Sign - Public Transport,303,,0,,Sign - Public Transport 1 Panel,1581210,23147,,P.16
1237228,21,"-37.81101801255496, 144.95912232576214",Sign - Public Transport 1 Panel Bus Stop Type 8,,,,-37.81101801,144.95912232576214,,,,1,1,0,,,,,,"{""coordinates"": [144.95912232576214, -37.81101801255496], ""type"": ""Point""}",0,21.70019438,280,Signage,Sign - Public Transport,2416,,527567,,Sign - Public Transport 1 Panel,1237228,20024,,P.16
1239188,21,"-37.83058895642065, 144.9650184564616",Sign - Public Transport 1 Panel Bus Stop Type 8,,,,-37.83058896,144.9650184564616,,,,1,1,0,,,,,,"{""coordinates"": [144.9650184564616, -37.83058895642065], ""type"": ""Point""}",0,73.39741779,77,Signage,Sign - Public Transport,5923,,110628,,Sign - Public Transport 1 Panel,1239188,22116,,P.16
1245016,21,"-37.82145285696462, 144.9209121892264",Sign - Public Transport 1 Panel Bus Stop Type 3,,,,-37.82145286,144.9209121892264,,,,1,1,0,,,,,,"{""coordinates"": [144.9209121892264, -37.82145285696462], ""type"": ""Point""}",0,23.65519742,197,Signage,Sign - Public Transport,6336,,110594,,Sign - Public Transport 1 Panel,1245016,22159,,P.16
1244808,21,"-37.82623998153476, 144.91149945587298",Sign - Public Transport 1 Panel Bus Stop Type 3,,,,-37.82623998,144.91149945587298,,,,1,1,0,,,,,,"{""coordinates"": [144.91149945587298, -37.82623998153476], ""type"": ""Point""}",0,0,0,Signage,Sign - Public Transport,6530,,0,,Sign - Public Transport 1 Panel,1244808,22164,,P.16
1578570,21,"-37.80272091766867, 144.92513555545514",Sign - Public Transport 1 Panel Bus Stop Type 1,,,,-37.80272092,144.92513555545514,,,,1,1,0,,,,,,"{""coordinates"": [144.92513555545514, -37.80272091766867], ""type"": ""Point""}",0,90.53917343,158,Signage,Sign - Public Transport,7745,,110970,,Sign - Public Transport 1 Panel,1578570,21680,,P.16
1244952,21,"-37.83016114540094, 144.90032361713372",Sign - Public Transport 1 Panel Bus Stop Type 3,,,,-37.83016115,144.90032361713372,,,,1,1,0,,,,,,"{""coordinates"": [144.90032361713372, -37.83016114540094], ""type"": ""Point""}",0,30.36664489,325,Signage,Sign - Public Transport,8770,,617233,,Sign - Public Transport 1 Panel,1244952,22168,,P.16
1253133,21,"-37.792625873556105, 144.9707824588029",Sign - Public Transport 1 Panel Bus Stop Type 11,,,,-37.79262587,144.9707824588029,,,,1,1,0,,,,,,"{""coordinates"": [144.9707824588029, -37.792625873556105], ""type"": ""Point""}",0,63.9429482,349,Signage,Sign - Public Transport,8772,,600791,,Sign - Public Transport 1 Panel,1253133,20643,,P.16
1232894,21,"-37.823481893825324, 144.9606983135566",Sign - Public Transport 1 Panel Bus Stop Type 8,,,,-37.82348189,144.9606983135566,,,,1,1,0,,,,,,"{""coordinates"": [144.9606983135566, -37.823481893825324], ""type"": ""Point""}",0,31.49553995,294,Signage,Sign - Public Transport,10941,,539457,,Sign - Public Transport 1 Panel,1232894,22057,,P.16
1257294,21,"-37.82190993188825, 144.93242660517498",Sign - Public Transport 1 Panel Bus Stop Type 3,,,,-37.82190993,144.93242660517498,,,,1,1,0,,,,,,"{""coordinates"": [144.93242660517498, -37.82190993188825], ""type"": ""Point""}",561106,12.03928279,167,Signage,Sign - Public Transport,12063,,561106,,Sign - Public Transport 1 Panel,1257294,0,,P.16
1579768,21,"-37.79540178497472, 144.95784312709472",Sign - Public Transport 1 Panel Bus Stop Type 1,,,,-37.79540178,144.95784312709472,,,,1,1,0,,,,,,"{""coordinates"": [144.95784312709472, -37.79540178497472], ""type"": ""Point""}",0,9.30560783,187,Signage,Sign - Public Transport,13613,,108458,,Sign - Public Transport 1 Panel,1579768,22363,,P.16
1252350,21,"-37.78171322662849, 144.95986499626397",Sign - Public Transport 1 Panel Bus Stop Type 8,,,,-37.78171323,144.95986499626397,,,,1,1,0,,,,,,"{""coordinates"": [144.95986499626397, -37.78171322662849], ""type"": ""Point""}",0,43.85386076,148,Signage,Sign - Public Transport,13819,,529140,,Sign - Public Transport 1 Panel,1252350,22386,,P.16
1252703,21,"-37.81172390817975, 144.95668033737152",Sign - Public Transport 1 Panel Bus Stop Type 8,,,,-37.81172391,144.95668033737152,,,,1,1,0,,,,,,"{""coordinates"": [144.95668033737152, -37.81172390817975], ""type"": ""Point""}",0,16.06194587,260,Signage,Sign - Public Transport,15096,,110759,,Sign - Public Transport 1 Panel,1252703,22615,,P.16
1244925,21,"-37.827431112117395, 144.9027175957814",Sign - Public Transport 1 Panel Bus Stop Type 3,,,,-37.82743111,144.9027175957814,,,,1,1,0,,,,,,"{""coordinates"": [144.9027175957814, -37.827431112117395], ""type"": ""Point""}",0,29.33540886,121,Signage,Sign - Public Transport,16854,,580037,,Sign - Public Transport 1 Panel,1244925,22168,,P.16
1245353,21,"-37.81828097717471, 144.96037240676188",Sign - Public Transport 1 Panel Bus Stop Type 8,,,,-37.81828098,144.96037240676188,,,,1,1,0,,,,,,"{""coordinates"": [144.96037240676188, -37.81828097717471], ""type"": ""Point""}",0,23.13283467,276,Signage,Sign - Public Transport,17385,,559046,,Sign - Public Transport 1 Panel,1245353,20133,,P.16
1245023,21,"-37.8237568776443, 144.92164221918702",Sign - Public Transport 1 Panel Bus Stop Type 3,,,,-37.82375688,144.92164221918702,,,,1,1,0,,,,,,"{""coordinates"": [144.92164221918702, -37.8237568776443], ""type"": ""Point""}",0,0,0,Signage,Sign - Public Transport,18023,,0,,Sign - Public Transport 1 Panel,1245023,22159,,P.16
1249163,21,"-37.83050250727819, 144.97139274185386",Sign - Public Transport 1 Panel Bus Stop Type 8,,,,-37.83050251,144.97139274185386,,,,1,1,0,,,,,,"{""coordinates"": [144.97139274185386, -37.83050250727819], ""type"": ""Point""}",0,0,0,Signage,Sign - Public Transport,18285,,0,,Sign - Public Transport 1 Panel,1249163,22467,,P.16
1579933,21,"-37.79854435502073, 144.95795135251927",Sign - Public Transport 1 Panel Bus Stop Type 1,,,,-37.79854436,144.95795135251927,,,,1,1,0,,,,,,"{""coordinates"": [144.95795135251927, -37.79854435502073], ""type"": ""Point""}",0,51.88217484,77,Signage,Sign - Public Transport,19870,,638052,,Sign - Public Transport 1 Panel,1579933,22514,,P.16
1268440,21,"-37.81759594129376, 144.96174844051686",Sign - Public Transport 1 Panel Bus Stop Type 13,,,,-37.81759594,144.96174844051686,,,,1,1,0,,,,,,"{""coordinates"": [144.96174844051686, -37.81759594129376], ""type"": ""Point""}",0,10.64392282,126,Signage,Sign - Public Transport,19878,,527371,,Sign - Public Transport 1 Panel,1268440,20171,,P.16
1345094,21,"-37.81899391883097, 144.9617683754036",Sign - Public Transport 1 Panel Bus Stop Type 12,,,,-37.81899392,144.9617683754036,,,,1,1,0,,,,,,"{""coordinates"": [144.9617683754036, -37.81899391883097], ""type"": ""Point""}",0,33.37655135,300,Signage,Sign - Public Transport,20012,,639653,,Sign - Public Transport 1 Panel,1345094,20218,,P.16
1236752,21,"-37.816192908308494, 144.96110340261552",Sign - Public Transport 1 Panel Bus Stop Type 3,,,,-37.81619291,144.96110340261552,,,,1,1,0,,,,,,"{""coordinates"": [144.96110340261552, -37.816192908308494], ""type"": ""Point""}",0,33.09135168,133,Signage,Sign - Public Transport,21881,,611679,,Sign - Public Transport 1 Panel,1236752,20172,,P.16
1257489,21,"-37.83864195415242, 144.9863653689292",Sign - Public Transport 1 Panel Bus Stop Type 3,,,,-37.83864195,144.9863653689292,,,,1,1,0,,,,,,"{""coordinates"": [144.9863653689292, -37.83864195415242], ""type"": ""Point""}",0,3.25234746,226,Signage,Sign - Public Transport,21924,,107813,,Sign - Public Transport 1 Panel,1257489,22749,,P.16
1236367,21,"-37.80707788076467, 144.91339940699515",Sign - Public Transport 1 Panel Bus Stop Type 11,,,,-37.80707788,144.91339940699515,,,,1,1,0,,,,,,"{""coordinates"": [144.91339940699515, -37.80707788076467], ""type"": ""Point""}",0,14.60443576,80,Signage,Sign - Public Transport,22219,,104045,,Sign - Public Transport 1 Panel,1236367,22442,,P.16
1254717,21,"-37.83358497052535, 144.9776833283757",Sign - Public Transport 1 Panel Bus Stop Type 8,,,,-37.83358497,144.9776833283757,,,,1,1,0,,,,,,"{""coordinates"": [144.9776833283757, -37.83358497052535], ""type"": ""Point""}",0,0,0,Signage,Sign - Public Transport,22522,,0,,Sign - Public Transport 1 Panel,1254717,22223,,P.16
1233949,21,"-37.798108329885295, 144.9578453614485",Sign - Public Transport 1 Panel Bus Stop Type 8,,,,-37.79810833,144.9578453614485,,,,1,1,0,,,,,,"{""coordinates"": [144.9578453614485, -37.798108329885295], ""type"": ""Point""}",0,22.05054616,6,Signage,Sign - Public Transport,22726,,638052,,Sign - Public Transport 1 Panel,1233949,22514,,P.16
1254825,21,"-37.83800607791817, 144.98447444654406",Sign - Public Transport 1 Panel Bus Stop Type 8,,,,-37.83800608,144.98447444654406,,,,1,1,0,,,,,,"{""coordinates"": [144.98447444654406, -37.83800607791817], ""type"": ""Point""}",0,93.70978639,64,Signage,Sign - Public Transport,23788,,565532,,Sign - Public Transport 1 Panel,1254825,22219,,P.16
1247785,21,"-37.79497661521105, 144.9707989948912",Sign - Public Transport 1 Panel Bus Stop Type 3,,,,-37.79497662,144.9707989948912,,,,1,1,0,,,,,,"{""coordinates"": [144.9707989948912, -37.79497661521105], ""type"": ""Point""}",0,30.59613969,327,Signage,Sign - Public Transport,23919,,623854,,Sign - Public Transport 1 Panel,1247785,20570,,P.16
1250696,21,"-37.797551357061536, 144.95245038881728",Sign - Public Transport 1 Panel Bus Stop Type 8,,,,-37.79755136,144.95245038881728,,,,1,1,0,,,,,,"{""coordinates"": [144.95245038881728, -37.797551357061536], ""type"": ""Point""}",0,29.49941527,72,Signage,Sign - Public Transport,26825,,570634,,Sign - Public Transport 1 Panel,1250696,22690,,P.16
1257006,21,"-37.80566084284532, 144.9434254553253",Sign - Public Transport 1 Panel Bus Stop Type 13,,,,-37.80566084,144.9434254553253,,,,1,1,0,,,,,,"{""coordinates"": [144.9434254553253, -37.80566084284532], ""type"": ""Point""}",0,3.55930387,210,Signage,Sign - Public Transport,27645,,108897,,Sign - Public Transport 1 Panel,1257006,21343,,P.16
1241401,21,"-37.79800228540994, 144.9743090963708",Sign - Public Transport 1 Panel Bus Stop Type 3,,,,-37.79800229,144.9743090963708,,,,1,1,0,,,,,,"{""coordinates"": [144.9743090963708, -37.79800228540994], ""type"": ""Point""}",0,3.99804952,220,Signage,Sign - Public Transport,30102,,511049,,Sign - Public Transport 1 Panel,1241401,20597,,P.16
1257190,21,"-37.80557177648884, 144.95351041136576",Sign - Public Transport 1 Panel Bus Stop Type 8,,,,-37.80557178,144.95351041136576,,,,1,1,0,,,,,,"{""coordinates"": [144.95351041136576, -37.80557177648884], ""type"": ""Point""}",0,17.83195393,133,Signage,Sign - Public Transport,30512,,109819,,Sign - Public Transport 1 Panel,1257190,20960,,P.16
1248508,21,"-37.79991202015577, 144.95743395487568",Sign - Public Transport 1 Panel Bus Stop Type 8,,,,-37.79991202,144.95743395487568,,,,1,1,0,,,,,,"{""coordinates"": [144.95743395487568, -37.79991202015577], ""type"": ""Point""}",0,40.31790809,340,Signage,Sign - Public Transport,32141,,633969,,Sign - Public Transport 1 Panel,1248508,21551,,P.16
1575551,21,"-37.80077767616837, 144.96646752265008",Sign - Public Transport 1 Panel Bus Stop Type 1,,,,-37.80077768,144.96646752265008,,,,1,1,0,,,,,,"{""coordinates"": [144.96646752265008, -37.80077767616837], ""type"": ""Point""}",0,6.80612614,297,Signage,Sign - Public Transport,32819,,515675,,Sign - Public Transport 1 Panel,1575551,20757,,P.16
1252536,21,"-37.78737016259562, 144.96918092237397",Sign - Public Transport 1 Panel Bus Stop Type 8,,,,-37.78737016,144.96918092237397,,,,1,1,0,,,,,,"{""coordinates"": [144.96918092237397, -37.78737016259562], ""type"": ""Point""}",0,0,0,Signage,Sign - Public Transport,39748,,0,,Sign - Public Transport 1 Panel,1252536,22508,,P.16
1244489,21,"-37.77687767673642, 144.94947531108608",Sign - Public Transport 1 Panel Bus Stop Type 8,,,,-37.77687768,144.94947531108608,,,,1,1,0,,,,,,"{""coordinates"": [144.94947531108608, -37.77687767673642], ""type"": ""Point""}",0,13.72525672,178,Signage,Sign - Public Transport,40010,,639767,,Sign - Public Transport 1 Panel,1244489,22398,,P.16
1239220,21,"-37.830076314348155, 144.96531772571083",Sign - Public Transport 1 Panel Bus Stop Type 8,,,,-37.83007631,144.96531772571083,,,,1,1,0,,,,,,"{""coordinates"": [144.96531772571083, -37.830076314348155], ""type"": ""Point""}",0,16.38228,121,Signage,Sign - Public Transport,40427,,110628,,Sign - Public Transport 1 Panel,1239220,22118,,P.16
1245195,21,"-37.82097678869638, 144.92581314868238",Sign - Public Transport 1 Panel Bus Stop Type 3,,,,-37.82097679,144.92581314868238,,,,1,1,0,,,,,,"{""coordinates"": [144.92581314868238, -37.82097678869638], ""type"": ""Point""}",0,77.3555899,154,Signage,Sign - Public Transport,40450,,562527,,Sign - Public Transport 1 Panel,1245195,22156,,P.16
1249762,21,"-37.796717481892664, 144.94652849185758",Sign - Public Transport 1 Panel Bus Stop Type 8,,,,-37.79671748,144.94652849185758,,,,1,1,0,,,,,,"{""coordinates"": [144.94652849185758, -37.796717481892664], ""type"": ""Point""}",0,14.59503731,215,Signage,Sign - Public Transport,40643,,565421,,Sign - Public Transport 1 Panel,1249762,20907,,P.16
1463005,21,"-37.80136463912211, 144.91440645303163",Sign - Public Transport 1 Panel Bus Stop Type 3,,,,-37.80136464,144.91440645303163,,,,1,1,0,,,,,,"{""coordinates"": [144.91440645303163, -37.80136463912211], ""type"": ""Point""}",0,9.33443244,19,Signage,Sign - Public Transport,41465,,654920,,Sign - Public Transport 1 Panel,1463005,21683,,P.16
1234772,21,"-37.79582851441957, 144.94131248652099",Sign - Public Transport 1 Panel Bus Stop Type 12,,,,-37.79582851,144.94131248652099,,,,1,1,0,,,,,,"{""coordinates"": [144.94131248652099, -37.79582851441957], ""type"": ""Point""}",0,23.9508819,78,Signage,Sign - Public Transport,42403,,617311,,Sign - Public Transport 1 Panel,1234772,21324,,P.16
1253308,21,"-37.83302599574912, 144.97445042981525",Sign - Public Transport 1 Panel Bus Stop Type 8,,,,-37.833026,144.97445042981525,,,,1,1,0,,,,,,"{""coordinates"": [144.97445042981525, -37.83302599574912], ""type"": ""Point""}",0,0,0,Signage,Sign - Public Transport,42804,,0,,Sign - Public Transport 1 Panel,1253308,22708,,P.16
1244896,21,"-37.82467809093513, 144.90658328970764",Sign - Public Transport 1 Panel Bus Stop Type 3,,,,-37.82467809,144.90658328970764,,,,1,1,0,,,,,,"{""coordinates"": [144.90658328970764, -37.82467809093513], ""type"": ""Point""}",0,5.52892684,283,Signage,Sign - Public Transport,43206,,570827,,Sign - Public Transport 1 Panel,1244896,22168,,P.16
1240253,21,"-37.80516590907756, 144.9660313973566",Sign - Public Transport 1 Panel Bus Stop Type 3,,,,-37.80516591,144.9660313973566,,,,1,1,0,,,,,,"{""coordinates"": [144.9660313973566, -37.80516590907756], ""type"": ""Point""}",0,13.87881868,251,Signage,Sign - Public Transport,43543,,521664,,Sign - Public Transport 1 Panel,1240253,20522,,P.16
1245203,21,"-37.82089888130361, 144.92152824708276",Sign - Public Transport 1 Panel Bus Stop Type 3,,,,-37.82089888,144.92152824708276,,,,1,1,0,,,,,,"{""coordinates"": [144.92152824708276, -37.82089888130361], ""type"": ""Point""}",0,25.74692665,352,Signage,Sign - Public Transport,43642,,589044,,Sign - Public Transport 1 Panel,1245203,22156,,P.16
1268402,21,"-37.818314889062094, 144.956839508202",Sign - Public Transport 1 Panel Bus Stop Type 8,,,,-37.81831489,144.9568395,,,,1,1,0,,,,,,"{""coordinates"": [144.956839508202, -37.818314889062094], ""type"": ""Point""}",0,35.87798434,285,Signage,Sign - Public Transport,44101,,105393,,Sign - Public Transport 1 Panel,1268402,20118,,P.16
1246970,21,"-37.81888176511253, 144.95412220092587",Sign - Public Transport 1 Panel Bus Stop Type 8,,,,-37.81888177,144.95412220092587,,,,1,1,0,,,,,,"{""coordinates"": [144.95412220092587, -37.81888176511253], ""type"": ""Point""}",0,14.34503015,58,Signage,Sign - Public Transport,22674,,579287,,Sign - Public Transport 1 Panel,1246970,20071,,P.16
1235525,21,"-37.79706577834771, 144.9224359882637",Sign - Public Transport 1 Panel Bus Stop Type 12,,,,-37.79706578,144.9224359882637,,,,1,1,0,,,,,,"{""coordinates"": [144.9224359882637, -37.79706577834771], ""type"": ""Point""}",0,2.93490477,152,Signage,Sign - Public Transport,22943,,111424,,Sign - Public Transport 1 Panel,1235525,21844,,P.16
1252307,21,"-37.792410297921826, 144.95854327429197",Sign - Public Transport 1 Panel Bus Stop Type 8,,,,-37.7924103,144.95854327429197,,,,1,1,0,,,,,,"{""coordinates"": [144.95854327429197, -37.792410297921826], ""type"": ""Point""}",0,57.00969655,177,Signage,Sign - Public Transport,27861,,515020,,Sign - Public Transport 1 Panel,1252307,22372,,P.16
1244962,21,"-37.821119897739464, 144.91851629868225",Sign - Public Transport 1 Panel Bus Stop Type 3,,,,-37.8211199,144.91851629868225,,,,1,1,0,,,,,,"{""coordinates"": [144.91851629868225, -37.821119897739464], ""type"": ""Point""}",0,8.35595267,225,Signage,Sign - Public Transport,28604,,110512,,Sign - Public Transport 1 Panel,1244962,22162,,P.16
1252702,21,"-37.81172390817975, 144.95668033737152",Sign - Public Transport 1 Panel Bus Stop Type 8,,,,-37.81172391,144.95668033737152,,,,1,1,0,,,,,,"{""coordinates"": [144.95668033737152, -37.81172390817975], ""type"": ""Point""}",0,16.06194587,260,Signage,Sign - Public Transport,28872,,110759,,Sign - Public Transport 1 Panel,1252702,22615,,P.16
1479417,21,"-37.80067995380995, 144.96981348058867",Sign - Public Transport 1 Panel Bus Stop Type 3,,,,-37.80067995,144.96981348058867,,,,1,1,0,,,,,,"{""coordinates"": [144.96981348058867, -37.80067995380995], ""type"": ""Point""}",0,5.58301084,149,Signage,Sign - Public Transport,31576,,528486,,Sign - Public Transport 1 Panel,1479417,20561,,P.16
1581811,21,"-37.798900728955765, 144.94922621224848",Sign - Public Transport 1 Panel Bus Stop Type 1,,,,-37.79890073,144.94922621224848,,,,1,1,0,,,,,,"{""coordinates"": [144.94922621224848, -37.798900728955765], ""type"": ""Point""}",0,7.78996688,331,Signage,Sign - Public Transport,36903,,104577,,Sign - Public Transport 1 Panel,1581811,21148,,P.16
1271914,21,"-37.83316401267591, 144.97443745130263",Sign - Public Transport 1 Panel Bus Stop Type 8,,,,-37.83316401,144.97443745130263,,,,1,1,0,,,,,,"{""coordinates"": [144.97443745130263, -37.83316401267591], ""type"": ""Point""}",0,0,0,Signage,Sign - Public Transport,1029,,0,,Sign - Public Transport 1 Panel,1271914,22708,,P.16
1577059,21,"-37.79436108568101, 144.92998424529242",Sign - Public Transport 1 Panel Bus Stop Type 1,,,,-37.79436109,144.92998424529242,,,,1,1,0,,,,,,"{""coordinates"": [144.92998424529242, -37.79436108568101], ""type"": ""Point""}",0,3.10572182,112,Signage,Sign - Public Transport,1139,,616011,,Sign - Public Transport 1 Panel,1577059,21693,,P.16
1481028,21,"-37.817452093555325, 144.96168480565794",Sign - Public Transport 1 Panel Bus Stop Type 3,,,,-37.81745209,144.96168480565794,,,,1,1,0,,,,,,"{""coordinates"": [144.96168480565794, -37.817452093555325], ""type"": ""Point""}",0,7.23972603,268,Signage,Sign - Public Transport,1263,,527371,,Sign - Public Transport 1 Panel,1481028,20171,,P.16
1257184,21,"-37.80568178285169, 144.9538874178126",Sign - Public Transport 1 Panel Bus Stop Type 8,,,,-37.80568178,144.9538874178126,,,,1,1,0,,,,,,"{""coordinates"": [144.9538874178126, -37.80568178285169], ""type"": ""Point""}",0,13.19581543,295,Signage,Sign - Public Transport,6253,,533738,,Sign - Public Transport 1 Panel,1257184,20951,,P.16
1568360,21,"-37.81284286140822, 144.95705739709712",Sign - Public Transport 1 Panel Bus Stop Type 1,,,,-37.81284286,144.95705739709712,,,,1,1,0,,,,,,"{""coordinates"": [144.95705739709712, -37.81284286140822], ""type"": ""Point""}",0,24.10362334,104,Signage,Sign - Public Transport,7768,,110758,,Sign - Public Transport 1 Panel,1568360,20186,,P.16
1240004,21,"-37.82622493578387, 144.96073232156283",Sign - Public Transport 1 Panel Bus Stop Type 8,,,,-37.82622494,144.96073232156283,,,,1,1,0,,,,,,"{""coordinates"": [144.96073232156283, -37.82622493578387], ""type"": ""Point""}",0,36.61689529,251,Signage,Sign - Public Transport,8972,,110636,,Sign - Public Transport 1 Panel,1240004,22043,,P.16
1344568,21,"-37.82590463494035, 144.9222805585589",Sign - Public Transport 1 Panel Bus Stop Type 3,,,,-37.82590463,144.9222805585589,,,,1,1,0,,,,,,"{""coordinates"": [144.9222805585589, -37.82590463494035], ""type"": ""Point""}",0,0,0,Signage,Sign - Public Transport,14494,,0,,Sign - Public Transport 1 Panel,1344568,22149,,P.16
1247701,21,"-37.793085802097636, 144.97495851135966",Sign - Public Transport 1 Panel Bus Stop Type 11,,,,-37.7930858,144.97495851135966,,,,1,1,0,,,,,,"{""coordinates"": [144.97495851135966, -37.793085802097636], ""type"": ""Point""}",0,13.45065798,218,Signage,Sign - Public Transport,15742,,109095,,Sign - Public Transport 1 Panel,1247701,20627,,P.16
1575590,21,"-37.80000725498236, 144.96097934573706",Sign - Public Transport 1 Panel Bus Stop Type 1,,,,-37.80000725,144.96097934573706,,,,1,1,0,,,,,,"{""coordinates"": [144.96097934573706, -37.80000725498236], ""type"": ""Point""}",0,39.38772297,296,Signage,Sign - Public Transport,5005,,518481,,Sign - Public Transport 1 Panel,1575590,20461,,P.16
1236305,21,"-37.807815885141665, 144.91663837870203",Sign - Public Transport 1 Panel Bus Stop Type 11,,,,-37.80781589,144.91663837870203,,,,1,1,0,,,,,,"{""coordinates"": [144.91663837870203, -37.807815885141665], ""type"": ""Point""}",0,80.95956349,127,Signage,Sign - Public Transport,6298,,104048,,Sign - Public Transport 1 Panel,1236305,22443,,P.16
1232805,21,"-37.82500188553457, 144.95694945167727",Sign - Public Transport 1 Panel Bus Stop Type 8,,,,-37.82500189,144.95694945167727,,,,1,1,0,,,,,,"{""coordinates"": [144.95694945167727, -37.82500188553457], ""type"": ""Point""}",0,85.1697911,277,Signage,Sign - Public Transport,8264,,622450,,Sign - Public Transport 1 Panel,1232805,22454,,P.16
1249876,21,"-37.79859348300079, 144.94845845599968",Sign - Public Transport 1 Panel Bus Stop Type 12,,,,-37.79859348,144.94845845599968,,,,1,1,0,,,,,,"{""coordinates"": [144.94845845599968, -37.79859348300079], ""type"": ""Point""}",0,42.16823981,297,Signage,Sign - Public Transport,8970,,638970,,Sign - Public Transport 1 Panel,1249876,21168,,P.16
1575585,21,"-37.800561849475905, 144.96449089849344",Sign - Public Transport 1 Panel Bus Stop Type 1,,,,-37.80056185,144.96449089849344,,,,1,1,0,,,,,,"{""coordinates"": [144.96449089849344, -37.800561849475905], ""type"": ""Point""}",0,32.12911779,42,Signage,Sign - Public Transport,9175,,104469,,Sign - Public Transport 1 Panel,1575585,22506,,P.16
1233065,21,"-37.82168352630472, 144.96129766991564",Sign - Public Transport 1 Panel Bus Stop Type 8,,,,-37.82168353,144.96129766991564,,,,1,1,0,,,,,,"{""coordinates"": [144.96129766991564, -37.82168352630472], ""type"": ""Point""}",0,14.41924388,202,Signage,Sign - Public Transport,11741,,570575,,Sign - Public Transport 1 Panel,1233065,22563,,P.16
1253284,21,"-37.8338230491092, 144.9795143710974",Sign - Public Transport 1 Panel Bus Stop Type 8,,,,-37.83382305,144.9795143710974,,,,1,1,0,,,,,,"{""coordinates"": [144.9795143710974, -37.8338230491092], ""type"": ""Point""}",0,6.94297602,188,Signage,Sign - Public Transport,13242,,111370,,Sign - Public Transport 1 Panel,1253284,22225,,P.16
1579942,21,"-37.794769078965565, 144.92642079506638",Sign - Public Transport 1 Panel Bus Stop Type 1,,,,-37.79476908,144.92642079506638,,,,1,1,0,,,,,,"{""coordinates"": [144.92642079506638, -37.794769078965565], ""type"": ""Point""}",0,3.50447999,81,Signage,Sign - Public Transport,15553,,105257,,Sign - Public Transport 1 Panel,1579942,21686,,P.16
1240396,21,"-37.803343440196116, 144.9693670992385",Sign - Public Transport 1 Panel Bus Stop Type 3,,,,-37.80334344,144.9693670992385,,,,1,1,0,,,,,,"{""coordinates"": [144.9693670992385, -37.803343440196116], ""type"": ""Point""}",0,10.91445028,117,Signage,Sign - Public Transport,16758,,612989,,Sign - Public Transport 1 Panel,1240396,20556,,P.16
1344528,21,"-37.81570404359276, 144.96116717702685",Sign - Public Transport 1 Panel Bus Stop Type 11,,,,-37.81570404,144.96116717702685,,,,1,1,0,,,,,,"{""coordinates"": [144.96116717702685, -37.81570404359276], ""type"": ""Point""}",0,9.31682891,317,Signage,Sign - Public Transport,22937,,527822,,Sign - Public Transport 1 Panel,1344528,20173,,P.16
1252744,21,"-37.81105987177411, 144.95869339408225",Sign - Public Transport 1 Panel Bus Stop Type 8,,,,-37.81105987,144.95869339408225,,,,1,1,0,,,,,,"{""coordinates"": [144.95869339408225, -37.81105987177411], ""type"": ""Point""}",0,31.78757985,239,Signage,Sign - Public Transport,26735,,577288,,Sign - Public Transport 1 Panel,1252744,20026,,P.16
1257193,21,"-37.80551491970227, 144.9523962734518",Sign - Public Transport 1 Panel Bus Stop Type 8,,,,-37.80551492,144.9523962734518,,,,1,1,0,,,,,,"{""coordinates"": [144.9523962734518, -37.80551491970227], ""type"": ""Point""}",0,11.36276208,266,Signage,Sign - Public Transport,31129,,517080,,Sign - Public Transport 1 Panel,1257193,20960,,P.16
1236369,21,"-37.80690391858625, 144.91162832730802",Sign - Public Transport 1 Panel Bus Stop Type 11,,,,-37.80690392,144.91162832730802,,,,1,1,0,,,,,,"{""coordinates"": [144.91162832730802, -37.80690391858625], ""type"": ""Point""}",0,56.19476538,158,Signage,Sign - Public Transport,33030,,104052,,Sign - Public Transport 1 Panel,1236369,22442,,P.16
1244899,21,"-37.82453811405424, 144.90656156970934",Sign - Public Transport 1 Panel Bus Stop Type 3,,,,-37.82453811,144.90656156970934,,,,1,1,0,,,,,,"{""coordinates"": [144.90656156970934, -37.82453811405424], ""type"": ""Point""}",0,21.17097381,279,Signage,Sign - Public Transport,34368,,570827,,Sign - Public Transport 1 Panel,1244899,22168,,P.16
1251669,21,"-37.80496835121376, 144.94935083669122",Sign - Public Transport 1 Panel Bus Stop Type 8,,,,-37.80496835,144.94935083669122,,,,1,1,0,,,,,,"{""coordinates"": [144.94935083669122, -37.80496835121376], ""type"": ""Point""}",0,9.4436089,4,Signage,Sign - Public Transport,36112,,512269,,Sign - Public Transport 1 Panel,1251669,20992,,P.16
1239357,21,"-37.82627995778155, 144.97118333863307",Sign - Public Transport 1 Panel Bus Stop Type 11,,,,-37.82627996,144.97118333863307,,,,1,1,0,,,,,,"{""coordinates"": [144.97118333863307, -37.82627995778155], ""type"": ""Point""}",0,74.05770302,326,Signage,Sign - Public Transport,37971,,111024,,Sign - Public Transport 1 Panel,1239357,22702,,P.16
1234022,21,"-37.79270227455465, 144.95831424644234",Sign - Public Transport 1 Panel Bus Stop Type 8,,,,-37.79270227,144.95831424644234,,,,1,1,0,,,,,,"{""coordinates"": [144.95831424644234, -37.79270227455465], ""type"": ""Point""}",0,34.40210408,222,Signage,Sign - Public Transport,38641,,108487,,Sign - Public Transport 1 Panel,1234022,22372,,P.16
1240744,21,"-37.79898487483806, 144.96733940321963",Sign - Public Transport 1 Panel Bus Stop Type 3,,,,-37.79898487,144.96733940321963,,,,1,1,0,,,,,,"{""coordinates"": [144.96733940321963, -37.79898487483806], ""type"": ""Point""}",0,5.91725485,357,Signage,Sign - Public Transport,42233,,106200,,Sign - Public Transport 1 Panel,1240744,20532,,P.16
1575501,21,"-37.800456485496696, 144.96510004696515",Sign - Public Transport 1 Panel Bus Stop Type 1,,,,-37.80045649,144.96510004696515,,,,1,1,0,,,,,,"{""coordinates"": [144.96510004696515, -37.800456485496696], ""type"": ""Point""}",0,28.06452572,292,Signage,Sign - Public Transport,12890,,597172,,Sign - Public Transport 1 Panel,1575501,22506,,P.16
1252413,21,"-37.790034182492505, 144.95863808667602",Sign - Public Transport 1 Panel Bus Stop Type 8,,,,-37.79003418,144.95863808667602,,,,1,1,0,,,,,,"{""coordinates"": [144.95863808667602, -37.790034182492505], ""type"": ""Point""}",0,21.00980919,175,Signage,Sign - Public Transport,13187,,529024,,Sign - Public Transport 1 Panel,1252413,22374,,P.16
1545853,21,"-37.8047924247435, 144.969120352164",Sign - Public Transport 1 Panel Bus Stop Type 3,,,,-37.80479242,144.9691204,,,,1,1,0,,,,,,"{""coordinates"": [144.969120352164, -37.8047924247435], ""type"": ""Point""}",0,5.69670571,226,Signage,Sign - Public Transport,20050,,633312,,Sign - Public Transport 1 Panel,1545853,20556,,P.16
1245081,21,"-37.822473896289935, 144.92102531585414",Sign - Public Transport 1 Panel Bus Stop Type 3,,,,-37.8224739,144.92102531585414,,,,1,1,0,,,,,,"{""coordinates"": [144.92102531585414, -37.822473896289935], ""type"": ""Point""}",0,29.14846488,340,Signage,Sign - Public Transport,27899,,605711,,Sign - Public Transport 1 Panel,1245081,22159,,P.16
1244795,21,"-37.827796021172645, 144.90881358787925",Sign - Public Transport 1 Panel Bus Stop Type 3,,,,-37.82779602,144.90881358787925,,,,1,1,0,,,,,,"{""coordinates"": [144.90881358787925, -37.827796021172645], ""type"": ""Point""}",0,21.27898891,91,Signage,Sign - Public Transport,28960,,586084,,Sign - Public Transport 1 Panel,1244795,22170,,P.16
1237092,21,"-37.81353897396532, 144.95728334230756",Sign - Public Transport 1 Panel Bus Stop Type 8,,,,-37.81353897,144.95728334230756,,,,1,1,0,,,,,,"{""coordinates"": [144.95728334230756, -37.81353897396532], ""type"": ""Point""}",0,42.17718722,207,Signage,Sign - Public Transport,640,,543382,,Sign - Public Transport 1 Panel,1237092,20186,,P.16
1245221,21,"-37.82146476463953, 144.9303191551562",Sign - Public Transport 1 Panel Bus Stop Type 3,,,,-37.82146476,144.9303191551562,,,,1,1,0,,,,,,"{""coordinates"": [144.9303191551562, -37.82146476463953], ""type"": ""Point""}",0,32.18066371,298,Signage,Sign - Public Transport,2527,,110521,,Sign - Public Transport 1 Panel,1245221,30638,,P.16
1253565,21,"-37.812490976626215, 144.95370614040704",Sign - Public Transport 1 Panel Bus Stop Type 8,,,,-37.81249098,144.95370614040704,,,,1,1,0,,,,,,"{""coordinates"": [144.95370614040704, -37.812490976626215], ""type"": ""Point""}",0,16.14376437,99,Signage,Sign - Public Transport,5111,,602160,,Sign - Public Transport 1 Panel,1253565,20030,,P.16
1253494,21,"-37.81046893573314, 144.95002330947514",Sign - Public Transport 1 Panel Bus Stop Type 11,,,,-37.81046894,144.95002330947514,,,,1,1,0,,,,,,"{""coordinates"": [144.95002330947514, -37.81046893573314], ""type"": ""Point""}",0,9.84831407,130,Signage,Sign - Public Transport,6308,,608842,,Sign - Public Transport 1 Panel,1253494,21486,,P.16
1256981,21,"-37.80868206462129, 144.94871799084606",Sign - Public Transport 1 Panel Bus Stop Type 13,,,,-37.80868206,144.94871799084606,,,,1,1,0,,,,,,"{""coordinates"": [144.94871799084606, -37.80868206462129], ""type"": ""Point""}",0,3.71203798,253,Signage,Sign - Public Transport,11572,,108865,,Sign - Public Transport 1 Panel,1256981,21423,,P.16
1448084,21,"-37.80936279878404, 144.95558831833387",Sign - Public Transport 1 Panel Bus Stop Type 3,,,,-37.8093628,144.95558831833387,,,,1,1,0,,,,,,"{""coordinates"": [144.95558831833387, -37.80936279878404], ""type"": ""Point""}",0,41.78250894,65,Signage,Sign - Public Transport,12010,,514908,,Sign - Public Transport 1 Panel,1448084,21528,,P.16
1234089,21,"-37.79382711275603, 144.9712669861909",Sign - Public Transport 1 Panel Bus Stop Type 3,,,,-37.79382711,144.9712669861909,,,,1,1,0,,,,,,"{""coordinates"": [144.9712669861909, -37.79382711275603], ""type"": ""Point""}",0,3.80221475,321,Signage,Sign - Public Transport,12205,,108220,,Sign - Public Transport 1 Panel,1234089,20639,,P.16
1579425,21,"-37.80047456029286, 144.91681504215674",Sign - Public Transport 1 Panel Bus Stop Type 1,,,,-37.80047456,144.91681504215674,,,,1,1,0,,,,,,"{""coordinates"": [144.91681504215674, -37.80047456029286], ""type"": ""Point""}",0,4.80210839,8,Signage,Sign - Public Transport,12390,,105224,,Sign - Public Transport 1 Panel,1579425,21843,,P.16
1579415,21,"-37.80357727969363, 144.93206072785097",Sign - Public Transport 1 Panel Bus Stop Type 1,,,,-37.80357728,144.93206072785097,,,,1,1,0,,,,,,"{""coordinates"": [144.93206072785097, -37.80357727969363], ""type"": ""Point""}",0,53.3591988,147,Signage,Sign - Public Transport,12777,,103008,,Sign - Public Transport 1 Panel,1579415,21675,,P.16
1345095,21,"-37.81916651372429, 144.96197776773317",Sign - Public Transport 1 Panel Bus Stop Type 12,,,,-37.81916651,144.96197776773317,,,,1,1,0,,,,,,"{""coordinates"": [144.96197776773317, -37.81916651372429], ""type"": ""Point""}",0,8.68293188,289,Signage,Sign - Public Transport,12946,,639652,,Sign - Public Transport 1 Panel,1345095,20218,,P.16
1240329,21,"-37.80256698905951, 144.96650544429707",Sign - Public Transport 1 Panel Bus Stop Type 3,,,,-37.80256699,144.96650544429707,,,,1,1,0,,,,,,"{""coordinates"": [144.96650544429707, -37.80256698905951], ""type"": ""Point""}",0,24.94990559,346,Signage,Sign - Public Transport,13491,,627268,,Sign - Public Transport 1 Panel,1240329,20528,,P.16
1239404,21,"-37.82480198399865, 144.97076232908503",Sign - Public Transport 1 Panel Bus Stop Type 8,,,,-37.82480198,144.97076232908503,,,,1,1,0,,,,,,"{""coordinates"": [144.97076232908503, -37.82480198399865], ""type"": ""Point""}",0,26.35338346,200,Signage,Sign - Public Transport,15210,,540076,,Sign - Public Transport 1 Panel,1239404,22466,,P.16
1252331,21,"-37.78766752944717, 144.95913336071771",Sign - Public Transport 1 Panel Bus Stop Type 8,,,,-37.78766753,144.95913336071771,,,,1,1,0,,,,,,"{""coordinates"": [144.95913336071771, -37.78766752944717], ""type"": ""Point""}",0,53.92558496,132,Signage,Sign - Public Transport,20790,,529045,,Sign - Public Transport 1 Panel,1252331,22433,,P.16
1236808,21,"-37.815867567322975, 144.95824209522883",Sign - Public Transport 1 Panel Bus Stop Type 8,,,,-37.81586757,144.95824209522883,,,,1,1,0,,,,,,"{""coordinates"": [144.95824209522883, -37.815867567322975], ""type"": ""Point""}",0,63.64203904,94,Signage,Sign - Public Transport,21874,,548056,,Sign - Public Transport 1 Panel,1236808,20183,,P.16
1245224,21,"-37.82158676896336, 144.9299851550984",Sign - Public Transport 1 Panel Bus Stop Type 3,,,,-37.82158677,144.9299851550984,,,,1,1,0,,,,,,"{""coordinates"": [144.9299851550984, -37.82158676896336], ""type"": ""Point""}",0,6.0340097,200,Signage,Sign - Public Transport,25432,,110520,,Sign - Public Transport 1 Panel,1245224,22158,,P.16
1560832,21,"-37.81807935853138, 144.96572070652604",Sign - Public Transport 1 Panel Bus Stop Type 1,,,,-37.81807936,144.96572070652604,,,,1,1,0,,,,,,"{""coordinates"": [144.96572070652604, -37.81807935853138], ""type"": ""Point""}",0,28.00392951,126,Signage,Sign - Public Transport,26488,,604383,,Sign - Public Transport 1 Panel,1560832,20214,,P.16
1241410,21,"-37.797718982545234, 144.97371355429843",Sign - Public Transport 1 Panel Bus Stop Type 3,,,,-37.79771898,144.97371355429843,,,,1,1,0,,,,,,"{""coordinates"": [144.97371355429843, -37.797718982545234], ""type"": ""Point""}",0,27.13230305,262,Signage,Sign - Public Transport,26637,,103056,,Sign - Public Transport 1 Panel,1241410,20597,,P.16
1245321,21,"-37.817826903011145, 144.95914143862726",Sign - Public Transport 1 Panel Bus Stop Type 8,,,,-37.8178269,144.95914143862726,,,,1,1,0,,,,,,"{""coordinates"": [144.95914143862726, -37.817826903011145], ""type"": ""Point""}",0,37.0409387,135,Signage,Sign - Public Transport,26870,,507646,,Sign - Public Transport 1 Panel,1245321,20181,,P.16
1477822,21,"-37.81441952750176, 144.9544447576371",Sign - Public Transport 1 Panel Bus Stop Type 8,,,,-37.81441953,144.9544447576371,,,,1,1,0,,,,,,"{""coordinates"": [144.9544447576371, -37.81441952750176], ""type"": ""Point""}",0,32.15648272,259,Signage,Sign - Public Transport,26969,,105716,,Sign - Public Transport 1 Panel,1477822,20014,,P.16
1237229,21,"-37.81101801255496, 144.95912232576214",Sign - Public Transport 1 Panel Bus Stop Type 8,,,,-37.81101801,144.95912232576214,,,,1,1,0,,,,,,"{""coordinates"": [144.95912232576214, -37.81101801255496], ""type"": ""Point""}",0,21.70019438,280,Signage,Sign - Public Transport,27098,,527567,,Sign - Public Transport 1 Panel,1237229,20024,,P.16
1576816,21,"-37.799222676258466, 144.95073019282864",Sign - Public Transport 1 Panel Bus Stop Type 1,,,,-37.79922268,144.95073019282864,,,,1,1,0,,,,,,"{""coordinates"": [144.95073019282864, -37.799222676258466], ""type"": ""Point""}",0,53.80754171,331,Signage,Sign - Public Transport,30396,,508949,,Sign - Public Transport 1 Panel,1576816,22684,,P.16
1249845,21,"-37.79836645634628, 144.94459154393613",Sign - Public Transport 1 Panel Bus Stop Type 12,,,,-37.79836646,144.94459154393613,,,,1,1,0,,,,,,"{""coordinates"": [144.94459154393613, -37.79836645634628], ""type"": ""Point""}",0,33.08519101,348,Signage,Sign - Public Transport,35336,,104584,,Sign - Public Transport 1 Panel,1249845,21166,,P.16
1251360,21,"-37.800676522454324, 144.94582553723103",Sign - Public Transport 1 Panel Bus Stop Type 8,,,,-37.80067652,144.94582553723103,,,,1,1,0,,,,,,"{""coordinates"": [144.94582553723103, -37.800676522454324], ""type"": ""Point""}",0,23.36010884,320,Signage,Sign - Public Transport,36745,,100115,,Sign - Public Transport 1 Panel,1251360,22681,,P.16
1252698,21,"-37.81157690963881, 144.9563833753157",Sign - Public Transport 1 Panel Bus Stop Type 8,,,,-37.81157691,144.9563833753157,,,,1,1,0,,,,,,"{""coordinates"": [144.9563833753157, -37.81157690963881], ""type"": ""Point""}",0,16.46017017,70,Signage,Sign - Public Transport,37251,,644826,,Sign - Public Transport 1 Panel,1252698,21519,,P.16
1370844,21,"-37.79520927466022, 144.92595354542772",Sign - Public Transport 1 Panel Bus Stop Type 12,,,,-37.79520927,144.92595354542772,,,,1,1,0,,,,,,"{""coordinates"": [144.92595354542772, -37.79520927466022], ""type"": ""Point""}",0,18.31076645,141,Signage,Sign - Public Transport,37666,,105248,,Sign - Public Transport 1 Panel,1370844,21749,,P.16
1248528,21,"-37.801527048931604, 144.9567967131992",Sign - Public Transport 1 Panel Bus Stop Type 8,,,,-37.80152705,144.9567967131992,,,,1,1,0,,,,,,"{""coordinates"": [144.9567967131992, -37.801527048931604], ""type"": ""Point""}",0,24.91047603,173,Signage,Sign - Public Transport,37802,,107520,,Sign - Public Transport 1 Panel,1248528,20594,,P.16
1370992,21,"-37.79820340709036, 144.92045435450206",Sign - Public Transport 1 Panel Bus Stop Type 12,,,,-37.79820341,144.92045435450206,,,,1,1,0,,,,,,"{""coordinates"": [144.92045435450206, -37.79820340709036], ""type"": ""Point""}",0,2.34400704,133,Signage,Sign - Public Transport,40964,,569239,,Sign - Public Transport 1 Panel,1370992,21845,,P.16
1579414,21,"-37.803251103562474, 144.92985291146388",Sign - Public Transport 1 Panel Bus Stop Type 1,,,,-37.8032511,144.92985291146388,,,,1,1,0,,,,,,"{""coordinates"": [144.92985291146388, -37.803251103562474], ""type"": ""Point""}",0,24.64426045,100,Signage,Sign - Public Transport,43908,,103003,,Sign - Public Transport 1 Panel,1579414,21675,,P.16
1576818,21,"-37.79987669561117, 144.9500539642789",Sign - Public Transport 1 Panel Bus Stop Type 1,,,,-37.7998767,144.9500539642789,,,,1,1,0,,,,,,"{""coordinates"": [144.9500539642789, -37.79987669561117], ""type"": ""Point""}",0,5.4150398,226,Signage,Sign - Public Transport,44096,,103446,,Sign - Public Transport 1 Panel,1576818,21176,,P.16
1233069,21,"-37.822043457134946, 144.9612717467519",Sign - Public Transport 1 Panel Bus Stop Type 8,,,,-37.82204346,144.9612717467519,,,,1,1,0,,,,,,"{""coordinates"": [144.9612717467519, -37.822043457134946], ""type"": ""Point""}",0,21.87089283,48,Signage,Sign - Public Transport,44103,,108040,,Sign - Public Transport 1 Panel,1233069,22184,,P.16
1235311,21,"-37.80286165064241, 144.92778487963457",Sign - Public Transport 1 Panel Bus Stop Type 13,,,,-37.80286165,144.92778487963457,,,,1,1,0,,,,,,"{""coordinates"": [144.92778487963457, -37.80286165064241], ""type"": ""Point""}",0,67.71855285,360,Signage,Sign - Public Transport,3306,,103002,,Sign - Public Transport 1 Panel,1235311,21680,,P.16
1239919,21,"-37.825617941052066, 144.96024538933693",Sign - Public Transport 1 Panel Bus Stop Type 3,,,,-37.82561794,144.96024538933693,,,,1,1,0,,,,,,"{""coordinates"": [144.96024538933693, -37.825617941052066], ""type"": ""Point""}",0,27.9777498,81,Signage,Sign - Public Transport,3416,,108053,,Sign - Public Transport 1 Panel,1239919,22042,,P.16
1239562,21,"-37.82375108048519, 144.96722832469055",Sign - Public Transport 1 Panel Bus Stop Type 8,,,,-37.82375108,144.96722832469055,,,,1,1,0,,,,,,"{""coordinates"": [144.96722832469055, -37.82375108048519], ""type"": ""Point""}",0,24.45502112,231,Signage,Sign - Public Transport,5935,,567779,,Sign - Public Transport 1 Panel,1239562,22121,,P.16
1238690,21,"-37.80945090290274, 144.95544640306295",Sign - Public Transport 1 Panel Bus Stop Type 8,,,,-37.8094509,144.95544640306295,,,,1,1,0,,,,,,"{""coordinates"": [144.95544640306295, -37.80945090290274], ""type"": ""Point""}",0,55.72755559,72,Signage,Sign - Public Transport,8096,,580931,,Sign - Public Transport 1 Panel,1238690,21528,,P.16
1234690,21,"-37.79905748382394, 144.93989360176752",Sign - Public Transport 1 Panel Bus Stop Type 5,,,,-37.79905748,144.93989360176752,,,,1,1,0,,,,,,"{""coordinates"": [144.93989360176752, -37.79905748382394], ""type"": ""Point""}",0,89.61471514,138,Signage,Sign - Public Transport,11651,,104492,,Sign - Public Transport 1 Panel,1234690,21297,,P.16
1370761,21,"-37.79085700678597, 144.92008961006658",Sign - Public Transport 1 Panel Bus Stop Type 3,,,,-37.79085701,144.92008961006658,,,,1,1,0,,,,,,"{""coordinates"": [144.92008961006658, -37.79085700678597], ""type"": ""Point""}",0,67.5880428,284,Signage,Sign - Public Transport,12481,,106847,,Sign - Public Transport 1 Panel,1370761,22790,,P.16
1255236,21,"-37.84881806234022, 144.98441939922859",Sign - Public Transport 1 Panel Bus Stop Type 3,,,,-37.84881806,144.98441939922859,,,,1,1,0,,,,,,"{""coordinates"": [144.98441939922859, -37.84881806234022], ""type"": ""Point""}",0,0,0,Signage,Sign - Public Transport,13548,,0,,Sign - Public Transport 1 Panel,1255236,22480,,P.16
1247820,21,"-37.79262854511814, 144.9682820983283",Sign - Public Transport 1 Panel Bus Stop Type 8,,,,-37.79262855,144.9682820983283,,,,1,1,0,,,,,,"{""coordinates"": [144.9682820983283, -37.79262854511814], ""type"": ""Point""}",0,19.15980501,348,Signage,Sign - Public Transport,14196,,555950,,Sign - Public Transport 1 Panel,1247820,20540,,P.16
1260438,21,"-37.80231431723276, 144.96676746744464",Sign - Public Transport 1 Panel Bus Stop Type 11,,,,-37.80231432,144.96676746744464,,,,1,1,0,,,,,,"{""coordinates"": [144.96676746744464, -37.80231431723276], ""type"": ""Point""}",0,5.70821032,360,Signage,Sign - Public Transport,14622,,627281,,Sign - Public Transport 1 Panel,1260438,20528,,P.16
1233165,21,"-37.8006162471606, 144.9665441831767",Sign - Public Transport 1 Panel Bus Stop Type 12,,,,-37.80061625,144.9665441831767,,,,1,1,0,,,,,,"{""coordinates"": [144.9665441831767, -37.8006162471606], ""type"": ""Point""}",0,11.23104145,140,Signage,Sign - Public Transport,15525,,545460,,Sign - Public Transport 1 Panel,1233165,20757,,P.16
1240886,21,"-37.79776685417041, 144.97031833233382",Sign - Public Transport 1 Panel Bus Stop Type 3,,,,-37.79776685,144.97031833233382,,,,1,1,0,,,,,,"{""coordinates"": [144.97031833233382, -37.79776685417041], ""type"": ""Point""}",0,19.03739399,101,Signage,Sign - Public Transport,19576,,103091,,Sign - Public Transport 1 Panel,1240886,20563,,P.16
1236313,21,"-37.80752888103373, 144.91363137005712",Sign - Public Transport 1 Panel Bus Stop Type 11,,,,-37.80752888,144.91363137005712,,,,1,1,0,,,,,,"{""coordinates"": [144.91363137005712, -37.80752888103373], ""type"": ""Point""}",0,66.68350924,106,Signage,Sign - Public Transport,20953,,104045,,Sign - Public Transport 1 Panel,1236313,22442,,P.16
1238871,21,"-37.810346877102674, 144.96112338314163",Sign - Public Transport 1 Panel Bus Stop Type 8,,,,-37.81034688,144.96112338314163,,,,1,1,0,,,,,,"{""coordinates"": [144.96112338314163, -37.810346877102674], ""type"": ""Point""}",0,16.41454879,161,Signage,Sign - Public Transport,20994,,660997,,Sign - Public Transport 1 Panel,1238871,20024,,P.16
1243850,21,"-37.799621670449625, 144.95568431062944",Sign - Public Transport 1 Panel Bus Stop Type 12,,,,-37.79962167,144.95568431062944,,,,1,1,0,,,,,,"{""coordinates"": [144.95568431062944, -37.799621670449625], ""type"": ""Point""}",0,73.19158958,228,Signage,Sign - Public Transport,21274,,103813,,Sign - Public Transport 1 Panel,1243850,21552,,P.16
1235277,21,"-37.802167832666704, 144.92008136652066",Sign - Public Transport 1 Panel Bus Stop Type 13,,,,-37.80216783,144.92008136652066,,,,1,1,0,,,,,,"{""coordinates"": [144.92008136652066, -37.802167832666704], ""type"": ""Point""}",0,44.65559859,182,Signage,Sign - Public Transport,22493,,102993,,Sign - Public Transport 1 Panel,1235277,21680,,P.16
1236804,21,"-37.817622931042806, 144.95934733314024",Sign - Public Transport 1 Panel Bus Stop Type 8,,,,-37.81762293,144.95934733314024,,,,1,1,0,,,,,,"{""coordinates"": [144.95934733314024, -37.817622931042806], ""type"": ""Point""}",0,19.75039184,99,Signage,Sign - Public Transport,23793,,102122,,Sign - Public Transport 1 Panel,1236804,22612,,P.16
1249933,21,"-37.79862363935187, 144.9467915427181",Sign - Public Transport 1 Panel Bus Stop Type 12,,,,-37.79862364,144.9467915427181,,,,1,1,0,,,,,,"{""coordinates"": [144.9467915427181, -37.79862363935187], ""type"": ""Point""}",0,27.65118958,79,Signage,Sign - Public Transport,26601,,516364,,Sign - Public Transport 1 Panel,1249933,21168,,P.16
1232702,21,"-37.825538170533164, 144.95708428770402",Sign - Public Transport 1 Panel Bus Stop Type 8,,,,-37.82553817,144.95708428770402,,,,1,1,0,,,,,,"{""coordinates"": [144.95708428770402, -37.825538170533164], ""type"": ""Point""}",0,25.28253381,265,Signage,Sign - Public Transport,27939,,622450,,Sign - Public Transport 1 Panel,1232702,22454,,P.16
1234750,21,"-37.795210432231336, 144.9362942830282",Sign - Public Transport 1 Panel Bus Stop Type 12,,,,-37.79521043,144.9362942830282,,,,1,1,0,,,,,,"{""coordinates"": [144.9362942830282, -37.795210432231336], ""type"": ""Point""}",0,18.1287082,75,Signage,Sign - Public Transport,29970,,633265,,Sign - Public Transport 1 Panel,1234750,21287,,P.16
1239717,21,"-37.82314198554255, 144.96463636128402",Sign - Public Transport 1 Panel Bus Stop Type 11,,,,-37.82314199,144.96463636128402,,,,1,1,0,,,,,,"{""coordinates"": [144.96463636128402, -37.82314198554255], ""type"": ""Point""}",0,34.57360473,212,Signage,Sign - Public Transport,30763,,557088,,Sign - Public Transport 1 Panel,1239717,22073,,P.16
1572477,21,"-37.80432561240479, 144.96947035841606",Sign - Public Transport 1 Panel Bus Stop Type 1,,,,-37.80432561,144.96947035841606,,,,1,1,0,,,,,,"{""coordinates"": [144.96947035841606, -37.80432561240479], ""type"": ""Point""}",0,29.46722145,197,Signage,Sign - Public Transport,31969,,528455,,Sign - Public Transport 1 Panel,1572477,20556,,P.16
1574565,21,"-37.79784952551261, 144.94139186459046",Sign - Public Transport 1 Panel Bus Stop Type 1,,,,-37.79784953,144.94139186459046,,,,1,1,0,,,,,,"{""coordinates"": [144.94139186459046, -37.79784952551261], ""type"": ""Point""}",0,33.07308528,8,Signage,Sign - Public Transport,35830,,522795,,Sign - Public Transport 1 Panel,1574565,21329,,P.16
1344518,21,"-37.823547652422064, 144.96847951664122",Sign - Public Transport 1 Panel Bus Stop Type 11,,,,-37.82354765,144.96847951664122,,,,1,1,0,,,,,,"{""coordinates"": [144.96847951664122, -37.823547652422064], ""type"": ""Point""}",0,0,0,Signage,Sign - Public Transport,36833,,0,,Sign - Public Transport 1 Panel,1344518,22080,,P.16
1250987,21,"-37.80294344100893, 144.94833854164688",Sign - Public Transport 1 Panel Bus Stop Type 8,,,,-37.80294344,144.94833854164688,,,,1,1,0,,,,,,"{""coordinates"": [144.94833854164688, -37.80294344100893], ""type"": ""Point""}",0,13.95688103,296,Signage,Sign - Public Transport,37146,,107926,,Sign - Public Transport 1 Panel,1250987,20999,,P.16
1245260,21,"-37.838256978951584, 144.9151365838097",Sign - Public Transport 1 Panel Bus Stop Type 3,,,,-37.83825698,144.9151365838097,,,,1,1,0,,,,,,"{""coordinates"": [144.9151365838097, -37.838256978951584], ""type"": ""Point""}",0,0,0,Signage,Sign - Public Transport,37617,,0,,Sign - Public Transport 1 Panel,1245260,22152,,P.16
1236357,21,"-37.807560935966926, 144.91815632059857",Sign - Public Transport 1 Panel Bus Stop Type 11,,,,-37.80756094,144.91815632059857,,,,1,1,0,,,,,,"{""coordinates"": [144.91815632059857, -37.807560935966926], ""type"": ""Point""}",0,14.67984639,75,Signage,Sign - Public Transport,37840,,514440,,Sign - Public Transport 1 Panel,1236357,22440,,P.16
1249790,21,"-37.794106459808795, 144.94708934299945",Sign - Public Transport 1 Panel Bus Stop Type 8,,,,-37.79410646,144.94708934299945,,,,1,1,0,,,,,,"{""coordinates"": [144.94708934299945, -37.794106459808795], ""type"": ""Point""}",0,18.82231189,179,Signage,Sign - Public Transport,38019,,100086,,Sign - Public Transport 1 Panel,1249790,21235,,P.16
1236802,21,"-37.81696691132416, 144.96133145497072",Sign - Public Transport 1 Panel Bus Stop Type 8,,,,-37.81696691,144.96133145497072,,,,1,1,0,,,,,,"{""coordinates"": [144.96133145497072, -37.81696691132416], ""type"": ""Point""}",0,26.55992118,177,Signage,Sign - Public Transport,39405,,507826,,Sign - Public Transport 1 Panel,1236802,20116,,P.16
1233956,21,"-37.795521349230825, 144.9581692891698",Sign - Public Transport 1 Panel Bus Stop Type 8,,,,-37.79552135,144.9581692891698,,,,1,1,0,,,,,,"{""coordinates"": [144.9581692891698, -37.795521349230825], ""type"": ""Point""}",0,39.14668738,171,Signage,Sign - Public Transport,40097,,108457,,Sign - Public Transport 1 Panel,1233956,22363,,P.16
1234035,21,"-37.79564535738303, 144.95795134835055",Sign - Public Transport 1 Panel Bus Stop Type 8,,,,-37.79564536,144.95795134835055,,,,1,1,0,,,,,,"{""coordinates"": [144.95795134835055, -37.79564535738303], ""type"": ""Point""}",0,22.21865455,158,Signage,Sign - Public Transport,40559,,108456,,Sign - Public Transport 1 Panel,1234035,22603,,P.16
1373482,21,"-37.81492845640428, 144.95267349910375",Sign - Public Transport 1 Panel Bus Stop Type 11,,,,-37.81492846,144.95267349910375,,,,1,1,0,,,,,,"{""coordinates"": [144.95267349910375, -37.81492845640428], ""type"": ""Point""}",0,27.72235502,305,Signage,Sign - Public Transport,42863,,110703,,Sign - Public Transport 1 Panel,1373482,20014,,P.16
1235918,21,"-37.78441375631167, 144.9182254956256",Sign - Public Transport 1 Panel Bus Stop Type 8,,,,-37.78441376,144.9182254956256,,,,1,1,0,,,,,,"{""coordinates"": [144.9182254956256, -37.78441375631167], ""type"": ""Point""}",0,48.49302512,131,Signage,Sign - Public Transport,44125,,613983,,Sign - Public Transport 1 Panel,1235918,23201,,P.16
1244570,21,"-37.78077459328419, 144.95138857277198",Sign - Public Transport 1 Panel Bus Stop Type 8,,,,-37.78077459,144.95138857277198,,,,1,1,0,,,,,,"{""coordinates"": [144.95138857277198, -37.78077459328419], ""type"": ""Point""}",107426,55.8251505,306,Signage,Sign - Public Transport,7176,,111342,,Sign - Public Transport 1 Panel,1244570,0,,P.16
1237106,21,"-37.811942864580594, 144.95642939829426",Sign - Public Transport 1 Panel Bus Stop Type 8,,,,-37.81194286,144.95642939829426,,,,1,1,0,,,,,,"{""coordinates"": [144.95642939829426, -37.811942864580594], ""type"": ""Point""}",0,20.7363648,26,Signage,Sign - Public Transport,7511,,110759,,Sign - Public Transport 1 Panel,1237106,20187,,P.16
1248838,21,"-37.8308611221107, 144.98773132067197",Sign - Public Transport 1 Panel Bus Stop Type 3,,,,-37.83086112,144.98773132067197,,,,1,1,0,,,,,,"{""coordinates"": [144.98773132067197, -37.8308611221107], ""type"": ""Point""}",0,18.44609056,164,Signage,Sign - Public Transport,7976,,111334,,Sign - Public Transport 1 Panel,1248838,22270,,P.16
1255117,21,"-37.841136944254906, 144.97738137656336",Sign - Public Transport 1 Panel Bus Stop Type 8,,,,-37.84113694,144.97738137656336,,,,1,1,0,,,,,,"{""coordinates"": [144.97738137656336, -37.841136944254906], ""type"": ""Point""}",0,60.55753669,82,Signage,Sign - Public Transport,13233,,545615,,Sign - Public Transport 1 Panel,1255117,22474,,P.16
1479415,21,"-37.80682386961907, 144.96904254818034",Sign - Public Transport 1 Panel Bus Stop Type 3,,,,-37.80682387,144.96904254818034,,,,1,1,0,,,,,,"{""coordinates"": [144.96904254818034, -37.80682386961907], ""type"": ""Point""}",0,36.15343504,132,Signage,Sign - Public Transport,21835,,108148,,Sign - Public Transport 1 Panel,1479415,20554,,P.16
1268450,21,"-37.81667022216065, 144.96132496344865",Sign - Public Transport 1 Panel Bus Stop Type 3,,,,-37.81667022,144.96132496344865,,,,1,1,0,,,,,,"{""coordinates"": [144.96132496344865, -37.81667022216065], ""type"": ""Point""}",0,21.09407353,122,Signage,Sign - Public Transport,23701,,527384,,Sign - Public Transport 1 Panel,1268450,20172,,P.16
1235927,21,"-37.78267580200046, 144.91666362113003",Sign - Public Transport 1 Panel Bus Stop Type 8,,,,-37.7826758,144.91666362113003,,,,1,1,0,,,,,,"{""coordinates"": [144.91666362113003, -37.78267580200046], ""type"": ""Point""}",0,0,0,Signage,Sign - Public Transport,27517,,0,,Sign - Public Transport 1 Panel,1235927,22526,,P.16
1244930,21,"-37.829554112192, 144.9010255967418",Sign - Public Transport 1 Panel Bus Stop Type 3,,,,-37.82955411,144.9010255967418,,,,1,1,0,,,,,,"{""coordinates"": [144.9010255967418, -37.829554112192], ""type"": ""Point""}",0,8.33871417,322,Signage,Sign - Public Transport,33860,,111216,,Sign - Public Transport 1 Panel,1244930,22168,,P.16
1569615,21,"-37.788531996187324, 144.93353392781896",Sign - Public Transport 1 Panel Bus Stop Type 11,,,,-37.788532,144.93353392781896,,,,1,1,0,,,,,,"{""coordinates"": [144.93353392781896, -37.788531996187324], ""type"": ""Point""}",0,16.54048663,314,Signage,Sign - Public Transport,34498,,619171,,Sign - Public Transport 1 Panel,1569615,23140,,P.16
1252894,21,"-37.81178098838014, 144.9561942988128",Sign - Public Transport 1 Panel Bus Stop Type 8,,,,-37.81178099,144.9561942988128,,,,1,1,0,,,,,,"{""coordinates"": [144.9561942988128, -37.81178098838014], ""type"": ""Point""}",0,40.68803565,348,Signage,Sign - Public Transport,35532,,110759,,Sign - Public Transport 1 Panel,1252894,20028,,P.16
1240772,21,"-37.79733528507864, 144.96751272850565",Sign - Public Transport 1 Panel Bus Stop Type 3,,,,-37.79733529,144.96751272850565,,,,2,1,0,,,,,,"{""coordinates"": [144.96751272850565, -37.79733528507864], ""type"": ""Point""}",0,14.94684087,183,Signage,Sign - Public Transport,35668,,521784,,Sign - Public Transport 1 Panel,1240772,20534,,P.16
1372123,21,"-37.818777568156314, 144.98186969479318",Sign - Public Transport 1 Panel Bus Stop Type 1,,,,-37.81877757,144.98186969479318,,,,2,1,0,,,,,,"{""coordinates"": [144.98186969479318, -37.818777568156314], ""type"": ""Point""}",110266,40.75558103,112,Signage,Sign - Public Transport,36148,,105145,,Sign - Public Transport 1 Panel,1372123,0,,P.16
1235552,21,"-37.80039992301755, 144.91665597967068",Sign - Public Transport 1 Panel Bus Stop Type 12,,,,-37.80039992,144.91665597967068,,,,2,1,0,,,,,,"{""coordinates"": [144.91665597967068, -37.80039992301755], ""type"": ""Point""}",0,9.09274969,201,Signage,Sign - Public Transport,36691,,628200,,Sign - Public Transport 1 Panel,1235552,21843,,P.16
1245480,21,"-37.81946791403019, 144.96111643458073",Sign - Public Transport 1 Panel Bus Stop Type 8,,,,-37.81946791,144.96111643458073,,,,2,1,0,,,,,,"{""coordinates"": [144.96111643458073, -37.81946791403019], ""type"": ""Point""}",0,46.67244465,8,Signage,Sign - Public Transport,37737,,513751,,Sign - Public Transport 1 Panel,1245480,20219,,P.16
1272266,21,"-37.82578298451381, 144.96669743933597",Sign - Public Transport 1 Panel Bus Stop Type 8,,,,-37.82578298,144.96669743933597,,,,2,1,0,,,,,,"{""coordinates"": [144.96669743933597, -37.82578298451381], ""type"": ""Point""}",0,18.61160337,156,Signage,Sign - Public Transport,40660,,110623,,Sign - Public Transport 1 Panel,1272266,22121,,P.16
1253845,21,"-37.81496421167442, 144.9523146850266",Sign - Public Transport 1 Panel Bus Stop Type 8,,,,-37.81496421,144.9523146850266,,,,2,1,0,,,,,,"{""coordinates"": [144.9523146850266, -37.81496421167442], ""type"": ""Point""}",0,25.38230139,242,Signage,Sign - Public Transport,40960,,611234,,Sign - Public Transport 1 Panel,1253845,20077,,P.16
1241059,21,"-37.79763449349572, 144.9709158095715",Sign - Public Transport 1 Panel Bus Stop Type 3,,,,-37.79763449,144.9709158095715,,,,2,1,0,,,,,,"{""coordinates"": [144.9709158095715, -37.79763449349572], ""type"": ""Point""}",0,2.64726141,258,Signage,Sign - Public Transport,42605,,511095,,Sign - Public Transport 1 Panel,1241059,20654,,P.16
1240745,21,"-37.79898487483806, 144.96733940321963",Sign - Public Transport 1 Panel Bus Stop Type 5,,,,-37.79898487,144.96733940321963,,,,2,1,0,,,,,,"{""coordinates"": [144.96733940321963, -37.79898487483806], ""type"": ""Point""}",0,5.91725485,357,Signage,Sign - Public Transport,42754,,106200,,Sign - Public Transport 1 Panel,1240745,20532,,P.16
1344536,21,"-37.81529037403164, 144.9606866865898",Sign - Public Transport 1 Panel Bus Stop Type 3,,,,-37.81529037,144.9606866865898,,,,2,1,0,,,,,,"{""coordinates"": [144.9606866865898, -37.81529037403164], ""type"": ""Point""}",0,44.09439435,176,Signage,Sign - Public Transport,42844,,544334,,Sign - Public Transport 1 Panel,1344536,20173,,P.16
1244983,21,"-37.82125387877901, 144.9163802885623",Sign - Public Transport 1 Panel Bus Stop Type 3,,,,-37.82125388,144.9163802885623,,,,2,1,0,,,,,,"{""coordinates"": [144.9163802885623, -37.82125387877901], ""type"": ""Point""}",0,39.08426314,21,Signage,Sign - Public Transport,43242,,627850,,Sign - Public Transport 1 Panel,1244983,30638,,P.16
1250659,21,"-37.79676938692483, 144.95134039251514",Sign - Public Transport 1 Panel Bus Stop Type 8,,,,-37.79676939,144.95134039251514,,,,2,1,0,,,,,,"{""coordinates"": [144.95134039251514, -37.79676938692483], ""type"": ""Point""}",0,32.27346068,265,Signage,Sign - Public Transport,519,,103829,,Sign - Public Transport 1 Panel,1250659,22312,,P.16
1255101,21,"-37.83831808208453, 144.9764223997089",Sign - Public Transport 1 Panel Bus Stop Type 13,,,,-37.83831808,144.9764223997089,,,,2,1,0,,,,,,"{""coordinates"": [144.9764223997089, -37.83831808208453], ""type"": ""Point""}",0,0,0,Signage,Sign - Public Transport,671,,0,,Sign - Public Transport 1 Panel,1255101,22472,,P.16
1252402,21,"-37.78793737975755, 144.95889110591565",Sign - Public Transport 1 Panel Bus Stop Type 8,,,,-37.78793738,144.95889110591565,,,,2,1,0,,,,,,"{""coordinates"": [144.95889110591565, -37.78793737975755], ""type"": ""Point""}",0,25.23462908,211,Signage,Sign - Public Transport,1986,,529044,,Sign - Public Transport 1 Panel,1252402,22434,,P.16
1245490,21,"-37.81925793836065, 144.96137134270353",Sign - Public Transport 1 Panel Bus Stop Type 8,,,,-37.81925794,144.96137134270353,,,,2,1,0,,,,,,"{""coordinates"": [144.96137134270353, -37.81925793836065], ""type"": ""Point""}",0,20.83965494,92,Signage,Sign - Public Transport,2172,,627343,,Sign - Public Transport 1 Panel,1245490,20218,,P.16
1577586,21,"-37.79968851043426, 144.9639691590254",Sign - Public Transport 1 Panel Bus Stop Type 1,,,,-37.79968851,144.9639691590254,,,,2,1,0,,,,,,"{""coordinates"": [144.9639691590254, -37.79968851043426], ""type"": ""Point""}",0,77.70795407,63,Signage,Sign - Public Transport,2661,,597993,,Sign - Public Transport 1 Panel,1577586,20490,,P.16
1254835,21,"-37.83823498213684, 144.98640745831867",Sign - Public Transport 1 Panel Bus Stop Type 8,,,,-37.83823498,144.98640745831867,,,,2,1,0,,,,,,"{""coordinates"": [144.98640745831867, -37.83823498213684], ""type"": ""Point""}",0,40.03267327,80,Signage,Sign - Public Transport,3218,,107815,,Sign - Public Transport 1 Panel,1254835,22221,,P.16
1579790,21,"-37.792870646661946, 144.9582953024578",Sign - Public Transport 1 Panel Bus Stop Type 1,,,,-37.79287065,144.9582953024578,,,,2,1,0,,,,,,"{""coordinates"": [144.9582953024578, -37.792870646661946], ""type"": ""Point""}",0,24.74038894,190,Signage,Sign - Public Transport,4333,,108487,,Sign - Public Transport 1 Panel,1579790,22607,,P.16
1576516,21,"-37.800722007959905, 144.95348448450386",Sign - Public Transport 1 Panel Bus Stop Type 1,,,,-37.80072201,144.95348448450386,,,,2,1,0,,,,,,"{""coordinates"": [144.95348448450386, -37.800722007959905], ""type"": ""Point""}",0,3.92515286,172,Signage,Sign - Public Transport,4750,,110256,,Sign - Public Transport 1 Panel,1576516,21124,,P.16
1253543,21,"-37.81178098838014, 144.9561942988128",Sign - Public Transport 1 Panel Bus Stop Type 8,,,,-37.81178099,144.9561942988128,,,,2,1,0,,,,,,"{""coordinates"": [144.9561942988128, -37.81178098838014], ""type"": ""Point""}",0,40.68803565,348,Signage,Sign - Public Transport,7339,,110759,,Sign - Public Transport 1 Panel,1253543,20028,,P.16
1253269,21,"-37.83405494639031, 144.98241640093377",Sign - Public Transport 1 Panel Bus Stop Type 8,,,,-37.83405495,144.98241640093377,,,,2,1,0,,,,,,"{""coordinates"": [144.98241640093377, -37.83405494639031], ""type"": ""Point""}",0,3.29817904,15,Signage,Sign - Public Transport,7851,,111292,,Sign - Public Transport 1 Panel,1253269,22227,,P.16
1235581,21,"-37.79729882559638, 144.92232895104533",Sign - Public Transport 1 Panel Bus Stop Type 12,,,,-37.79729883,144.92232895104533,,,,2,1,0,,,,,,"{""coordinates"": [144.92232895104533, -37.79729882559638], ""type"": ""Point""}",0,20.8487637,32,Signage,Sign - Public Transport,8099,,517639,,Sign - Public Transport 1 Panel,1235581,21844,,P.16
1248450,21,"-37.80570689100192, 144.9560804373352",Sign - Public Transport 1 Panel Bus Stop Type 8,,,,-37.80570689,144.9560804373352,,,,2,1,0,,,,,,"{""coordinates"": [144.9560804373352, -37.80570689100192], ""type"": ""Point""}",0,17.476656,336,Signage,Sign - Public Transport,9652,,533963,,Sign - Public Transport 1 Panel,1248450,20937,,P.16
1574992,21,"-37.79509600016651, 144.9365369758595",Sign - Public Transport 1 Panel Bus Stop Type 5,,,,-37.795096,144.9365369758595,,,,2,1,0,,,,,,"{""coordinates"": [144.9365369758595, -37.79509600016651], ""type"": ""Point""}",0,12.01896372,5,Signage,Sign - Public Transport,10200,,617411,,Sign - Public Transport 1 Panel,1574992,21319,,P.16
1245077,21,"-37.82376089286155, 144.92141534380514",Sign - Public Transport 1 Panel Bus Stop Type 3,,,,-37.82376089,144.92141534380514,,,,2,1,0,,,,,,"{""coordinates"": [144.92141534380514, -37.82376089286155], ""type"": ""Point""}",0,0,0,Signage,Sign - Public Transport,11191,,0,,Sign - Public Transport 1 Panel,1245077,22159,,P.16
1257044,21,"-37.809816573755754, 144.9499300369178",Sign - Public Transport 1 Panel Bus Stop Type 13,,,,-37.80981657,144.9499300369178,,,,2,1,0,,,,,,"{""coordinates"": [144.9499300369178, -37.809816573755754], ""type"": ""Point""}",0,3.21489549,7,Signage,Sign - Public Transport,13146,,108946,,Sign - Public Transport 1 Panel,1257044,21417,,P.16
1370845,21,"-37.79897960292701, 144.96712273999506",Sign - Public Transport 1 Panel Bus Stop Type 12,,,,-37.7989796,144.96712273999506,,,,2,1,0,,,,,,"{""coordinates"": [144.96712273999506, -37.79897960292701], ""type"": ""Point""}",0,8.32735258,130,Signage,Sign - Public Transport,14049,,106140,,Sign - Public Transport 1 Panel,1370845,20532,,P.16
1270274,21,"-37.79961584739574, 144.91827834668223",Sign - Public Transport 1 Panel Bus Stop Type 12,,,,-37.79961585,144.91827834668223,,,,2,1,0,,,,,,"{""coordinates"": [144.91827834668223, -37.79961584739574], ""type"": ""Point""}",0,17.52910793,229,Signage,Sign - Public Transport,14275,,105222,,Sign - Public Transport 1 Panel,1270274,21843,,P.16
1239405,21,"-37.82475002978367, 144.97082237553545",Sign - Public Transport 1 Panel Bus Stop Type 8,,,,-37.82475003,144.97082237553545,,,,2,1,0,,,,,,"{""coordinates"": [144.97082237553545, -37.82475002978367], ""type"": ""Point""}",0,33.41957061,206,Signage,Sign - Public Transport,14828,,540076,,Sign - Public Transport 1 Panel,1239405,22466,,P.16
1234285,21,"-37.79047682105318, 144.9434649962317",Sign - Public Transport 1 Panel Bus Stop Type 8,,,,-37.79047682,144.9434649962317,,,,2,1,0,,,,,,"{""coordinates"": [144.9434649962317, -37.79047682105318], ""type"": ""Point""}",0,26.51849472,231,Signage,Sign - Public Transport,15288,,103889,,Sign - Public Transport 1 Panel,1234285,22425,,P.16
1247685,21,"-37.79525280570435, 144.9752954554172",Sign - Public Transport 1 Panel Bus Stop Type 8,,,,-37.79525281,144.9752954554172,,,,2,1,0,,,,,,"{""coordinates"": [144.9752954554172, -37.79525280570435], ""type"": ""Point""}",0,14.87211663,189,Signage,Sign - Public Transport,18998,,517620,,Sign - Public Transport 1 Panel,1247685,20884,,P.16
1253832,21,"-37.81383789887729, 144.95159824560972",Sign - Public Transport 1 Panel Bus Stop Type 11,,,,-37.8138379,144.95159824560972,,,,2,1,0,,,,,,"{""coordinates"": [144.95159824560972, -37.81383789887729], ""type"": ""Point""}",0,29.41202858,0,Signage,Sign - Public Transport,20094,,625441,,Sign - Public Transport 1 Panel,1253832,20032,,P.16
1235383,21,"-37.79491046373402, 144.93370075319825",Sign - Public Transport 1 Panel Bus Stop Type 12,,,,-37.79491046,144.93370075319825,,,,2,1,0,,,,,,"{""coordinates"": [144.93370075319825, -37.79491046373402], ""type"": ""Point""}",0,5.02859831,306,Signage,Sign - Public Transport,22853,,106306,,Sign - Public Transport 1 Panel,1235383,21268,,P.16
1238699,21,"-37.807098946090186, 144.95582136066648",Sign - Public Transport 1 Panel Bus Stop Type 8,,,,-37.80709895,144.95582136066648,,,,2,1,0,,,,,,"{""coordinates"": [144.95582136066648, -37.807098946090186], ""type"": ""Point""}",0,20.249339,349,Signage,Sign - Public Transport,22969,,528064,,Sign - Public Transport 1 Panel,1238699,22659,,P.16
1252992,21,"-37.805930935910226, 144.95622134831407",Sign - Public Transport 1 Panel Bus Stop Type 8,,,,-37.80593094,144.95622134831407,,,,2,1,0,,,,,,"{""coordinates"": [144.95622134831407, -37.805930935910226], ""type"": ""Point""}",0,16.62010184,305,Signage,Sign - Public Transport,23110,,533712,,Sign - Public Transport 1 Panel,1252992,22673,,P.16
1558506,21,"-37.79371580698226, 144.97101530838722",Sign - Public Transport 1 Panel Bus Stop Type 1,,,,-37.79371581,144.97101530838722,,,,2,1,0,,,,,,"{""coordinates"": [144.97101530838722, -37.79371580698226], ""type"": ""Point""}",0,27.45809261,341,Signage,Sign - Public Transport,24087,,533653,,Sign - Public Transport 1 Panel,1558506,20639,,P.16
1250974,21,"-37.80265362097663, 144.9457021570429",Sign - Public Transport 1 Panel Bus Stop Type 8,,,,-37.80265362,144.9457021570429,,,,2,1,0,,,,,,"{""coordinates"": [144.9457021570429, -37.80265362097663], ""type"": ""Point""}",0,14.06489762,297,Signage,Sign - Public Transport,28452,,107942,,Sign - Public Transport 1 Panel,1250974,21015,,P.16
1370842,21,"-37.7929305017464, 144.96772679755713",Sign - Public Transport 1 Panel Bus Stop Type 12,,,,-37.7929305,144.96772679755713,,,,2,1,0,,,,,,"{""coordinates"": [144.96772679755713, -37.7929305017464], ""type"": ""Point""}",0,51.96336041,303,Signage,Sign - Public Transport,28943,,106169,,Sign - Public Transport 1 Panel,1370842,20773,,P.16
1251207,21,"-37.80282843793904, 144.9479395483275",Sign - Public Transport 1 Panel Bus Stop Type 8,,,,-37.80282844,144.9479395483275,,,,2,1,0,,,,,,"{""coordinates"": [144.9479395483275, -37.80282843793904], ""type"": ""Point""}",0,13.53262428,123,Signage,Sign - Public Transport,29192,,107985,,Sign - Public Transport 1 Panel,1251207,21015,,P.16
1567474,21,"-37.79943557392906, 144.95572044672738",Sign - Public Transport 1 Panel Bus Stop Type 8,,,,-37.79943557,144.95572044672738,,,,2,1,0,,,,,,"{""coordinates"": [144.95572044672738, -37.79943557392906], ""type"": ""Point""}",0,91.2385968,236,Signage,Sign - Public Transport,31009,,103813,,Sign - Public Transport 1 Panel,1567474,21552,,P.16
1232893,21,"-37.823481893825324, 144.9606983135566",Sign - Public Transport 1 Panel Bus Stop Type 8,,,,-37.82348189,144.9606983135566,,,,2,1,0,,,,,,"{""coordinates"": [144.9606983135566, -37.823481893825324], ""type"": ""Point""}",0,31.49553995,294,Signage,Sign - Public Transport,31900,,539457,,Sign - Public Transport 1 Panel,1232893,22057,,P.16
1251350,21,"-37.80241749595982, 144.94561852036114",Sign - Public Transport 1 Panel Bus Stop Type 8,,,,-37.8024175,144.94561852036114,,,,2,1,0,,,,,,"{""coordinates"": [144.94561852036114, -37.80241749595982], ""type"": ""Point""}",0,20.59051418,53,Signage,Sign - Public Transport,33927,,100121,,Sign - Public Transport 1 Panel,1251350,22678,,P.16
1252676,21,"-37.810484001081136, 144.9563024207091",Sign - Public Transport 1 Panel Bus Stop Type 11,,,,-37.810484,144.9563024207091,,,,2,1,0,,,,,,"{""coordinates"": [144.9563024207091, -37.810484001081136], ""type"": ""Point""}",0,38.3846679,150,Signage,Sign - Public Transport,35006,,567737,,Sign - Public Transport 1 Panel,1252676,22653,,P.16
1574991,21,"-37.79509600016651, 144.9365369758595",Sign - Public Transport 1 Panel Bus Stop Type 4,,,,-37.795096,144.9365369758595,,,,2,1,0,,,,,,"{""coordinates"": [144.9365369758595, -37.79509600016651], ""type"": ""Point""}",0,12.01896372,5,Signage,Sign - Public Transport,35413,,617411,,Sign - Public Transport 1 Panel,1574991,21319,,P.16
1560835,21,"-37.81748417158973, 144.9532635809572",Sign - Public Transport 1 Panel Bus Stop Type 1,,,,-37.81748417,144.9532635809572,,,,2,1,0,,,,,,"{""coordinates"": [144.9532635809572, -37.81748417158973], ""type"": ""Point""}",0,32.97173638,353,Signage,Sign - Public Transport,35528,,531006,,Sign - Public Transport 1 Panel,1560835,20073,,P.16
1233409,21,"-37.79700526969341, 144.96762216850632",Sign - Public Transport 1 Panel Bus Stop Type 8,,,,-37.79700527,144.96762216850632,,,,2,1,0,,,,,,"{""coordinates"": [144.96762216850632, -37.79700526969341], ""type"": ""Point""}",0,14.17948582,32,Signage,Sign - Public Transport,38209,,106186,,Sign - Public Transport 1 Panel,1233409,20536,,P.16
1235255,21,"-37.80384165792465, 144.93239283833262",Sign - Public Transport 1 Panel Bus Stop Type 13,,,,-37.80384166,144.93239283833262,,,,2,1,0,,,,,,"{""coordinates"": [144.93239283833262, -37.80384165792465], ""type"": ""Point""}",0,76.81982435,357,Signage,Sign - Public Transport,355,,570648,,Sign - Public Transport 1 Panel,1235255,21673,,P.16
1248743,21,"-37.837547087144706, 144.98191138368836",Sign - Public Transport 1 Panel Bus Stop Type 8,,,,-37.83754709,144.98191138368836,,,,2,1,0,,,,,,"{""coordinates"": [144.98191138368836, -37.837547087144706], ""type"": ""Point""}",0,41.44116655,78,Signage,Sign - Public Transport,2922,,107419,,Sign - Public Transport 1 Panel,1248743,22245,,P.16
1235296,21,"-37.8019227781844, 144.91933001451295",Sign - Public Transport 1 Panel Bus Stop Type 13,,,,-37.80192278,144.91933001451295,,,,2,1,0,,,,,,"{""coordinates"": [144.91933001451295, -37.8019227781844], ""type"": ""Point""}",0,35.06624367,309,Signage,Sign - Public Transport,6407,,102993,,Sign - Public Transport 1 Panel,1235296,21680,,P.16
1250709,21,"-37.79643544425749, 144.95105741007433",Sign - Public Transport 1 Panel Bus Stop Type 8,,,,-37.79643544,144.95105741007433,,,,2,1,0,,,,,,"{""coordinates"": [144.95105741007433, -37.79643544425749], ""type"": ""Point""}",0,41.43510194,1,Signage,Sign - Public Transport,7621,,104198,,Sign - Public Transport 1 Panel,1250709,20921,,P.16
1235877,21,"-37.80147783382775, 144.91338439418467",Sign - Public Transport 1 Panel Bus Stop Type 11,,,,-37.80147783,144.91338439418467,,,,2,1,0,,,,,,"{""coordinates"": [144.91338439418467, -37.80147783382775], ""type"": ""Point""}",0,25.22880845,178,Signage,Sign - Public Transport,9717,,102985,,Sign - Public Transport 1 Panel,1235877,21683,,P.16
1249807,21,"-37.79632349721997, 144.94669442099848",Sign - Public Transport 1 Panel Bus Stop Type 8,,,,-37.7963235,144.94669442099848,,,,2,1,0,,,,,,"{""coordinates"": [144.94669442099848, -37.79632349721997], ""type"": ""Point""}",0,10.89268323,359,Signage,Sign - Public Transport,11027,,500200,,Sign - Public Transport 1 Panel,1249807,21232,,P.16
1233064,21,"-37.82168352630472, 144.96129766991564",Sign - Public Transport 1 Panel Bus Stop Type 3,,,,-37.82168353,144.96129766991564,,,,2,1,0,,,,,,"{""coordinates"": [144.96129766991564, -37.82168352630472], ""type"": ""Point""}",0,14.41924388,202,Signage,Sign - Public Transport,11296,,570575,,Sign - Public Transport 1 Panel,1233064,22563,,P.16
1239231,21,"-37.828445979568414, 144.96574937670476",Sign - Public Transport 1 Panel Bus Stop Type 8,,,,-37.82844598,144.96574937670476,,,,2,1,0,,,,,,"{""coordinates"": [144.96574937670476, -37.828445979568414], ""type"": ""Point""}",0,13.31943006,231,Signage,Sign - Public Transport,15159,,110625,,Sign - Public Transport 1 Panel,1239231,22118,,P.16
1253576,21,"-37.81313468607944, 144.9517210522907",Sign - Public Transport 1 Panel Bus Stop Type 8,,,,-37.81313469,144.9517210522907,,,,2,1,0,,,,,,"{""coordinates"": [144.9517210522907, -37.81313468607944], ""type"": ""Point""}",0,13.98277844,334,Signage,Sign - Public Transport,17843,,562944,,Sign - Public Transport 1 Panel,1253576,20030,,P.16
1234412,21,"-37.79779448884971, 144.94406544679455",Sign - Public Transport 1 Panel Bus Stop Type 12,,,,-37.79779449,144.94406544679455,,,,2,1,0,,,,,,"{""coordinates"": [144.94406544679455, -37.79779448884971], ""type"": ""Point""}",0,10.68317055,95,Signage,Sign - Public Transport,18489,,108727,,Sign - Public Transport 1 Panel,1234412,21214,,P.16
1248470,21,"-37.80139083296643, 144.95672641628454",Sign - Public Transport 1 Panel Bus Stop Type 8,,,,-37.80139083,144.95672641628454,,,,2,1,0,,,,,,"{""coordinates"": [144.95672641628454, -37.80139083296643], ""type"": ""Point""}",0,21.69632172,213,Signage,Sign - Public Transport,19093,,107520,,Sign - Public Transport 1 Panel,1248470,20594,,P.16
1255342,21,"-37.836019039493614, 144.9755123427878",Sign - Public Transport 1 Panel Bus Stop Type 8,,,,-37.83601904,144.9755123427878,,,,2,1,0,,,,,,"{""coordinates"": [144.9755123427878, -37.836019039493614], ""type"": ""Point""}",0,29.14203081,30,Signage,Sign - Public Transport,19695,,529564,,Sign - Public Transport 1 Panel,1255342,22470,,P.16
1248730,21,"-37.83597702837875, 144.98205678049507",Sign - Public Transport 1 Panel Bus Stop Type 8,,,,-37.83597703,144.98205678049507,,,,2,1,0,,,,,,"{""coordinates"": [144.98205678049507, -37.83597702837875], ""type"": ""Point""}",0,5.68280996,239,Signage,Sign - Public Transport,20985,,107374,,Sign - Public Transport 1 Panel,1248730,22730,,P.16
1239533,21,"-37.823554040273095, 144.96766430983428",Sign - Public Transport 1 Panel Bus Stop Type 8,,,,-37.82355404,144.96766430983428,,,,2,1,0,,,,,,"{""coordinates"": [144.96766430983428, -37.823554040273095], ""type"": ""Point""}",0,67.68289635,218,Signage,Sign - Public Transport,22281,,567779,,Sign - Public Transport 1 Panel,1239533,22080,,P.16
1577042,21,"-37.79443959174042, 144.9295031556217",Sign - Public Transport 1 Panel Bus Stop Type 1,,,,-37.79443959,144.9295031556217,,,,2,1,0,,,,,,"{""coordinates"": [144.9295031556217, -37.79443959174042], ""type"": ""Point""}",0,2.82667366,299,Signage,Sign - Public Transport,23024,,106320,,Sign - Public Transport 1 Panel,1577042,21693,,P.16
1254948,21,"-37.845617997463314, 144.98485133091194",Sign - Public Transport 1 Panel Bus Stop Type 8,,,,-37.845618,144.98485133091194,,,,2,1,0,,,,,,"{""coordinates"": [144.98485133091194, -37.845617997463314], ""type"": ""Point""}",0,19.56622421,267,Signage,Sign - Public Transport,23114,,645774,,Sign - Public Transport 1 Panel,1254948,22308,,P.16
1257292,21,"-37.82267609025617, 144.9360672354294",Sign - Public Transport 1 Panel Bus Stop Type 3,,,,-37.82267609,144.9360672354294,,,,2,1,0,,,,,,"{""coordinates"": [144.9360672354294, -37.82267609025617], ""type"": ""Point""}",627016,6.57193564,345,Signage,Sign - Public Transport,23554,,596486,,Sign - Public Transport 1 Panel,1257292,0,,P.16
1243923,21,"-37.78840737180099, 144.94100543358434",Sign - Public Transport 1 Panel Bus Stop Type 8,,,,-37.78840737,144.94100543358434,,,,2,1,0,,,,,,"{""coordinates"": [144.94100543358434, -37.78840737180099], ""type"": ""Point""}",0,34.55825279,22,Signage,Sign - Public Transport,24568,,101994,,Sign - Public Transport 1 Panel,1243923,22426,,P.16
1244907,21,"-37.82692534062149, 144.90290267710523",Sign - Public Transport 1 Panel Bus Stop Type 3,,,,-37.82692534,144.90290267710523,,,,2,1,0,,,,,,"{""coordinates"": [144.90290267710523, -37.82692534062149], ""type"": ""Point""}",0,43.26397154,226,Signage,Sign - Public Transport,29149,,580037,,Sign - Public Transport 1 Panel,1244907,22168,,P.16
1547409,21,"-37.797767642321304, 144.9741533290422",Sign - Public Transport 1 Panel Bus Stop Type 3,,,,-37.79776764,144.9741533290422,,,,2,1,0,,,,,,"{""coordinates"": [144.9741533290422, -37.797767642321304], ""type"": ""Point""}",0,29.23997683,241,Signage,Sign - Public Transport,29611,,103052,,Sign - Public Transport 1 Panel,1547409,20597,,P.16
1479412,21,"-37.8026621513541, 144.96975397673893",Sign - Public Transport 1 Panel Bus Stop Type 3,,,,-37.80266215,144.96975397673893,,,,2,1,0,,,,,,"{""coordinates"": [144.96975397673893, -37.8026621513541], ""type"": ""Point""}",0,46.16875812,120,Signage,Sign - Public Transport,30149,,528461,,Sign - Public Transport 1 Panel,1479412,20558,,P.16
1261560,21,"-37.82311374998954, 144.9370368413254",Sign - Public Transport 1 Panel Bus Stop Type 3,,,,-37.82311375,144.9370368413254,,,,2,1,0,,,,,,"{""coordinates"": [144.9370368413254, -37.82311374998954], ""type"": ""Point""}",0,30.2906768,88,Signage,Sign - Public Transport,32010,,637409,,Sign - Public Transport 1 Panel,1261560,22131,,P.16
1257172,21,"-37.80581892901135, 144.95574943791024",Sign - Public Transport 1 Panel Bus Stop Type 8,,,,-37.80581893,144.95574943791024,,,,2,1,0,,,,,,"{""coordinates"": [144.95574943791024, -37.80581892901135], ""type"": ""Point""}",0,13.61319889,118,Signage,Sign - Public Transport,33808,,109829,,Sign - Public Transport 1 Panel,1257172,20953,,P.16
1249773,21,"-37.795242474806884, 144.94679942011058",Sign - Public Transport 1 Panel Bus Stop Type 8,,,,-37.79524247,144.94679942011058,,,,2,1,0,,,,,,"{""coordinates"": [144.94679942011058, -37.795242474806884], ""type"": ""Point""}",0,18.06322576,225,Signage,Sign - Public Transport,34067,,100076,,Sign - Public Transport 1 Panel,1249773,21232,,P.16
1244488,21,"-37.77697303920087, 144.94970928774234",Sign - Public Transport 1 Panel Bus Stop Type 8,,,,-37.77697304,144.94970928774234,,,,2,1,0,,,,,,"{""coordinates"": [144.94970928774234, -37.77697303920087], ""type"": ""Point""}",0,36.15520837,163,Signage,Sign - Public Transport,35126,,639767,,Sign - Public Transport 1 Panel,1244488,30708,,P.16
1255102,21,"-37.83884804951157, 144.97654745650496",Sign - Public Transport 1 Panel Bus Stop Type 8,,,,-37.83884805,144.97654745650496,,,,2,1,0,,,,,,"{""coordinates"": [144.97654745650496, -37.83884804951157], ""type"": ""Point""}",0,63.68983374,311,Signage,Sign - Public Transport,35673,,545595,,Sign - Public Transport 1 Panel,1255102,22472,,P.16
1579927,21,"-37.79575422957359, 144.95827417192294",Sign - Public Transport 1 Panel Bus Stop Type 1,,,,-37.79575423,144.95827417192294,,,,2,1,0,,,,,,"{""coordinates"": [144.95827417192294, -37.79575422957359], ""type"": ""Point""}",0,53.11278613,158,Signage,Sign - Public Transport,35677,,108456,,Sign - Public Transport 1 Panel,1579927,22603,,P.16
1252885,21,"-37.812490976626215, 144.95370614040704",Sign - Public Transport 1 Panel Bus Stop Type 8,,,,-37.81249098,144.95370614040704,,,,2,1,0,,,,,,"{""coordinates"": [144.95370614040704, -37.812490976626215], ""type"": ""Point""}",0,16.14376437,99,Signage,Sign - Public Transport,36376,,602160,,Sign - Public Transport 1 Panel,1252885,20030,,P.16
1253512,21,"-37.809284824359445, 144.9519620478619",Sign - Public Transport 1 Panel Bus Stop Type 11,,,,-37.80928482,144.9519620478619,,,,2,1,0,,,,,,"{""coordinates"": [144.9519620478619, -37.809284824359445], ""type"": ""Point""}",0,7.60575447,69,Signage,Sign - Public Transport,36984,,546268,,Sign - Public Transport 1 Panel,1253512,21413,,P.16
1254921,21,"-37.84529099706835, 144.9822703144505",Sign - Public Transport 1 Panel Bus Stop Type 8,,,,-37.845291,144.9822703144505,,,,2,1,0,,,,,,"{""coordinates"": [144.9822703144505, -37.84529099706835], ""type"": ""Point""}",0,0,0,Signage,Sign - Public Transport,39976,,0,,Sign - Public Transport 1 Panel,1254921,22308,,P.16
1576502,21,"-37.8010481279157, 144.9534576515341",Sign - Public Transport 1 Panel Bus Stop Type 1,,,,-37.80104813,144.9534576515341,,,,2,1,0,,,,,,"{""coordinates"": [144.9534576515341, -37.8010481279157], ""type"": ""Point""}",0,24.9969919,38,Signage,Sign - Public Transport,40039,,110262,,Sign - Public Transport 1 Panel,1576502,21124,,P.16
1244875,21,"-37.82183999762308, 144.91339835942287",Sign - Public Transport 1 Panel Bus Stop Type 3,,,,-37.82184,144.91339835942287,,,,2,1,0,,,,,,"{""coordinates"": [144.91339835942287, -37.82183999762308], ""type"": ""Point""}",0,98.32660753,199,Signage,Sign - Public Transport,40048,,110506,,Sign - Public Transport 1 Panel,1244875,22162,,P.16
1479404,21,"-37.804610872159635, 144.9691537208721",Sign - Public Transport 1 Panel Bus Stop Type 3,,,,-37.80461087,144.9691537208721,,,,,1,,,,,,,"{""coordinates"": [144.9691537208721, -37.804610872159635], ""type"": ""Point""}",0,4.34256802,143,Signage,Sign - Public Transport,42881,,108156,,Sign - Public Transport 1 Panel,1479404,20556,,P.16
1239499,21,"-37.82359653225718, 144.96952122205516",Sign - Public Transport 1 Panel Bus Stop Type 11,,,,-37.82359653,144.96952122205516,,,,,1,,,,,,,"{""coordinates"": [144.96952122205516, -37.82359653225718], ""type"": ""Point""}",0,26.33672928,14,Signage,Sign - Public Transport,43889,,566451,,Sign - Public Transport 1 Panel,1239499,22080,,P.16
1235586,21,"-37.79624528473142, 144.9241544090541",Sign - Public Transport 1 Panel Bus Stop Type 12,,,,-37.79624528,144.9241544090541,,,,,1,,,,,,,"{""coordinates"": [144.9241544090541, -37.79624528473142], ""type"": ""Point""}",0,32.73621458,176,Signage,Sign - Public Transport,43934,,561739,,Sign - Public Transport 1 Panel,1235586,21844,,P.16
1238870,21,"-37.810346877102674, 144.96112338314163",Sign - Public Transport 1 Panel Bus Stop Type 8,,,,-37.81034688,144.96112338314163,,,,,1,,,,,,,"{""coordinates"": [144.96112338314163, -37.810346877102674], ""type"": ""Point""}",0,16.41454879,161,Signage,Sign - Public Transport,44287,,660997,,Sign - Public Transport 1 Panel,1238870,20024,,P.16
1247562,21,"-37.79755334862349, 144.97488727650415",Sign - Public Transport 1 Panel Bus Stop Type 8,,,,-37.79755335,144.97488727650415,,,,,1,,,,,,,"{""coordinates"": [144.97488727650415, -37.79755334862349], ""type"": ""Point""}",0,75.22761474,225,Signage,Sign - Public Transport,44401,,511049,,Sign - Public Transport 1 Panel,1247562,20880,,P.16
1236981,21,"-37.81624692265885, 144.9638133817537",Sign - Public Transport 1 Panel Bus Stop Type 8,,,,-37.81624692,144.9638133817537,,,,,1,,,,,,,"{""coordinates"": [144.9638133817537, -37.81624692265885], ""type"": ""Point""}",0,37.37639771,102,Signage,Sign - Public Transport,434,,511385,,Sign - Public Transport 1 Panel,1236981,20114,,P.16
1257495,21,"-37.84338100233517, 144.98539837705636",Sign - Public Transport 1 Panel Bus Stop Type 3,,,,-37.843381,144.98539837705636,,,,,1,,,,,,,"{""coordinates"": [144.98539837705636, -37.84338100233517], ""type"": ""Point""}",0,11.91171931,253,Signage,Sign - Public Transport,1388,,107788,,Sign - Public Transport 1 Panel,1257495,22755,,P.16
1236806,21,"-37.81746488575314, 144.95908336349078",Sign - Public Transport 1 Panel Bus Stop Type 8,,,,-37.81746489,144.95908336349078,,,,,1,,,,,,,"{""coordinates"": [144.95908336349078, -37.81746488575314], ""type"": ""Point""}",0,20.71634084,7,Signage,Sign - Public Transport,11488,,102122,,Sign - Public Transport 1 Panel,1236806,20182,,P.16
1575589,21,"-37.8000216853513, 144.9595076126765",Sign - Public Transport 1 Panel Bus Stop Type 1,,,,-37.80002169,144.9595076126765,,,,,1,,,,,,,"{""coordinates"": [144.9595076126765, -37.8000216853513], ""type"": ""Point""}",0,29.30671836,303,Signage,Sign - Public Transport,14552,,502495,,Sign - Public Transport 1 Panel,1575589,20850,,P.16
1239241,21,"-37.828198029316454, 144.96603931801874",Sign - Public Transport 1 Panel Bus Stop Type 8,,,,-37.82819803,144.96603931801874,,,,,1,,,,,,,"{""coordinates"": [144.96603931801874, -37.828198029316454], ""type"": ""Point""}",0,31.56914297,336,Signage,Sign - Public Transport,15748,,537103,,Sign - Public Transport 1 Panel,1239241,22767,,P.16
1247850,21,"-37.79412517227246, 144.96802316787404",Sign - Public Transport 1 Panel Bus Stop Type 8,,,,-37.79412517,144.96802316787404,,,,,1,,,,,,,"{""coordinates"": [144.96802316787404, -37.79412517227246], ""type"": ""Point""}",0,43.65971255,133,Signage,Sign - Public Transport,19137,,522611,,Sign - Public Transport 1 Panel,1247850,20538,,P.16
1269049,21,"-37.81138987793888, 144.95891148533326",Sign - Public Transport 1 Panel Bus Stop Type 13,,,,-37.81138988,144.95891148533326,,,,,1,,,,,,,"{""coordinates"": [144.95891148533326, -37.81138987793888], ""type"": ""Point""}",0,17.52279116,281,Signage,Sign - Public Transport,23932,,577287,,Sign - Public Transport 1 Panel,1269049,20177,,P.16
1240003,21,"-37.826139892274156, 144.96051538984986",Sign - Public Transport 1 Panel Bus Stop Type 8,,,,-37.82613989,144.96051538984986,,,,,1,,,,,,,"{""coordinates"": [144.96051538984986, -37.826139892274156], ""type"": ""Point""}",0,44.16355082,279,Signage,Sign - Public Transport,25172,,110636,,Sign - Public Transport 1 Panel,1240003,22043,,P.16
1245217,21,"-37.82093926515732, 144.9271057669481",Sign - Public Transport 1 Panel Bus Stop Type 3,,,,-37.82093927,144.9271057669481,,,,,1,,,,,,,"{""coordinates"": [144.9271057669481, -37.82093926515732], ""type"": ""Point""}",0,23.50606673,266,Signage,Sign - Public Transport,33197,,565798,,Sign - Public Transport 1 Panel,1245217,22158,,P.16
1252743,21,"-37.81105987177411, 144.95869339408225",Sign - Public Transport 1 Panel Bus Stop Type 8,,,,-37.81105987,144.95869339408225,,,,,1,,,,,,,"{""coordinates"": [144.95869339408225, -37.81105987177411], ""type"": ""Point""}",0,31.78757985,239,Signage,Sign - Public Transport,36816,,577288,,Sign - Public Transport 1 Panel,1252743,20026,,P.16
1255285,21,"-37.84536002766068, 144.982312412603",Sign - Public Transport 1 Panel Bus Stop Type 8,,,,-37.84536003,144.9823124,,,,,1,,,,,,,"{""coordinates"": [144.982312412603, -37.84536002766068], ""type"": ""Point""}",0,0,0,Signage,Sign - Public Transport,41418,,0,,Sign - Public Transport 1 Panel,1255285,22308,,P.16
1252370,21,"-37.779366174108, 144.9599419065271",Sign - Public Transport 1 Panel Bus Stop Type 8,,,,-37.77936617,144.9599419065271,,,,,1,,,,,,,"{""coordinates"": [144.9599419065271, -37.779366174108], ""type"": ""Point""}",0,20.52678048,180,Signage,Sign - Public Transport,42321,,108524,,Sign - Public Transport 1 Panel,1252370,22393,,P.16
1249797,21,"-37.794951472118605, 144.9469434142297",Sign - Public Transport 1 Panel Bus Stop Type 8,,,,-37.79495147,144.9469434142297,,,,,1,,,,,,,"{""coordinates"": [144.9469434142297, -37.794951472118605], ""type"": ""Point""}",0,10.60437815,6,Signage,Sign - Public Transport,42849,,568083,,Sign - Public Transport 1 Panel,1249797,21235,,P.16
1249454,21,"-37.81842481335676, 144.96889648633675",Sign - Public Transport 1 Panel Bus Stop Type 12,,,,-37.81842481,144.96889648633675,,,,,1,,,,,,,"{""coordinates"": [144.96889648633675, -37.81842481335676], ""type"": ""Point""}",573333,29.1490529,288,Signage,Sign - Public Transport,749,,606816,,Sign - Public Transport 1 Panel,1249454,0,,P.16
1252383,21,"-37.78188915501449, 144.95963193312105",Sign - Public Transport 1 Panel Bus Stop Type 8,,,,-37.78188916,144.95963193312105,,,,,1,,,,,,,"{""coordinates"": [144.95963193312105, -37.78188915501449], ""type"": ""Point""}",0,25.26964339,212,Signage,Sign - Public Transport,2143,,108510,,Sign - Public Transport 1 Panel,1252383,22387,,P.16
1255275,21,"-37.847587034180215, 144.9797183050512",Sign - Public Transport 1 Panel Bus Stop Type 8,,,,-37.84758703,144.9797183050512,,,,,1,,,,,,,"{""coordinates"": [144.9797183050512, -37.847587034180215], ""type"": ""Point""}",0,49.22846917,73,Signage,Sign - Public Transport,5193,,632373,,Sign - Public Transport 1 Panel,1255275,22477,,P.16
1244979,21,"-37.82087887649734, 144.91896726226324",Sign - Public Transport 1 Panel Bus Stop Type 3,,,,-37.82087888,144.91896726226324,,,,,1,,,,,,,"{""coordinates"": [144.91896726226324, -37.82087887649734], ""type"": ""Point""}",0,26.25523043,307,Signage,Sign - Public Transport,27090,,110514,,Sign - Public Transport 1 Panel,1244979,30638,,P.16
1240877,21,"-37.797326843071275, 144.97009551587823",Sign - Public Transport 1 Panel Bus Stop Type 3,,,,-37.79732684,144.97009551587823,,,,,1,,,,,,,"{""coordinates"": [144.97009551587823, -37.797326843071275], ""type"": ""Point""}",0,3.89843097,117,Signage,Sign - Public Transport,27502,,511185,,Sign - Public Transport 1 Panel,1240877,20817,,P.16
1233403,21,"-37.795862870670625, 144.97092135820924",Sign - Public Transport 1 Panel Bus Stop Type 3,,,,-37.79586287,144.97092135820924,,,,,1,,,,,,,"{""coordinates"": [144.97092135820924, -37.795862870670625], ""type"": ""Point""}",0,3.07870395,7,Signage,Sign - Public Transport,30678,,108238,,Sign - Public Transport 1 Panel,1233403,20567,,P.16
1244569,21,"-37.78068129995275, 144.95126818156393",Sign - Public Transport 1 Panel Bus Stop Type 8,,,,-37.7806813,144.95126818156393,,,,,1,,,,,,,"{""coordinates"": [144.95126818156393, -37.78068129995275], ""type"": ""Point""}",0,70.43672599,308,Signage,Sign - Public Transport,31742,,111342,,Sign - Public Transport 1 Panel,1244569,30708,,P.16
1235945,21,"-37.78069264722452, 144.91477250953216",Sign - Public Transport 1 Panel Bus Stop Type 8,,,,-37.78069265,144.91477250953216,,,,,1,,,,,,,"{""coordinates"": [144.91477250953216, -37.78069264722452], ""type"": ""Point""}",0,46.88712984,139,Signage,Sign - Public Transport,33716,,610631,,Sign - Public Transport 1 Panel,1235945,22526,,P.16