geo_point_2d,geo_shape,prop_id,no_smoking,level_1_na,addresspt1,event,full_name,addressp_1,training,dog_prohib,dog_off_le,venue_recn,addresspt,sport,promotion,bookable,level_3_na,wedding,roadseg_id,sustainabi,level_2_na
"{'lon': 144.98896595113547, 'lat': -37.81712741121574}","{'type': 'Feature', 'geometry': {'coordinates': [144.98896595113547, -37.81712741121574], 'type': 'Point'}, 'properties': {}}",0,N,Other Park Locations,29.98397741,Y,Other Park Locations:  Weedon Reserve,77,N,N,N,402,110017,,,Y,,N,21951,L,Weedon Reserve
"{'lon': 144.98293613155118, 'lat': -37.84257424668199}","{'type': 'Feature', 'geometry': {'coordinates': [144.98293613155118, -37.84257424668199], 'type': 'Point'}, 'properties': {}}",103756,N,Fawkner Park,0.0,N,Fawkner Park:  FP - Cordner_T1_T2_T3_F2_Ct3,0,N,N,N,1354,0,Y,,Y,,N,0,M,FP - Cordner_T1_T2_T3_F2_Ct3
"{'lon': 144.9554621837315, 'lat': -37.78557214679238}","{'type': 'Feature', 'geometry': {'coordinates': [144.9554621837315, -37.78557214679238], 'type': 'Point'}, 'properties': {}}",107426,N,Royal Park,0.0,N,Royal Park:  RP - Lawn 6_Walker East_Ct2,0,N,N,N,277,0,Y,,Y,,N,0,L,RP - Lawn 6_Walker East_Ct2
"{'lon': 144.98286097598913, 'lat': -37.844590280668804}","{'type': 'Feature', 'geometry': {'coordinates': [144.98286097598913, -37.844590280668804], 'type': 'Point'}, 'properties': {}}",103756,N,Fawkner Park,0.0,Y,Fawkner Park:  FP - Lawn 21_T8_S3,0,Y,N,Y,67,0,Y,,Y,,N,0,M,FP - Lawn 21_T8_S3
"{'lon': 144.97660241098285, 'lat': -37.824601477463915}","{'type': 'Feature', 'geometry': {'coordinates': [144.97660241098285, -37.824601477463915], 'type': 'Point'}, 'properties': {}}",108615,N,Kings Domain,0.0,Y,Kings Domain:  KD - Lawn 9/Pillars of Wisdom,0,Y,N,N,184,0,,,Y,,Y,0,M,KD - Lawn 9/Pillars of Wisdom
"{'lon': 144.9875327281599, 'lat': -37.83069806878039}","{'type': 'Feature', 'geometry': {'coordinates': [144.9875327281599, -37.83069806878039], 'type': 'Point'}, 'properties': {}}",111334,N,Other Park Locations,12.70122202,Y,Other Park Locations:  Golden Elm Triangle Reserve,271,N,N,N,362,111334,,,Y,,N,0,L,Golden Elm Triangle Reserve
"{'lon': 144.97259992450503, 'lat': -37.802401778134914}","{'type': 'Feature', 'geometry': {'coordinates': [144.97259992450503, -37.802401778134914], 'type': 'Point'}, 'properties': {}}",108269,N,Carlton Gardens,0.0,N,Carlton Gardens:  CG - Lawn 5,0,N,N,N,23,0,,,Y,,Y,0,L,CG - Lawn 5
"{'lon': 144.98078613765418, 'lat': -37.81528866843271}","{'type': 'Feature', 'geometry': {'coordinates': [144.98078613765418, -37.81528866843271], 'type': 'Point'}, 'properties': {}}",103807,N,Fitzroy Gardens,80.84212407,N,Fitzroy Gardens:  FT- Lawn 28,213,Y,N,N,134,111452,,,Y,,Y,0,M,FT- Lawn 28
"{'lon': 144.97288564656475, 'lat': -37.823686748198114}","{'type': 'Feature', 'geometry': {'coordinates': [144.97288564656475, -37.823686748198114], 'type': 'Point'}, 'properties': {}}",108615,N,Kings Domain,0.0,Y,Kings Domain:  KD - Lawn 2,0,N,N,N,176,0,,,Y,,N,0,M,KD - Lawn 2
"{'lon': 144.9414879659226, 'lat': -37.805606405436144}","{'type': 'Feature', 'geometry': {'coordinates': [144.9414879659226, -37.805606405436144], 'type': 'Point'}, 'properties': {}}",110908,N,Other Park Locations,21.27300622,Y,Other Park Locations:  Railway & Miller St Reserve,321,N,N,N,386,110908,,,Y,,N,0,L,Railway & Miller St Reserve
"{'lon': 144.96578472064343, 'lat': -37.8030436798691}","{'type': 'Feature', 'geometry': {'coordinates': [144.96578472064343, -37.8030436798691], 'type': 'Point'}, 'properties': {}}",106097,N,Other Park Locations,53.36004813,Y,Other Park Locations:  Argyle Square (South),13,N,N,N,340,106097,,,Y,,N,0,L,Argyle Square (South)
"{'lon': 144.94487688658427, 'lat': -37.80864887136427}","{'type': 'Feature', 'geometry': {'coordinates': [144.94487688658427, -37.80864887136427], 'type': 'Point'}, 'properties': {}}",104755,Y,Other Park Locations,13.94508753,Y,Other Park Locations:  Hawke & Adderley Street Park,293,N,N,N,366,104755,,,Y,,N,0,L,Hawke & Adderley Street Park
"{'lon': 144.92134758302743, 'lat': -37.798249959297706}","{'type': 'Feature', 'geometry': {'coordinates': [144.92134758302743, -37.798249959297706], 'type': 'Point'}, 'properties': {}}",105220,N,Holland Park,34.32973394,N,Holland Park:  HP - Extreme Sports Area,143,N,N,N,174,586156,Y,,Y,,N,0,M,HP - Extreme Sports Area
"{'lon': 144.9612333391193, 'lat': -37.78788013831968}","{'type': 'Feature', 'geometry': {'coordinates': [144.9612333391193, -37.78788013831968], 'type': 'Point'}, 'properties': {}}",107696,N,Princes Park,0.0,N,Princes Park:  PP -  S2,0,N,N,N,211,0,Y,,Y,,N,0,M,PP -  S2
"{'lon': 144.94213123612462, 'lat': -37.823381504683944}","{'type': 'Feature', 'geometry': {'coordinates': [144.94213123612462, -37.823381504683944], 'type': 'Point'}, 'properties': {}}",611697,N,Docklands,37.11110181,Y,Docklands:  Parks:  Point Park,217,N,N,N,1222,642867,N,,Y,Point Park,N,0,L,Parks
"{'lon': 144.97348681194194, 'lat': -37.81907379935277}","{'type': 'Feature', 'geometry': {'coordinates': [144.97348681194194, -37.81907379935277], 'type': 'Point'}, 'properties': {}}",573368,N,Birrarung Marr,0.0,Y,Birrarung Marr:  BM - Lower Terrace,0,N,N,N,410,0,,,Y,,N,0,H,BM - Lower Terrace
"{'lon': 144.9549599190524, 'lat': -37.78651883720741}","{'type': 'Feature', 'geometry': {'coordinates': [144.9549599190524, -37.78651883720741], 'type': 'Point'}, 'properties': {}}",107426,N,Royal Park,2.43705273,N,Royal Park:  RP - Lawn 6_Brens Pavillion,87,N,N,N,285,587540,Y,,Y,,N,0,L,RP - Lawn 6_Brens Pavillion
"{'lon': 144.95666911563225, 'lat': -37.8218387826011}","{'type': 'Feature', 'geometry': {'coordinates': [144.95666911563225, -37.8218387826011], 'type': 'Point'}, 'properties': {}}",611396,N,Batman Park,58.90826433,Y,Batman Park:  BP - Lawn1,61,Y,N,N,42,625420,,,Y,,N,0,H,BP - Lawn1
"{'lon': 144.97316890836038, 'lat': -37.825622187644704}","{'type': 'Feature', 'geometry': {'coordinates': [144.97316890836038, -37.825622187644704], 'type': 'Point'}, 'properties': {}}",108615,N,Kings Domain,0.0,Y,Kings Domain:  KD - Lawn 5,0,N,N,N,180,0,,,Y,,Y,0,M,KD - Lawn 5
"{'lon': 144.9716331365811, 'lat': -37.821741117796826}","{'type': 'Feature', 'geometry': {'coordinates': [144.9716331365811, -37.821741117796826], 'type': 'Point'}, 'properties': {}}",111022,N,Queen Victoria Gardens,51.75918514,Y,Queen Victoria Gardens:  QV - Lawn 6,200,N,N,N,227,111022,,,Y,,Y,0,L,QV - Lawn 6
"{'lon': 144.94502698055896, 'lat': -37.820333013933215}","{'type': 'Feature', 'geometry': {'coordinates': [144.94502698055896, -37.820333013933215], 'type': 'Point'}, 'properties': {}}",622440,N,Docklands,35.46487353,Y,Docklands:  Parks:  Victoria Green,97,N,N,N,1335,638117,N,,Y,Victoria Green,N,0,L,Parks
"{'lon': 144.94671143397167, 'lat': -37.82080116244484}","{'type': 'Feature', 'geometry': {'coordinates': [144.94671143397167, -37.82080116244484], 'type': 'Point'}, 'properties': {}}",592862,Y,Docklands,72.76344912,Y,Docklands:  Parks:  Docklands Park,17,N,N,N,1221,588912,N,,Y,Docklands Park,N,0,L,Parks
"{'lon': 144.97217670047405, 'lat': -37.82043882334664}","{'type': 'Feature', 'geometry': {'coordinates': [144.97217670047405, -37.82043882334664], 'type': 'Point'}, 'properties': {}}",101101,N,Alexandra Gardens,49.28361121,Y,Alexandra Gardens:  AG - Lawn5/Engineers Lawn,236,N,N,N,7,503004,,,Y,,N,0,H,AG - Lawn5/Engineers Lawn
"{'lon': 144.92377402177027, 'lat': -37.793738962584186}","{'type': 'Feature', 'geometry': {'coordinates': [144.92377402177027, -37.793738962584186], 'type': 'Point'}, 'properties': {}}",100894,Y,Other Park Locations,23.65235611,Y,Other Park Locations:  Bayswater Road Park,119,N,N,N,342,100894,,,Y,,N,0,L,Bayswater Road Park
"{'lon': 144.98077042741397, 'lat': -37.81640437288307}","{'type': 'Feature', 'geometry': {'coordinates': [144.98077042741397, -37.81640437288307], 'type': 'Point'}, 'properties': {}}",111460,N,Other Park Locations,9.69851734,Y,Other Park Locations:  Jolimont Reserve,185,N,N,N,372,111460,,,Y,,N,0,L,Jolimont Reserve
"{'lon': 144.9798342931686, 'lat': -37.839308670086034}","{'type': 'Feature', 'geometry': {'coordinates': [144.9798342931686, -37.839308670086034], 'type': 'Point'}, 'properties': {}}",103756,Y,Fawkner Park,0.0,N,Fawkner Park:  FP - Lawn 17_SB1_SB2_Ct2_S7,0,N,N,N,63,0,Y,,Y,,N,0,M,FP - Lawn 17_SB1_SB2_Ct2_S7
"{'lon': 144.97125527823184, 'lat': -37.80614633537273}","{'type': 'Feature', 'geometry': {'coordinates': [144.97125527823184, -37.80614633537273], 'type': 'Point'}, 'properties': {}}",108268,N,Carlton Gardens,59.76575599,Y,Carlton Gardens:  CG - Lawn 15/Exhibition Fountain,254,N,N,N,33,546082,,,Y,,Y,0,L,CG - Lawn 15/Exhibition Fountain
"{'lon': 144.95543739832556, 'lat': -37.81109383330219}","{'type': 'Feature', 'geometry': {'coordinates': [144.95543739832556, -37.81109383330219], 'type': 'Point'}, 'properties': {}}",102942,N,Flagstaff Gardens,40.9784417,Y,Flagstaff Gardens:  FG - Lawn 13,28,Y,N,N,160,102943,,,Y,,N,0,M,FG - Lawn 13
"{'lon': 144.97821259791684, 'lat': -37.83786569290351}","{'type': 'Feature', 'geometry': {'coordinates': [144.97821259791684, -37.83786569290351], 'type': 'Point'}, 'properties': {}}",103756,N,Fawkner Park,75.91984284,Y,Fawkner Park:  FP - Lawn 2,79,Y,N,N,48,578355,N,,Y,,N,0,M,FP - Lawn 2
"{'lon': 144.97357416146477, 'lat': -37.81809223608963}","{'type': 'Feature', 'geometry': {'coordinates': [144.97357416146477, -37.81809223608963], 'type': 'Point'}, 'properties': {}}",573368,N,Birrarung Marr,30.18759601,Y,Birrarung Marr:  BM - Upper Terrace,174,N,N,N,408,586155,,,Y,,N,0,H,BM - Upper Terrace
"{'lon': 144.97091499439267, 'lat': -37.82045612204152}","{'type': 'Feature', 'geometry': {'coordinates': [144.97091499439267, -37.82045612204152], 'type': 'Point'}, 'properties': {}}",101101,N,Alexandra Gardens,91.31570746,Y,Alexandra Gardens:  AG - Star Lawn,336,Y,N,N,6,503004,,,Y,,N,0,H,AG - Star Lawn
"{'lon': 144.91570500420156, 'lat': -37.79509438558714}","{'type': 'Feature', 'geometry': {'coordinates': [144.91570500420156, -37.79509438558714], 'type': 'Point'}, 'properties': {}}",102249,N,Other Park Locations,0.0,Y,Other Park Locations:  Riverside Park,0,N,N,N,1372,0,,,Y,,N,0,L,Riverside Park
"{'lon': 144.94274377653426, 'lat': -37.819126879284596}","{'type': 'Feature', 'geometry': {'coordinates': [144.94274377653426, -37.819126879284596], 'type': 'Point'}, 'properties': {}}",604120,N,Docklands,19.96470731,Y,Docklands:  All Other Spaces:  Victoria Harbour Promenade West,334,N,N,N,1312,612595,,,Y,Victoria Harbour Promenade West,N,23300,,All Other Spaces
"{'lon': 144.9810169487427, 'lat': -37.81235139096792}","{'type': 'Feature', 'geometry': {'coordinates': [144.9810169487427, -37.81235139096792], 'type': 'Point'}, 'properties': {}}",103807,N,Fitzroy Gardens,90.64589906,Y,Fitzroy Gardens:  FT - Lawn 10/Stage Lawn,286,N,N,N,115,111456,,,Y,,N,0,M,FT - Lawn 10/Stage Lawn
"{'lon': 144.94594900298196, 'lat': -37.82253142158812}","{'type': 'Feature', 'geometry': {'coordinates': [144.94594900298196, -37.82253142158812], 'type': 'Point'}, 'properties': {}}",624154,N,Docklands,88.43716039,Y,Docklands:  All Other Spaces:  Australia Wharf,4,N,N,N,1416,633207,,,Y,Australia Wharf,N,23302,,All Other Spaces
"{'lon': 144.9728253732698, 'lat': -37.822753634054926}","{'type': 'Feature', 'geometry': {'coordinates': [144.9728253732698, -37.822753634054926], 'type': 'Point'}, 'properties': {}}",108615,N,Kings Domain,0.0,Y,Kings Domain:  KD - Lawn 1,0,Y,N,N,175,0,,,Y,,N,0,M,KD - Lawn 1
"{'lon': 144.96485355506087, 'lat': -37.829803138137365}","{'type': 'Feature', 'geometry': {'coordinates': [144.96485355506087, -37.829803138137365], 'type': 'Point'}, 'properties': {}}",110628,N,Other Park Locations,36.46091337,Y,Other Park Locations:  Sturt Street Reserve,335,N,N,N,396,110628,,,Y,,N,0,L,Sturt Street Reserve
"{'lon': 144.9722702183175, 'lat': -37.805870529120305}","{'type': 'Feature', 'geometry': {'coordinates': [144.9722702183175, -37.805870529120305], 'type': 'Point'}, 'properties': {}}",108268,N,Carlton Gardens,0.0,Y,Carlton Gardens:  CG - Lawn 18,0,N,N,N,36,0,,,Y,,Y,0,L,CG - Lawn 18
"{'lon': 144.95380005501625, 'lat': -37.79092904752804}","{'type': 'Feature', 'geometry': {'coordinates': [144.95380005501625, -37.79092904752804], 'type': 'Point'}, 'properties': {}}",107426,N,Royal Park,0.0,N,Royal Park:  RP - Lawn 2_Native Grassland,0,N,N,Y,237,0,N,,Y,,N,0,L,RP - Lawn 2_Native Grassland
"{'lon': 144.95582905318707, 'lat': -37.7874641957267}","{'type': 'Feature', 'geometry': {'coordinates': [144.95582905318707, -37.7874641957267], 'type': 'Point'}, 'properties': {}}",107426,N,Royal Park,0.0,N,Royal Park:  RP - Lawn 6_Smith Ct1_R1,0,N,N,N,255,0,Y,,Y,,N,0,L,RP - Lawn 6_Smith Ct1_R1
"{'lon': 144.96037070486315, 'lat': -37.82541356209026}","{'type': 'Feature', 'geometry': {'coordinates': [144.96037070486315, -37.82541356209026], 'type': 'Point'}, 'properties': {}}",108053,N,Other Park Locations,7.72514826,Y,Other Park Locations:  City Road Park,142,N,N,N,349,108053,,,Y,,N,0,L,City Road Park
"{'lon': 144.94246396491934, 'lat': -37.81471918160141}","{'type': 'Feature', 'geometry': {'coordinates': [144.94246396491934, -37.81471918160141], 'type': 'Point'}, 'properties': {}}",579369,N,Docklands,12.64858209,Y,Docklands:  Promotional Sites:  3.New Quay Promenade East,269,N,N,N,1225,598290,,,Y,3.New Quay Promenade East,N,22785,,Promotional Sites
"{'lon': 144.9554621837315, 'lat': -37.78557214679238}","{'type': 'Feature', 'geometry': {'coordinates': [144.9554621837315, -37.78557214679238], 'type': 'Point'}, 'properties': {}}",107426,N,Royal Park,0.0,N,Royal Park:  RP - Lawn 6_Walker West_Ct1,0,N,N,N,276,0,Y,,Y,,N,0,L,RP - Lawn 6_Walker West_Ct1
"{'lon': 144.98138704362836, 'lat': -37.81343655949792}","{'type': 'Feature', 'geometry': {'coordinates': [144.98138704362836, -37.81343655949792], 'type': 'Point'}, 'properties': {}}",103807,N,Fitzroy Gardens,34.12994643,N,Fitzroy Gardens:  FT - Lawn 17/Fairies Tree,106,N,N,N,142,111456,,,Y,,Y,0,M,FT - Lawn 17/Fairies Tree
"{'lon': 144.97209370154812, 'lat': -37.82222654478082}","{'type': 'Feature', 'geometry': {'coordinates': [144.97209370154812, -37.82222654478082], 'type': 'Point'}, 'properties': {}}",111022,N,Queen Victoria Gardens,97.14148642,Y,Queen Victoria Gardens:  QV - Lawn 8/Janet Lady Clarke Rotunda,159,N,N,N,234,111022,,,Y,,Y,0,L,QV - Lawn 8/Janet Lady Clarke Rotunda
"{'lon': 144.97906793552542, 'lat': -37.81298697778184}","{'type': 'Feature', 'geometry': {'coordinates': [144.97906793552542, -37.81298697778184], 'type': 'Point'}, 'properties': {}}",103807,N,Fitzroy Gardens,0.0,Y,Fitzroy Gardens:  FT - Lawn 16/Plane Trees Walk,0,N,N,N,121,0,,,Y,,Y,0,M,FT - Lawn 16/Plane Trees Walk
"{'lon': 144.9760041522687, 'lat': -37.81495896271758}","{'type': 'Feature', 'geometry': {'coordinates': [144.9760041522687, -37.81495896271758], 'type': 'Point'}, 'properties': {}}",108996,N,Treasury Gardens,0.0,Y,Treasury Gardens:  TG - Lawn 4,0,N,N,N,294,0,,,Y,,Y,0,M,TG - Lawn 4
"{'lon': 144.98224942953067, 'lat': -37.81325219530026}","{'type': 'Feature', 'geometry': {'coordinates': [144.98224942953067, -37.81325219530026], 'type': 'Point'}, 'properties': {}}",103807,N,Fitzroy Gardens,85.63768375,Y,Fitzroy Gardens:  FT - Lawn 19,173,Y,N,N,124,111456,,,Y,,Y,0,M,FT - Lawn 19
"{'lon': 144.9685428864335, 'lat': -37.82575943488854}","{'type': 'Feature', 'geometry': {'coordinates': [144.9685428864335, -37.82575943488854], 'type': 'Point'}, 'properties': {}}",0,N,Other Park Locations,8.22487985,Y,Other Park Locations:  Grant St Reserve,5,N,N,N,364,108656,,,Y,,N,22824,L,Grant St Reserve
"{'lon': 144.9602987202407, 'lat': -37.800998173908575}","{'type': 'Feature', 'geometry': {'coordinates': [144.9602987202407, -37.800998173908575], 'type': 'Point'}, 'properties': {}}",107552,N,Other Park Locations,65.5112548,Y,Other Park Locations:  University Square,169,Y,N,N,400,502486,,,Y,,N,0,L,University Square
"{'lon': 144.95524934044755, 'lat': -37.82664251858025}","{'type': 'Feature', 'geometry': {'coordinates': [144.95524934044755, -37.82664251858025], 'type': 'Point'}, 'properties': {}}",624055,N,Other Park Locations,14.63335226,Y,Other Park Locations:  Normanby Road Reserve,58,N,N,N,382,624055,,,Y,,N,0,L,Normanby Road Reserve
"{'lon': 144.95044984461694, 'lat': -37.79953758061649}","{'type': 'Feature', 'geometry': {'coordinates': [144.95044984461694, -37.79953758061649], 'type': 'Point'}, 'properties': {}}",103485,N,Other Park Locations,32.62300772,Y,Other Park Locations:  Errol St Reserve,172,N,N,N,358,103453,,,Y,,N,0,L,Errol St Reserve
"{'lon': 144.94131177323902, 'lat': -37.799055317643926}","{'type': 'Feature', 'geometry': {'coordinates': [144.94131177323902, -37.799055317643926], 'type': 'Point'}, 'properties': {}}",100514,N,Other Park Locations,0.0,Y,Other Park Locations:  North Melbourne Recreation Reserve,0,N,N,Y,1248,0,,,Y,,N,0,L,North Melbourne Recreation Reserve
"{'lon': 144.94909109002268, 'lat': -37.805459724438954}","{'type': 'Feature', 'geometry': {'coordinates': [144.94909109002268, -37.805459724438954], 'type': 'Point'}, 'properties': {}}",104709,N,Other Park Locations,3.71520312,Y,"Other Park Locations:  Hawke, King & Victoria St Reserve",123,N,N,N,368,104709,,,Y,,N,0,L,"Hawke, King & Victoria St Reserve"
"{'lon': 144.97923176374886, 'lat': -37.81146168205138}","{'type': 'Feature', 'geometry': {'coordinates': [144.97923176374886, -37.81146168205138], 'type': 'Point'}, 'properties': {}}",103807,N,Fitzroy Gardens,0.0,N,Fitzroy Gardens:  FT - Lawn 12,0,N,N,N,117,0,,,Y,,Y,0,M,FT - Lawn 12
"{'lon': 144.9840541673097, 'lat': -37.83979471792946}","{'type': 'Feature', 'geometry': {'coordinates': [144.9840541673097, -37.83979471792946], 'type': 'Point'}, 'properties': {}}",103756,Y,Fawkner Park,0.0,N,Fawkner Park:  FP - Lawn 13_SB9_SB10_Cs7_SUB3,0,N,N,N,82,0,Y,,Y,,N,0,M,FP - Lawn 13_SB9_SB10_Cs7_SUB3
"{'lon': 144.97306989164414, 'lat': -37.80021407728376}","{'type': 'Feature', 'geometry': {'coordinates': [144.97306989164414, -37.80021407728376], 'type': 'Point'}, 'properties': {}}",106828,N,Other Park Locations,24.86003702,Y,Other Park Locations:  Murchison Square,79,N,N,N,381,524046,,,Y,,N,0,L,Murchison Square
"{'lon': 144.96288089932796, 'lat': -37.80241985976288}","{'type': 'Feature', 'geometry': {'coordinates': [144.96288089932796, -37.80241985976288], 'type': 'Point'}, 'properties': {}}",101264,Y,Other Park Locations,82.9730718,Y,Other Park Locations:  Lincoln Square - includes Bali Memorial,341,Y,N,N,377,621145,,,Y,,N,0,L,Lincoln Square - includes Bali Memorial
"{'lon': 144.98229287122496, 'lat': -37.81257102411102}","{'type': 'Feature', 'geometry': {'coordinates': [144.98229287122496, -37.81257102411102], 'type': 'Point'}, 'properties': {}}",103807,N,Fitzroy Gardens,96.01036777,N,Fitzroy Gardens:  FT- Lawn 18/Temple of the Winds,339,N,N,N,140,102006,,,Y,,Y,0,M,FT- Lawn 18/Temple of the Winds
"{'lon': 144.98373298006237, 'lat': -37.840740868214844}","{'type': 'Feature', 'geometry': {'coordinates': [144.98373298006237, -37.840740868214844], 'type': 'Point'}, 'properties': {}}",103756,Y,Fawkner Park,0.0,Y,Fawkner Park:  FP - Lawn 14_SUB2_Grass Netball Courts,0,N,N,N,60,0,Y,,Y,,N,0,M,FP - Lawn 14_SUB2_Grass Netball Courts
"{'lon': 144.96068893885598, 'lat': -37.78969724504652}","{'type': 'Feature', 'geometry': {'coordinates': [144.96068893885598, -37.78969724504652], 'type': 'Point'}, 'properties': {}}",107696,N,Princes Park,0.0,N,Princes Park:  PP - Crawford_Ct3_F2,0,N,N,Y,208,0,Y,,Y,,N,0,M,PP - Crawford_Ct3_F2
"{'lon': 144.94862438795033, 'lat': -37.80518674164739}","{'type': 'Feature', 'geometry': {'coordinates': [144.94862438795033, -37.80518674164739], 'type': 'Point'}, 'properties': {}}",110911,N,Other Park Locations,1.7382153,Y,"Other Park Locations:  Hawke, King & Errol St Reserve",234,N,N,N,367,110911,,,Y,,N,0,L,"Hawke, King & Errol St Reserve"
"{'lon': 144.98237744450677, 'lat': -37.84179927057013}","{'type': 'Feature', 'geometry': {'coordinates': [144.98237744450677, -37.84179927057013], 'type': 'Point'}, 'properties': {}}",103756,N,Fawkner Park,0.0,N,Fawkner Park:  FP - Lawn 16 North West_SB6_Cs6,0,N,N,N,89,0,Y,,Y,,N,0,M,FP - Lawn 16 North West_SB6_Cs6
"{'lon': 144.9655258951844, 'lat': -37.807254494588605}","{'type': 'Feature', 'geometry': {'coordinates': [144.9655258951844, -37.807254494588605], 'type': 'Point'}, 'properties': {}}",110910,N,Other Park Locations,1.68342765,Y,Other Park Locations:  Eight Hour Reserve,115,N,N,N,356,110910,,,Y,,N,0,L,Eight Hour Reserve
"{'lon': 144.97400108745657, 'lat': -37.8256038979912}","{'type': 'Feature', 'geometry': {'coordinates': [144.97400108745657, -37.8256038979912], 'type': 'Point'}, 'properties': {}}",108615,N,Kings Domain,87.8359753,Y,Kings Domain:  KD - Lawn 6,41,N,N,N,181,529525,,,Y,,Y,0,M,KD - Lawn 6
"{'lon': 144.95138817821424, 'lat': -37.80722985858516}","{'type': 'Feature', 'geometry': {'coordinates': [144.95138817821424, -37.80722985858516], 'type': 'Point'}, 'properties': {}}",103031,Y,Other Park Locations,28.88152155,Y,Other Park Locations:  Eades Park,240,N,N,N,355,511025,,,Y,,N,0,L,Eades Park
"{'lon': 144.96152285042714, 'lat': -37.78533714442047}","{'type': 'Feature', 'geometry': {'coordinates': [144.96152285042714, -37.78533714442047], 'type': 'Point'}, 'properties': {}}",107696,N,Princes Park,0.0,N,Princes Park:  PP - Jogging Track,0,N,N,Y,204,0,Y,,Y,,N,0,M,PP - Jogging Track
"{'lon': 144.98221959000998, 'lat': -37.81421592609631}","{'type': 'Feature', 'geometry': {'coordinates': [144.98221959000998, -37.81421592609631], 'type': 'Point'}, 'properties': {}}",103807,N,Fitzroy Gardens,74.99067918,N,Fitzroy Gardens:  FT - Lawn 20,353,N,N,N,125,102010,,,Y,,Y,0,M,FT - Lawn 20
"{'lon': 144.97922588127173, 'lat': -37.81366726003603}","{'type': 'Feature', 'geometry': {'coordinates': [144.97922588127173, -37.81366726003603], 'type': 'Point'}, 'properties': {}}",103807,N,Fitzroy Gardens,75.69132777,N,Fitzroy Gardens:  FT - Lawn 23,219,N,N,N,128,111454,,,Y,,Y,0,M,FT - Lawn 23
"{'lon': 144.9442602128394, 'lat': -37.7835554018556}","{'type': 'Feature', 'geometry': {'coordinates': [144.9442602128394, -37.7835554018556], 'type': 'Point'}, 'properties': {}}",107426,N,Royal Park,1.92265838,N,Royal Park:  RP - Ross Straw Pavilion,347,N,N,N,279,622034,Y,,Y,,N,0,L,RP - Ross Straw Pavilion
"{'lon': 144.94071830480414, 'lat': -37.820390798392886}","{'type': 'Feature', 'geometry': {'coordinates': [144.94071830480414, -37.820390798392886], 'type': 'Point'}, 'properties': {}}",651910,N,Docklands,36.44455572,Y,Docklands:  Parks:  Buluk Park,308,N,N,N,1627,651910,N,,Y,Buluk Park,N,0,L,Parks
"{'lon': 144.9639539668349, 'lat': -37.81016918630516}","{'type': 'Feature', 'geometry': {'coordinates': [144.9639539668349, -37.81016918630516], 'type': 'Point'}, 'properties': {}}",0,N,Promotional Spaces,18.70816243,N,Promotional Spaces:  Melbourne Central Station - Swanston Street,279,N,N,N,542,532307,,,Y,,N,20161,,Melbourne Central Station - Swanston Street
"{'lon': 144.97160935341145, 'lat': -37.82501390648506}","{'type': 'Feature', 'geometry': {'coordinates': [144.97160935341145, -37.82501390648506], 'type': 'Point'}, 'properties': {}}",108615,N,Tom's Block,0.0,Y,Tom's Block:  Tom's Block,0,Y,N,N,420,0,,,Y,,N,0,M,Tom's Block
"{'lon': 144.95531877123642, 'lat': -37.77855677831291}","{'type': 'Feature', 'geometry': {'coordinates': [144.95531877123642, -37.77855677831291], 'type': 'Point'}, 'properties': {}}",107426,N,Royal Park,0.0,N,Royal Park:  RP - Lawn 9_Ransford Ct_F2_L3,0,N,N,N,268,0,Y,,Y,,N,0,L,RP - Lawn 9_Ransford Ct_F2_L3
"{'lon': 144.98200532503284, 'lat': -37.812010691974855}","{'type': 'Feature', 'geometry': {'coordinates': [144.98200532503284, -37.812010691974855], 'type': 'Point'}, 'properties': {}}",103807,Y,Fitzroy Gardens,0.0,Y,Fitzroy Gardens:  FT - Lawn 9/Old Bandstand,0,N,N,N,137,0,,,Y,,Y,0,M,FT - Lawn 9/Old Bandstand
"{'lon': 144.9554621837315, 'lat': -37.78557214679238}","{'type': 'Feature', 'geometry': {'coordinates': [144.9554621837315, -37.78557214679238], 'type': 'Point'}, 'properties': {}}",107426,N,Royal Park,0.0,N,Royal Park:  RP - Lawn 6_Walker_M1,0,N,N,N,278,0,Y,,Y,,N,0,L,RP - Lawn 6_Walker_M1
"{'lon': 144.98237744450677, 'lat': -37.84179927057013}","{'type': 'Feature', 'geometry': {'coordinates': [144.98237744450677, -37.84179927057013], 'type': 'Point'}, 'properties': {}}",103756,N,Fawkner Park,0.0,N,Fawkner Park:  FP - Lawn 16 South West_Cs4_S1,0,N,N,N,90,0,Y,,Y,,N,0,M,FP - Lawn 16 South West_Cs4_S1
"{'lon': 144.97341493739142, 'lat': -37.812775775186815}","{'type': 'Feature', 'geometry': {'coordinates': [144.97341493739142, -37.812775775186815], 'type': 'Point'}, 'properties': {}}",108981,N,Promotional Spaces,36.986586,N,Promotional Spaces:  Parliament Station,118,N,N,N,748,531157,,,Y,,N,0,,Parliament Station
"{'lon': 144.9427921184255, 'lat': -37.78398401734769}","{'type': 'Feature', 'geometry': {'coordinates': [144.9427921184255, -37.78398401734769], 'type': 'Point'}, 'properties': {}}",107426,Y,Royal Park,0.0,N,Royal Park:  RP - Ross Straw Field 1 Nth_Ct,0,N,N,N,262,0,Y,,Y,,N,0,L,RP - Ross Straw Field 1 Nth_Ct
"{'lon': 144.95321923431288, 'lat': -37.80977855324393}","{'type': 'Feature', 'geometry': {'coordinates': [144.95321923431288, -37.80977855324393], 'type': 'Point'}, 'properties': {}}",102942,N,Flagstaff Gardens,64.79969374,Y,Flagstaff Gardens:  FG - Lawn 1,184,Y,N,N,148,105328,,,Y,,N,0,M,FG - Lawn 1
"{'lon': 144.9769888623327, 'lat': -37.82544855256293}","{'type': 'Feature', 'geometry': {'coordinates': [144.9769888623327, -37.82544855256293], 'type': 'Point'}, 'properties': {}}",108615,N,Kings Domain,0.0,Y,Kings Domain:  KD - Grotto,0,N,N,N,199,0,,,Y,,N,0,M,KD - Grotto
"{'lon': 144.9818422834418, 'lat': -37.81106886037066}","{'type': 'Feature', 'geometry': {'coordinates': [144.9818422834418, -37.81106886037066], 'type': 'Point'}, 'properties': {}}",103807,N,Fitzroy Gardens,0.0,Y,Fitzroy Gardens:  FT - Lawn 7,0,Y,N,N,112,0,,,Y,,Y,0,M,FT - Lawn 7
"{'lon': 144.97167207484955, 'lat': -37.8062220021546}","{'type': 'Feature', 'geometry': {'coordinates': [144.97167207484955, -37.8062220021546], 'type': 'Point'}, 'properties': {}}",108268,N,Carlton Gardens,72.92859882,N,Carlton Gardens:  CG - Lawn 17,223,N,N,N,35,546082,,,Y,,Y,0,L,CG - Lawn 17
"{'lon': 144.94591426383275, 'lat': -37.8185275492596}","{'type': 'Feature', 'geometry': {'coordinates': [144.94591426383275, -37.8185275492596], 'type': 'Point'}, 'properties': {}}",611788,N,Docklands,67.23392979,Y,Docklands:  All Other Spaces:  NAB forecourt,13,N,N,N,1394,600824,,,Y,NAB forecourt,N,23299,,All Other Spaces
"{'lon': 144.97311873626808, 'lat': -37.82085534193359}","{'type': 'Feature', 'geometry': {'coordinates': [144.97311873626808, -37.82085534193359], 'type': 'Point'}, 'properties': {}}",101101,N,Alexandra Gardens,24.78418123,Y,Alexandra Gardens:  AG - Dorchester Lawn,199,N,N,N,8,503001,,,Y,,N,0,H,AG - Dorchester Lawn
"{'lon': 144.976067122562, 'lat': -37.82511501234561}","{'type': 'Feature', 'geometry': {'coordinates': [144.976067122562, -37.82511501234561], 'type': 'Point'}, 'properties': {}}",108615,N,Kings Domain,0.0,Y,Kings Domain:  KD - Pioneer Women's Memorial,0,N,N,N,198,0,,,Y,,Y,0,M,KD - Pioneer Women's Memorial
"{'lon': 144.9740936152342, 'lat': -37.79315160624854}","{'type': 'Feature', 'geometry': {'coordinates': [144.9740936152342, -37.79315160624854], 'type': 'Point'}, 'properties': {}}",106893,N,Other Park Locations,11.21226994,Y,Other Park Locations:  Canning St Reserve (Neill St),279,N,N,N,348,580223,,,Y,,N,0,L,Canning St Reserve (Neill St)
"{'lon': 144.9543185279741, 'lat': -37.81054114458603}","{'type': 'Feature', 'geometry': {'coordinates': [144.9543185279741, -37.81054114458603], 'type': 'Point'}, 'properties': {}}",102942,N,Flagstaff Gardens,98.30666989,Y,Flagstaff Gardens:  FG - Lawn 7/Outdoor Stage,45,N,N,N,154,102941,,,Y,,Y,0,M,FG - Lawn 7/Outdoor Stage
"{'lon': 144.96125685811245, 'lat': -37.7854898349368}","{'type': 'Feature', 'geometry': {'coordinates': [144.96125685811245, -37.7854898349368], 'type': 'Point'}, 'properties': {}}",107696,N,Princes Park,0.0,N,Princes Park:  PP - Ct1_F1,0,N,N,N,205,0,Y,,Y,,N,0,M,PP - Ct1_F1
"{'lon': 144.97523037379176, 'lat': -37.81141955860035}","{'type': 'Feature', 'geometry': {'coordinates': [144.97523037379176, -37.81141955860035], 'type': 'Point'}, 'properties': {}}",107431,N,Other Park Locations,16.24877343,Y,Other Park Locations:  Burston Reserve,37,N,N,N,345,107431,,,Y,,N,0,L,Burston Reserve
"{'lon': 144.97200059019704, 'lat': -37.80696891171134}","{'type': 'Feature', 'geometry': {'coordinates': [144.97200059019704, -37.80696891171134], 'type': 'Point'}, 'properties': {}}",108268,N,Carlton Gardens,89.93045975,N,Carlton Gardens:  CG - Lawn 19,159,N,N,N,37,546082,,,Y,,Y,0,L,CG - Lawn 19
"{'lon': 144.9820236336056, 'lat': -37.815122798700756}","{'type': 'Feature', 'geometry': {'coordinates': [144.9820236336056, -37.815122798700756], 'type': 'Point'}, 'properties': {}}",103807,N,Fitzroy Gardens,78.77163579,N,Fitzroy Gardens:  FT - Lawn 30,356,N,N,N,136,102013,,,Y,,Y,0,M,FT - Lawn 30
"{'lon': 144.91366744937145, 'lat': -37.802449157916314}","{'type': 'Feature', 'geometry': {'coordinates': [144.91366744937145, -37.802449157916314], 'type': 'Point'}, 'properties': {}}",102986,N,Other Park Locations,99.1742364,Y,Other Park Locations:  Wildlife Reserve,89,N,N,N,405,102987,,,Y,,N,0,L,Wildlife Reserve
"{'lon': 144.98125044044048, 'lat': -37.84409411042584}","{'type': 'Feature', 'geometry': {'coordinates': [144.98125044044048, -37.84409411042584], 'type': 'Point'}, 'properties': {}}",103756,N,Fawkner Park,0.0,N,Fawkner Park:  FP - Lawn 20 West_T9_T6_Cs1_M1,0,N,N,Y,72,0,Y,,Y,,N,0,M,FP - Lawn 20 West_T9_T6_Cs1_M1
"{'lon': 144.97385088402874, 'lat': -37.82111847849652}","{'type': 'Feature', 'geometry': {'coordinates': [144.97385088402874, -37.82111847849652], 'type': 'Point'}, 'properties': {}}",101101,N,Alexandra Gardens,90.69921323,Y,Alexandra Gardens:  AG - Palm Lawn,167,Y,N,N,435,503001,,,Y,,N,0,H,AG - Palm Lawn
"{'lon': 144.96257078751347, 'lat': -37.78589363291953}","{'type': 'Feature', 'geometry': {'coordinates': [144.96257078751347, -37.78589363291953], 'type': 'Point'}, 'properties': {}}",107696,N,Princes Park,0.0,N,Princes Park:  PP - Nets (2) Tennis Courts,0,N,N,N,1342,0,Y,,Y,,N,0,M,PP - Nets (2) Tennis Courts
"{'lon': 144.92264481163645, 'lat': -37.79804493075953}","{'type': 'Feature', 'geometry': {'coordinates': [144.92264481163645, -37.79804493075953], 'type': 'Point'}, 'properties': {}}",105220,N,Holland Park,93.93444073,N,Holland Park:  HP - Ct_F1,97,N,N,Y,172,517639,Y,,Y,,N,0,M,HP - Ct_F1
"{'lon': 144.97903255227487, 'lat': -37.83991854635422}","{'type': 'Feature', 'geometry': {'coordinates': [144.97903255227487, -37.83991854635422], 'type': 'Point'}, 'properties': {}}",103756,N,Fawkner Park,0.0,Y,Fawkner Park:  FP - Lawn 18_SB4_SB3_S4,0,N,N,Y,64,0,Y,,Y,,N,0,M,FP - Lawn 18_SB4_SB3_S4
"{'lon': 144.94373386693263, 'lat': -37.79911472938728}","{'type': 'Feature', 'geometry': {'coordinates': [144.94373386693263, -37.79911472938728], 'type': 'Point'}, 'properties': {}}",102913,Y,Other Park Locations,29.86978579,Y,Other Park Locations:  Gardiner Reserve,29,N,N,N,360,102913,,,Y,,N,0,L,Gardiner Reserve
"{'lon': 144.94759906602815, 'lat': -37.79219451711191}","{'type': 'Feature', 'geometry': {'coordinates': [144.94759906602815, -37.79219451711191], 'type': 'Point'}, 'properties': {}}",107426,N,Royal Park,0.0,N,Royal Park:  RP - Lawn 13_Flem Road_Cs1_S3,0,N,N,N,257,0,Y,,Y,,N,0,L,RP - Lawn 13_Flem Road_Cs1_S3
"{'lon': 144.95392976581286, 'lat': -37.78700392266655}","{'type': 'Feature', 'geometry': {'coordinates': [144.95392976581286, -37.78700392266655], 'type': 'Point'}, 'properties': {}}",107426,N,Royal Park,0.0,N,Royal Park:  RP - Lawn 6_Brens Ct_F4,0,N,N,N,253,0,Y,,Y,,N,0,L,RP - Lawn 6_Brens Ct_F4
"{'lon': 144.97139212312234, 'lat': -37.80150919771168}","{'type': 'Feature', 'geometry': {'coordinates': [144.97139212312234, -37.80150919771168], 'type': 'Point'}, 'properties': {}}",108269,N,Carlton Gardens,76.41511683,Y,Carlton Gardens:  CG - Lawn 1,83,N,N,N,19,101721,,,Y,,Y,0,L,CG - Lawn 1
"{'lon': 144.95360614269848, 'lat': -37.806440465708}","{'type': 'Feature', 'geometry': {'coordinates': [144.95360614269848, -37.806440465708], 'type': 'Point'}, 'properties': {}}",0,N,Other Park Locations,19.5985749,Y,Other Park Locations:  Howard & William St Reserve,343,N,N,N,370,110138,,,Y,,N,21382,L,Howard & William St Reserve
"{'lon': 144.9650858092593, 'lat': -37.81968991950801}","{'type': 'Feature', 'geometry': {'coordinates': [144.9650858092593, -37.81968991950801], 'type': 'Point'}, 'properties': {}}",598987,N,Promotional Spaces,22.26558689,N,Promotional Spaces:  Southbank Pedestrian Bridge,247,N,N,N,792,111240,,,Y,,N,22568,,Southbank Pedestrian Bridge
"{'lon': 144.94461367085572, 'lat': -37.82189961767696}","{'type': 'Feature', 'geometry': {'coordinates': [144.94461367085572, -37.82189961767696], 'type': 'Point'}, 'properties': {}}",624154,N,Docklands,39.12898723,Y,Docklands:  All Other Spaces:  Collins Landing,47,N,N,N,1617,624154,,,Y,Collins Landing,N,23301,,All Other Spaces
"{'lon': 144.97640202807304, 'lat': -37.81363858190839}","{'type': 'Feature', 'geometry': {'coordinates': [144.97640202807304, -37.81363858190839], 'type': 'Point'}, 'properties': {}}",108996,N,Treasury Gardens,85.55440357,Y,Treasury Gardens:  TG - Lawn 5/JFK Memorial,118,N,N,N,298,109545,,,Y,,Y,0,M,TG - Lawn 5/JFK Memorial
"{'lon': 144.97510003291222, 'lat': -37.82584897603365}","{'type': 'Feature', 'geometry': {'coordinates': [144.97510003291222, -37.82584897603365], 'type': 'Point'}, 'properties': {}}",108615,N,Kings Domain,84.90757598,Y,Kings Domain:  KD - Lawn 7/Gazebo,104,N,N,N,197,529524,,,Y,,Y,0,M,KD - Lawn 7/Gazebo
"{'lon': 144.97202512594478, 'lat': -37.823845823878564}","{'type': 'Feature', 'geometry': {'coordinates': [144.97202512594478, -37.823845823878564], 'type': 'Point'}, 'properties': {}}",108615,N,Kings Domain,0.0,Y,Kings Domain:  KD - Lawn 3,0,Y,N,N,177,0,,,Y,,N,0,M,KD - Lawn 3
"{'lon': 144.94447700468683, 'lat': -37.8152469130705}","{'type': 'Feature', 'geometry': {'coordinates': [144.94447700468683, -37.8152469130705], 'type': 'Point'}, 'properties': {}}",611785,N,Docklands,15.01484336,Y,Docklands:  Promotional Sites:  2.Harbour Esplanade North,20,N,N,N,1224,611785,,,Y,2.Harbour Esplanade North,N,22452,,Promotional Sites
"{'lon': 144.98237744450677, 'lat': -37.84179927057013}","{'type': 'Feature', 'geometry': {'coordinates': [144.98237744450677, -37.84179927057013], 'type': 'Point'}, 'properties': {}}",103756,N,Fawkner Park,0.0,N,Fawkner Park:  FP - Lawn 16 North East_SB5_Cs5,0,N,N,N,62,0,Y,,Y,,N,0,M,FP - Lawn 16 North East_SB5_Cs5
"{'lon': 144.97695462618063, 'lat': -37.81472178562492}","{'type': 'Feature', 'geometry': {'coordinates': [144.97695462618063, -37.81472178562492], 'type': 'Point'}, 'properties': {}}",108996,N,Treasury Gardens,81.34633198,Y,Treasury Gardens:  TG - Lawn 7,60,N,N,N,297,531039,,,Y,,Y,0,M,TG - Lawn 7
"{'lon': 144.9703669487038, 'lat': -37.821748399482225}","{'type': 'Feature', 'geometry': {'coordinates': [144.9703669487038, -37.821748399482225], 'type': 'Point'}, 'properties': {}}",111022,N,Queen Victoria Gardens,64.32289021,Y,Queen Victoria Gardens:  QV - Lawn 2,347,N,N,N,223,111022,,,Y,,Y,0,L,QV - Lawn 2
"{'lon': 144.97402280563833, 'lat': -37.81230536093349}","{'type': 'Feature', 'geometry': {'coordinates': [144.97402280563833, -37.81230536093349], 'type': 'Point'}, 'properties': {}}",108995,N,Other Park Locations,63.08410675,Y,Other Park Locations:  Gordon Reserve,196,N,N,N,363,543134,,,Y,,N,0,L,Gordon Reserve
"{'lon': 144.96748034393255, 'lat': -37.81814733672473}","{'type': 'Feature', 'geometry': {'coordinates': [144.96748034393255, -37.81814733672473], 'type': 'Point'}, 'properties': {}}",104034,N,Promotional Spaces,3.57963057,N,Promotional Spaces:  Flinders St Station,170,N,N,N,762,610669,,,Y,,N,22195,,Flinders St Station
"{'lon': 144.97208336442085, 'lat': -37.801873179409036}","{'type': 'Feature', 'geometry': {'coordinates': [144.97208336442085, -37.801873179409036], 'type': 'Point'}, 'properties': {}}",108269,N,Carlton Gardens,0.0,N,Carlton Gardens:  CG - Lawn 2,0,N,N,N,20,0,,,Y,,Y,0,L,CG - Lawn 2
"{'lon': 144.97094002506728, 'lat': -37.80248032934897}","{'type': 'Feature', 'geometry': {'coordinates': [144.97094002506728, -37.80248032934897], 'type': 'Point'}, 'properties': {}}",108269,N,Carlton Gardens,0.0,Y,Carlton Gardens:  CG - Lawn 4,0,N,N,N,22,0,,,Y,,Y,0,L,CG - Lawn 4
"{'lon': 144.95521917866634, 'lat': -37.77990471424554}","{'type': 'Feature', 'geometry': {'coordinates': [144.95521917866634, -37.77990471424554], 'type': 'Point'}, 'properties': {}}",107426,N,Royal Park,0.0,N,Royal Park:  RP - Lawn 9_Ryder Ct_S1,0,N,N,N,266,0,Y,,Y,,N,0,L,RP - Lawn 9_Ryder Ct_S1
"{'lon': 144.9671007316638, 'lat': -37.81592857180709}","{'type': 'Feature', 'geometry': {'coordinates': [144.9671007316638, -37.81592857180709], 'type': 'Point'}, 'properties': {}}",109419,N,Promotional Spaces,15.78783315,Y,Promotional Spaces:  City Square,212,N,N,N,824,655195,,,Y,,N,0,,City Square
"{'lon': 144.96173019375894, 'lat': -37.81080310058936}","{'type': 'Feature', 'geometry': {'coordinates': [144.96173019375894, -37.81080310058936], 'type': 'Point'}, 'properties': {}}",0,N,Promotional Spaces,20.15941462,N,Promotional Spaces:  Melbourne Central Station - Elizabeth Street,71,N,N,N,1364,601448,,,Y,,N,20169,,Melbourne Central Station - Elizabeth Street
"{'lon': 144.97016355027458, 'lat': -37.80664955602868}","{'type': 'Feature', 'geometry': {'coordinates': [144.97016355027458, -37.80664955602868], 'type': 'Point'}, 'properties': {}}",108268,N,Carlton Gardens,78.59724285,N,Carlton Gardens:  CG - Lawn 12,0,N,N,N,30,546082,,,Y,,Y,0,L,CG - Lawn 12
"{'lon': 144.94261415211434, 'lat': -37.78556955918817}","{'type': 'Feature', 'geometry': {'coordinates': [144.94261415211434, -37.78556955918817], 'type': 'Point'}, 'properties': {}}",107426,N,Royal Park,63.14398009,N,Royal Park:  RP - Ross Straw Field S5 (on Ross Straw BB),181,N,N,N,261,106428,Y,,Y,,N,0,L,RP - Ross Straw Field S5 (on Ross Straw BB)
"{'lon': 144.9239684670699, 'lat': -37.79114759202695}","{'type': 'Feature', 'geometry': {'coordinates': [144.9239684670699, -37.79114759202695], 'type': 'Point'}, 'properties': {}}",103363,N,Other Park Locations,38.73435411,Y,Other Park Locations:  Women's Peace Garden,128,N,N,N,406,541957,,,Y,,N,0,L,Women's Peace Garden
"{'lon': 144.9427921184255, 'lat': -37.78398401734769}","{'type': 'Feature', 'geometry': {'coordinates': [144.9427921184255, -37.78398401734769], 'type': 'Point'}, 'properties': {}}",107426,Y,Royal Park,0.0,N,Royal Park:  RP - Ross Straw Field B2 West,0,N,N,N,265,0,Y,,Y,,N,0,L,RP - Ross Straw Field B2 West
"{'lon': 144.955236671582, 'lat': -37.78697065657136}","{'type': 'Feature', 'geometry': {'coordinates': [144.955236671582, -37.78697065657136], 'type': 'Point'}, 'properties': {}}",107426,N,Royal Park,57.88822249,N,Royal Park:  RP - Lawn 6_Bourke and Wills,116,N,N,N,241,587540,Y,,Y,,N,0,L,RP - Lawn 6_Bourke and Wills
"{'lon': 144.92281116303351, 'lat': -37.78808540808589}","{'type': 'Feature', 'geometry': {'coordinates': [144.92281116303351, -37.78808540808589], 'type': 'Point'}, 'properties': {}}",618421,N,Newmarket Reserve,0.0,Y,Newmarket Reserve:  Newmarket Ct_S,0,N,N,N,1345,0,Y,,Y,,N,0,L,Newmarket Ct_S
"{'lon': 144.97156729933138, 'lat': -37.798366165372386}","{'type': 'Feature', 'geometry': {'coordinates': [144.97156729933138, -37.798366165372386], 'type': 'Point'}, 'properties': {}}",106290,N,Other Park Locations,10.18379338,Y,Other Park Locations:  Macarthur Square,70,N,N,N,378,106290,,,Y,,N,0,L,Macarthur Square
"{'lon': 144.9789180406222, 'lat': -37.81420217875374}","{'type': 'Feature', 'geometry': {'coordinates': [144.9789180406222, -37.81420217875374], 'type': 'Point'}, 'properties': {}}",103807,N,Fitzroy Gardens,35.42281515,Y,Fitzroy Gardens:  FT - Lawn 25,159,N,N,N,130,111454,,,Y,,Y,0,M,FT - Lawn 25
"{'lon': 144.9609096148945, 'lat': -37.790300580548156}","{'type': 'Feature', 'geometry': {'coordinates': [144.9609096148945, -37.790300580548156], 'type': 'Point'}, 'properties': {}}",107696,N,Princes Park,0.0,Y,Princes Park:  PP - Lawn 1_S4,0,Y,N,Y,214,0,Y,,Y,,N,0,M,PP - Lawn 1_S4
"{'lon': 144.93081887965192, 'lat': -37.79549541762062}","{'type': 'Feature', 'geometry': {'coordinates': [144.93081887965192, -37.79549541762062], 'type': 'Point'}, 'properties': {}}",0,Y,Other Park Locations,28.99477839,Y,Other Park Locations:  Bellair Street Reserve,157,N,N,N,344,100990,,,Y,,N,30582,L,Bellair Street Reserve
"{'lon': 144.97463978124, 'lat': -37.824767413750216}","{'type': 'Feature', 'geometry': {'coordinates': [144.97463978124, -37.824767413750216], 'type': 'Point'}, 'properties': {}}",108615,N,Kings Domain,38.86214775,Y,Kings Domain:  KD - Lawn 4,289,Y,N,N,179,529525,,,Y,,N,0,M,KD - Lawn 4
"{'lon': 144.9427921184255, 'lat': -37.78398401734769}","{'type': 'Feature', 'geometry': {'coordinates': [144.9427921184255, -37.78398401734769], 'type': 'Point'}, 'properties': {}}",107426,Y,Royal Park,0.0,N,Royal Park:  RP - Ross Straw Field 2 Sth_Ct,0,N,N,N,263,0,Y,,Y,,N,0,L,RP - Ross Straw Field 2 Sth_Ct
"{'lon': 144.97082104446253, 'lat': -37.80620609216334}","{'type': 'Feature', 'geometry': {'coordinates': [144.97082104446253, -37.80620609216334], 'type': 'Point'}, 'properties': {}}",108268,N,Carlton Gardens,54.57055686,N,Carlton Gardens:  CG - Lawn 11,294,N,N,N,29,546082,,,Y,,Y,0,L,CG - Lawn 11
"{'lon': 144.9782884163219, 'lat': -37.81387558368636}","{'type': 'Feature', 'geometry': {'coordinates': [144.9782884163219, -37.81387558368636], 'type': 'Point'}, 'properties': {}}",103807,N,Fitzroy Gardens,32.2586383,N,Fitzroy Gardens:  FT - Lawn 26,316,N,N,N,131,111454,,,Y,,Y,0,M,FT - Lawn 26
"{'lon': 144.97788337151445, 'lat': -37.837961944061746}","{'type': 'Feature', 'geometry': {'coordinates': [144.97788337151445, -37.837961944061746], 'type': 'Point'}, 'properties': {}}",103756,N,Fawkner Park,95.92767716,Y,Fawkner Park:  FP - Lawn 3,64,Y,N,Y,49,578355,N,,Y,,N,0,M,FP - Lawn 3
"{'lon': 144.9612333391193, 'lat': -37.78788013831968}","{'type': 'Feature', 'geometry': {'coordinates': [144.9612333391193, -37.78788013831968], 'type': 'Point'}, 'properties': {}}",107696,N,Princes Park,0.0,N,Princes Park:  PP -  S3,0,N,N,N,212,0,Y,,Y,,N,0,M,PP -  S3
"{'lon': 144.94493155458156, 'lat': -37.81836832504971}","{'type': 'Feature', 'geometry': {'coordinates': [144.94493155458156, -37.81836832504971], 'type': 'Point'}, 'properties': {}}",611788,N,Docklands,98.94673731,Y,Docklands:  All Other Spaces:  Victoria Harbour Promenade East,198,N,N,N,1313,611784,,,Y,Victoria Harbour Promenade East,N,23299,,All Other Spaces
"{'lon': 144.98130980829364, 'lat': -37.81511693244376}","{'type': 'Feature', 'geometry': {'coordinates': [144.98130980829364, -37.81511693244376], 'type': 'Point'}, 'properties': {}}",103807,N,Fitzroy Gardens,0.0,N,Fitzroy Gardens:  FT - Lawn 29,0,N,N,N,135,0,,,Y,,Y,0,M,FT - Lawn 29
"{'lon': 144.97631903062583, 'lat': -37.83686941272227}","{'type': 'Feature', 'geometry': {'coordinates': [144.97631903062583, -37.83686941272227], 'type': 'Point'}, 'properties': {}}",587425,N,Other Park Locations,31.95759795,Y,Other Park Locations:  Toorak & St Kilda Road,48,N,N,N,399,109540,,,Y,,N,0,L,Toorak & St Kilda Road
"{'lon': 144.96105370796076, 'lat': -37.77864670473415}","{'type': 'Feature', 'geometry': {'coordinates': [144.96105370796076, -37.77864670473415], 'type': 'Point'}, 'properties': {}}",107696,N,Princes Park,61.44025708,Y,Princes Park:  PP - Lawn 6,214,Y,N,N,219,526307,N,,Y,,N,0,M,PP - Lawn 6
"{'lon': 144.973021941446, 'lat': -37.82711468437653}","{'type': 'Feature', 'geometry': {'coordinates': [144.973021941446, -37.82711468437653], 'type': 'Point'}, 'properties': {}}",108615,N,Kings Domain,0.0,Y,Kings Domain:  KD - Lawn 12,0,Y,N,N,187,0,,,Y,,N,0,M,KD - Lawn 12
"{'lon': 144.95486089159274, 'lat': -37.81175509710494}","{'type': 'Feature', 'geometry': {'coordinates': [144.95486089159274, -37.81175509710494], 'type': 'Point'}, 'properties': {}}",102942,N,Flagstaff Gardens,0.0,Y,Flagstaff Gardens:  FG - Lawn 12,0,Y,N,N,159,0,,,Y,,N,0,M,FG - Lawn 12
"{'lon': 144.9234666007344, 'lat': -37.788470093709485}","{'type': 'Feature', 'geometry': {'coordinates': [144.9234666007344, -37.788470093709485], 'type': 'Point'}, 'properties': {}}",618421,N,Newmarket Reserve,53.29046812,N,Newmarket Reserve:  Newmarket Pavilion,330,N,N,N,1346,617780,Y,,Y,,N,0,L,Newmarket Pavilion
"{'lon': 144.9814109466398, 'lat': -37.81414491702501}","{'type': 'Feature', 'geometry': {'coordinates': [144.9814109466398, -37.81414491702501], 'type': 'Point'}, 'properties': {}}",103807,N,Fitzroy Gardens,84.89156771,Y,Fitzroy Gardens:  FT - Lawn 21,206,N,N,N,126,103808,,,Y,,Y,0,M,FT - Lawn 21
"{'lon': 144.98015573811645, 'lat': -37.81205157312452}","{'type': 'Feature', 'geometry': {'coordinates': [144.98015573811645, -37.81205157312452], 'type': 'Point'}, 'properties': {}}",103807,N,Fitzroy Gardens,0.0,Y,Fitzroy Gardens:  FT - Lawn 11/Dolphin Fountain/Bronze Boy & Urn,0,N,N,N,138,0,,,Y,,Y,0,M,FT - Lawn 11/Dolphin Fountain/Bronze Boy & Urn
"{'lon': 144.96425597799097, 'lat': -37.820379916209816}","{'type': 'Feature', 'geometry': {'coordinates': [144.96425597799097, -37.820379916209816], 'type': 'Point'}, 'properties': {}}",111302,N,Promotional Spaces,81.022573,Y,Promotional Spaces:  Southbank Spillway,360,N,N,N,823,596447,,,Y,,N,0,,Southbank Spillway
"{'lon': 144.98183534800913, 'lat': -37.83985718618082}","{'type': 'Feature', 'geometry': {'coordinates': [144.98183534800913, -37.83985718618082], 'type': 'Point'}, 'properties': {}}",103756,N,Fawkner Park,3.99128603,N,Fawkner Park:  FP - Northern Pavilion East,111,N,N,N,1355,587543,Y,,Y,,N,0,M,FP - Northern Pavilion East
"{'lon': 144.98036176101897, 'lat': -37.84207961445361}","{'type': 'Feature', 'geometry': {'coordinates': [144.98036176101897, -37.84207961445361], 'type': 'Point'}, 'properties': {}}",103756,N,Fawkner Park,0.0,N,Fawkner Park:  FP - Lawn 19 South_ T4_Ct5_S6,0,N,N,Y,74,0,Y,,Y,,N,0,M,FP - Lawn 19 South_ T4_Ct5_S6
"{'lon': 144.9574659757651, 'lat': -37.7888362464939}","{'type': 'Feature', 'geometry': {'coordinates': [144.9574659757651, -37.7888362464939], 'type': 'Point'}, 'properties': {}}",110940,N,Other Park Locations,39.4869707,Y,Other Park Locations:  Clunies Ross Reserve (The Avenue),264,N,N,N,352,110940,,,Y,,N,0,L,Clunies Ross Reserve (The Avenue)
"{'lon': 144.93911928904672, 'lat': -37.796358453208505}","{'type': 'Feature', 'geometry': {'coordinates': [144.93911928904672, -37.796358453208505], 'type': 'Point'}, 'properties': {}}",106339,N,Other Park Locations,42.40450422,Y,Other Park Locations:  Clayton Reserve,64,N,N,Y,351,106339,,,Y,,N,0,L,Clayton Reserve
"{'lon': 144.98036176101897, 'lat': -37.84207961445361}","{'type': 'Feature', 'geometry': {'coordinates': [144.98036176101897, -37.84207961445361], 'type': 'Point'}, 'properties': {}}",103756,N,Fawkner Park,0.0,N,Fawkner Park:  FP - Lawn 19 North_SB8_Ct1_S8_F1,0,N,N,Y,71,0,Y,,Y,,N,0,M,FP - Lawn 19 North_SB8_Ct1_S8_F1
"{'lon': 144.92516606031543, 'lat': -37.79852909808418}","{'type': 'Feature', 'geometry': {'coordinates': [144.92516606031543, -37.79852909808418], 'type': 'Point'}, 'properties': {}}",105220,Y,Holland Park,0.0,N,Holland Park:  HP - Football 2_Cs1,0,N,N,Y,173,0,Y,,Y,,N,0,M,HP - Football 2_Cs1
"{'lon': 144.9555041821315, 'lat': -37.80281698186015}","{'type': 'Feature', 'geometry': {'coordinates': [144.9555041821315, -37.80281698186015], 'type': 'Point'}, 'properties': {}}",110909,N,Other Park Locations,13.33835688,Y,Other Park Locations:  Bedford Street Reserve,137,N,N,N,343,110909,,,Y,,N,0,L,Bedford Street Reserve
"{'lon': 144.9703352067697, 'lat': -37.80567410509057}","{'type': 'Feature', 'geometry': {'coordinates': [144.9703352067697, -37.80567410509057], 'type': 'Point'}, 'properties': {}}",108268,N,Carlton Gardens,0.0,N,Carlton Gardens:  CG - Lawn 9,0,N,N,N,27,0,,,Y,,Y,0,L,CG - Lawn 9
"{'lon': 144.92442027151208, 'lat': -37.79764033693619}","{'type': 'Feature', 'geometry': {'coordinates': [144.92442027151208, -37.79764033693619], 'type': 'Point'}, 'properties': {}}",105220,N,Holland Park,0.0,Y,Holland Park:  HP - Soccer_Cs2_ Synthetic,0,N,N,N,169,0,Y,,Y,,N,0,M,HP - Soccer_Cs2_ Synthetic
"{'lon': 144.92390716229923, 'lat': -37.79850806274544}","{'type': 'Feature', 'geometry': {'coordinates': [144.92390716229923, -37.79850806274544], 'type': 'Point'}, 'properties': {}}",105220,Y,Holland Park,0.0,N,Holland Park:  HP - Running Track,0,N,N,Y,1361,0,Y,,Y,,N,0,M,HP - Running Track
"{'lon': 144.9798491967805, 'lat': -37.81412407658255}","{'type': 'Feature', 'geometry': {'coordinates': [144.9798491967805, -37.81412407658255], 'type': 'Point'}, 'properties': {}}",103807,N,Fitzroy Gardens,51.77449546,Y,Fitzroy Gardens:  FT - Lawn 24/Boy on a Turtle,235,N,N,N,143,111453,,,Y,,Y,0,M,FT - Lawn 24/Boy on a Turtle
"{'lon': 144.98258173896897, 'lat': -37.82623562362023}","{'type': 'Feature', 'geometry': {'coordinates': [144.98258173896897, -37.82623562362023], 'type': 'Point'}, 'properties': {}}",0,N,Other Park Locations,0.0,Y,Other Park Locations:  Stapley Parade Reserve,0,N,N,N,395,0,,,Y,,N,22644,L,Stapley Parade Reserve
"{'lon': 144.98237744450677, 'lat': -37.84179927057013}","{'type': 'Feature', 'geometry': {'coordinates': [144.98237744450677, -37.84179927057013], 'type': 'Point'}, 'properties': {}}",103756,N,Fawkner Park,0.0,N,Fawkner Park:  FP - Lawn 16 South East_T10_S5,0,N,N,N,91,0,Y,,Y,,N,0,M,FP - Lawn 16 South East_T10_S5
"{'lon': 144.97372963396307, 'lat': -37.82764499797872}","{'type': 'Feature', 'geometry': {'coordinates': [144.97372963396307, -37.82764499797872], 'type': 'Point'}, 'properties': {}}",111029,N,Kings Domain,90.53486025,Y,Kings Domain:  KD - Lawn 13,18,N,N,N,188,111030,,,Y,,N,0,M,KD - Lawn 13
"{'lon': 144.9375827252431, 'lat': -37.81566820528829}","{'type': 'Feature', 'geometry': {'coordinates': [144.9375827252431, -37.81566820528829], 'type': 'Point'}, 'properties': {}}",632876,N,Docklands,20.12623365,Y,Docklands:  Parks:  Quay Park,297,N,N,N,1576,632880,N,,Y,Quay Park,N,0,L,Parks
"{'lon': 144.95316579832524, 'lat': -37.79596016662455}","{'type': 'Feature', 'geometry': {'coordinates': [144.95316579832524, -37.79596016662455], 'type': 'Point'}, 'properties': {}}",103910,Y,Other Park Locations,63.2028553,Y,Other Park Locations:  Ievers Reserve,324,N,N,N,371,107255,,,Y,,N,0,L,Ievers Reserve
"{'lon': 144.98360246627576, 'lat': -37.8440435375902}","{'type': 'Feature', 'geometry': {'coordinates': [144.98360246627576, -37.8440435375902], 'type': 'Point'}, 'properties': {}}",103756,N,Fawkner Park,77.17142923,N,Fawkner Park:  FP - Lawn 22_Cs3_S2,2,N,N,Y,68,107448,Y,,Y,,N,0,M,FP - Lawn 22_Cs3_S2
"{'lon': 144.95675744610313, 'lat': -37.778734622101226}","{'type': 'Feature', 'geometry': {'coordinates': [144.95675744610313, -37.778734622101226], 'type': 'Point'}, 'properties': {}}",107426,N,Royal Park,0.0,N,Royal Park:  RP - Lawn 9_McAlister Ct_F3,0,N,N,N,270,0,Y,,Y,,N,0,L,RP - Lawn 9_McAlister Ct_F3
"{'lon': 144.96124036180393, 'lat': -37.78664887784743}","{'type': 'Feature', 'geometry': {'coordinates': [144.96124036180393, -37.78664887784743], 'type': 'Point'}, 'properties': {}}",107696,N,Princes Park,0.0,N,Princes Park:  PP - Lawn 2_Summer Touch (6),0,N,N,N,215,0,Y,,Y,,N,0,M,PP - Lawn 2_Summer Touch (6)
"{'lon': 144.95940887405254, 'lat': -37.82023449697838}","{'type': 'Feature', 'geometry': {'coordinates': [144.95940887405254, -37.82023449697838], 'type': 'Point'}, 'properties': {}}",103973,N,Enterprise Park,51.92617301,Y,Enterprise Park:  EP - Lawn 2,165,N,N,N,45,602950,,,Y,,N,0,H,EP - Lawn 2
"{'lon': 144.9673606957155, 'lat': -37.828688522604}","{'type': 'Feature', 'geometry': {'coordinates': [144.9673606957155, -37.828688522604], 'type': 'Point'}, 'properties': {}}",111526,N,Other Park Locations,1.87644942,Y,Other Park Locations:  Miles & Dodds St Reserve,161,N,N,N,380,111526,,,Y,,N,0,L,Miles & Dodds St Reserve
"{'lon': 144.98172146083033, 'lat': -37.84314053115123}","{'type': 'Feature', 'geometry': {'coordinates': [144.98172146083033, -37.84314053115123], 'type': 'Point'}, 'properties': {}}",103756,N,Fawkner Park,3.76647007,N,Fawkner Park:  FP - Southern Pavilion Social Area,242,N,N,Y,428,587544,Y,,Y,,N,0,M,FP - Southern Pavilion Social Area
"{'lon': 144.9725910031422, 'lat': -37.80961913141845}","{'type': 'Feature', 'geometry': {'coordinates': [144.9725910031422, -37.80961913141845], 'type': 'Point'}, 'properties': {}}",105667,N,Other Park Locations,14.50985324,Y,Other Park Locations:  Gillott Reserve,217,N,N,N,361,105667,,,Y,,N,0,L,Gillott Reserve
"{'lon': 144.97272275612292, 'lat': -37.80655618975174}","{'type': 'Feature', 'geometry': {'coordinates': [144.97272275612292, -37.80655618975174], 'type': 'Point'}, 'properties': {}}",108268,N,Carlton Gardens,0.0,N,Carlton Gardens:  CG - Lawn 21,0,N,N,N,39,0,,,Y,,Y,0,L,CG - Lawn 21
"{'lon': 144.97065806608953, 'lat': -37.82274632124668}","{'type': 'Feature', 'geometry': {'coordinates': [144.97065806608953, -37.82274632124668], 'type': 'Point'}, 'properties': {}}",111022,N,Queen Victoria Gardens,0.0,N,Queen Victoria Gardens:  QV - Lawn 11/Floral Clock,0,N,N,N,235,0,,,Y,,Y,0,L,QV - Lawn 11/Floral Clock
"{'lon': 144.96131042982304, 'lat': -37.78069121952157}","{'type': 'Feature', 'geometry': {'coordinates': [144.96131042982304, -37.78069121952157], 'type': 'Point'}, 'properties': {}}",107696,N,Princes Park,0.0,Y,Princes Park:  PP - Lawn 5 (DOG OFF LEASH),0,N,N,Y,218,0,N,,Y,,N,0,M,PP - Lawn 5 (DOG OFF LEASH)
"{'lon': 144.9729865712068, 'lat': -37.80165263164489}","{'type': 'Feature', 'geometry': {'coordinates': [144.9729865712068, -37.80165263164489], 'type': 'Point'}, 'properties': {}}",108269,N,Carlton Gardens,73.72515164,N,Carlton Gardens:  CG - Lawn 3,83,N,N,N,21,101736,,,Y,,Y,0,L,CG - Lawn 3
"{'lon': 144.96588887966234, 'lat': -37.80243730306906}","{'type': 'Feature', 'geometry': {'coordinates': [144.96588887966234, -37.80243730306906], 'type': 'Point'}, 'properties': {}}",106097,N,Other Park Locations,61.96847942,Y,Other Park Locations:  Argyle Square Stage Only,83,N,N,N,1362,100575,,,Y,,N,0,L,Argyle Square Stage Only
"{'lon': 144.97349935358883, 'lat': -37.80982526738648}","{'type': 'Feature', 'geometry': {'coordinates': [144.97349935358883, -37.80982526738648], 'type': 'Point'}, 'properties': {}}",106982,N,Other Park Locations,45.92665311,Y,Other Park Locations:  Parliament Reserve,59,N,N,N,418,106982,,,Y,,N,0,L,Parliament Reserve
"{'lon': 144.97483431619727, 'lat': -37.82138186414242}","{'type': 'Feature', 'geometry': {'coordinates': [144.97483431619727, -37.82138186414242], 'type': 'Point'}, 'properties': {}}",100385,N,Alexandra Gardens,0.0,Y,Alexandra Gardens:  AG - Henley Landing,0,N,N,N,5,0,,,Y,,N,0,H,AG - Henley Landing
"{'lon': 144.96647963539363, 'lat': -37.78539828659486}","{'type': 'Feature', 'geometry': {'coordinates': [144.96647963539363, -37.78539828659486], 'type': 'Point'}, 'properties': {}}",106380,N,Other Park Locations,41.56399607,Y,Other Park Locations:  Hardy Reserve,177,N,N,N,365,106380,,,Y,,N,0,L,Hardy Reserve
"{'lon': 144.98172146083033, 'lat': -37.84314053115123}","{'type': 'Feature', 'geometry': {'coordinates': [144.98172146083033, -37.84314053115123], 'type': 'Point'}, 'properties': {}}",103756,N,Fawkner Park,3.76647007,N,Fawkner Park:  FP - Southern Pavilion Changerooms,242,N,N,Y,104,587544,Y,,Y,,N,0,M,FP - Southern Pavilion Changerooms
"{'lon': 144.9771809900954, 'lat': -37.81598743953911}","{'type': 'Feature', 'geometry': {'coordinates': [144.9771809900954, -37.81598743953911], 'type': 'Point'}, 'properties': {}}",109992,N,Other Park Locations,10.56411163,Y,Other Park Locations:  Wellington Park,351,Y,N,N,404,109992,,,Y,,N,0,L,Wellington Park
"{'lon': 144.9612333391193, 'lat': -37.78788013831968}","{'type': 'Feature', 'geometry': {'coordinates': [144.9612333391193, -37.78788013831968], 'type': 'Point'}, 'properties': {}}",107696,N,Princes Park,0.0,N,Princes Park:  PP - Ct2,0,N,N,N,207,0,Y,,Y,,N,0,M,PP - Ct2
"{'lon': 144.93913254675704, 'lat': -37.81595118177078}","{'type': 'Feature', 'geometry': {'coordinates': [144.93913254675704, -37.81595118177078], 'type': 'Point'}, 'properties': {}}",593731,N,Docklands,21.63246747,Y,Docklands:  Promotional Sites:  4.New Quay Promenade West,133,N,N,N,1226,604303,,,Y,4.New Quay Promenade West,N,23297,,Promotional Sites
"{'lon': 144.94771155926824, 'lat': -37.80606674183848}","{'type': 'Feature', 'geometry': {'coordinates': [144.94771155926824, -37.80606674183848], 'type': 'Point'}, 'properties': {}}",110906,N,Other Park Locations,8.84776937,Y,"Other Park Locations:  Hawke, Miller & Curzon St",328,N,N,N,369,110906,,,Y,,N,0,L,"Hawke, Miller & Curzon St"
"{'lon': 144.9530654381132, 'lat': -37.77810073831752}","{'type': 'Feature', 'geometry': {'coordinates': [144.9530654381132, -37.77810073831752], 'type': 'Point'}, 'properties': {}}",107426,N,Royal Park,0.0,N,Royal Park:  RP - Lawn 9_Western Ct_F1_L1_L2,0,N,N,N,272,0,Y,,Y,,N,0,L,RP - Lawn 9_Western Ct_F1_L1_L2
"{'lon': 144.98909111672506, 'lat': -37.81282564886206}","{'type': 'Feature', 'geometry': {'coordinates': [144.98909111672506, -37.81282564886206], 'type': 'Point'}, 'properties': {}}",102411,N,Other Park Locations,40.2685501,Y,Other Park Locations:  Darling Square,353,N,N,N,354,102411,,,Y,,N,0,L,Darling Square
"{'lon': 144.96941128927938, 'lat': -37.82000845635013}","{'type': 'Feature', 'geometry': {'coordinates': [144.96941128927938, -37.82000845635013], 'type': 'Point'}, 'properties': {}}",101101,N,Alexandra Gardens,0.0,Y,Alexandra Gardens:  AG - Lawn2/Peppercorn Lawn,0,Y,N,N,419,0,,,Y,,N,0,H,AG - Lawn2/Peppercorn Lawn
"{'lon': 144.977830455731, 'lat': -37.8176183608617}","{'type': 'Feature', 'geometry': {'coordinates': [144.977830455731, -37.8176183608617], 'type': 'Point'}, 'properties': {}}",0,N,Other Park Locations,0.0,Y,Other Park Locations:  Wellington Crescent,0,N,N,N,403,0,,,Y,,N,21971,L,Wellington Crescent
"{'lon': 144.9697226042961, 'lat': -37.80623668386974}","{'type': 'Feature', 'geometry': {'coordinates': [144.9697226042961, -37.80623668386974], 'type': 'Point'}, 'properties': {}}",108268,N,Carlton Gardens,78.56806687,Y,Carlton Gardens:  CG - Lawn 10/Dalai Lama Peace Garden,164,N,N,N,28,108154,,,Y,,Y,0,L,CG - Lawn 10/Dalai Lama Peace Garden
"{'lon': 144.94565942520038, 'lat': -37.796347199359644}","{'type': 'Feature', 'geometry': {'coordinates': [144.94565942520038, -37.796347199359644], 'type': 'Point'}, 'properties': {}}",101395,N,Other Park Locations,6.92606023,Y,Other Park Locations:  Pleasance Gardens,254,N,N,N,384,101395,,,Y,,N,0,L,Pleasance Gardens
"{'lon': 144.963377362942, 'lat': -37.82053851243121}","{'type': 'Feature', 'geometry': {'coordinates': [144.963377362942, -37.82053851243121], 'type': 'Point'}, 'properties': {}}",111302,N,Other Park Locations,62.39325145,Y,Other Park Locations:  Southbank Promenade - grass area,142,N,N,N,393,558548,,,Y,,N,0,L,Southbank Promenade - grass area
"{'lon': 144.92266340403762, 'lat': -37.792514022427625}","{'type': 'Feature', 'geometry': {'coordinates': [144.92266340403762, -37.792514022427625], 'type': 'Point'}, 'properties': {}}",110081,N,Other Park Locations,22.95735819,Y,Other Park Locations:  Peppercorn Park,124,N,N,N,383,107565,,,Y,,N,0,L,Peppercorn Park
"{'lon': 144.98125044044048, 'lat': -37.84409411042584}","{'type': 'Feature', 'geometry': {'coordinates': [144.98125044044048, -37.84409411042584], 'type': 'Point'}, 'properties': {}}",103756,N,Fawkner Park,0.0,N,Fawkner Park:  FP - Lawn 20 East_T5_T7_M2_Ct4,0,N,N,Y,93,0,Y,,Y,,N,0,M,FP - Lawn 20 East_T5_T7_M2_Ct4
"{'lon': 144.9558837698553, 'lat': -37.781385849986435}","{'type': 'Feature', 'geometry': {'coordinates': [144.9558837698553, -37.781385849986435], 'type': 'Point'}, 'properties': {}}",107426,N,Royal Park,6.46392703,N,Royal Park:  RP - Poplar Pavilion,302,N,N,N,284,110274,Y,,Y,,N,0,L,RP - Poplar Pavilion
"{'lon': 144.96740800459668, 'lat': -37.81680770194005}","{'type': 'Feature', 'geometry': {'coordinates': [144.96740800459668, -37.81680770194005], 'type': 'Point'}, 'properties': {}}",110760,N,Other Park Locations,37.59494902,N,Other Park Locations:  St Paul's Cathedral,200,N,N,N,390,531607,,,Y,,N,0,L,St Paul's Cathedral
"{'lon': 144.94267439979842, 'lat': -37.82348746663394}","{'type': 'Feature', 'geometry': {'coordinates': [144.94267439979842, -37.82348746663394], 'type': 'Point'}, 'properties': {}}",611697,N,Docklands,38.02059687,Y,Docklands:  Promotional Sites:  5.Yarra's Edge (River Esplanade),315,N,N,N,1227,663770,,,Y,5.Yarra's Edge (River Esplanade),N,0,,Promotional Sites
"{'lon': 144.97562787226252, 'lat': -37.82368258126105}","{'type': 'Feature', 'geometry': {'coordinates': [144.97562787226252, -37.82368258126105], 'type': 'Point'}, 'properties': {}}",108615,N,Kings Domain,0.0,Y,Kings Domain:  KD - Lawn 8,0,N,N,N,183,0,,,Y,,N,0,M,KD - Lawn 8
"{'lon': 144.92400424679198, 'lat': -37.79871909767763}","{'type': 'Feature', 'geometry': {'coordinates': [144.92400424679198, -37.79871909767763], 'type': 'Point'}, 'properties': {}}",105220,N,Holland Park,0.0,N,Holland Park:  HP - Pavilion,0,N,N,N,168,0,Y,,Y,,N,0,M,HP - Pavilion
"{'lon': 144.9427921184255, 'lat': -37.78398401734769}","{'type': 'Feature', 'geometry': {'coordinates': [144.9427921184255, -37.78398401734769], 'type': 'Point'}, 'properties': {}}",107426,Y,Royal Park,0.0,N,Royal Park:  RP - Ross Straw Field B1 East,0,N,N,N,264,0,Y,,Y,,N,0,L,RP - Ross Straw Field B1 East
"{'lon': 144.9648893222214, 'lat': -37.82135320112914}","{'type': 'Feature', 'geometry': {'coordinates': [144.9648893222214, -37.82135320112914], 'type': 'Point'}, 'properties': {}}",611806,N,Other Park Locations,12.28439378,Y,Other Park Locations:  Riverside Quay Reserve,100,N,N,N,388,611806,,,Y,,N,0,L,Riverside Quay Reserve
"{'lon': 144.9567311803712, 'lat': -37.781114702461835}","{'type': 'Feature', 'geometry': {'coordinates': [144.9567311803712, -37.781114702461835], 'type': 'Point'}, 'properties': {}}",107426,N,Royal Park,79.76690737,N,Royal Park:  RP - Lawn 14_Poplar Cs_S2,208,N,N,Y,274,110274,Y,,Y,,N,0,L,RP - Lawn 14_Poplar Cs_S2
"{'lon': 144.9658350877282, 'lat': -37.802740302401325}","{'type': 'Feature', 'geometry': {'coordinates': [144.9658350877282, -37.802740302401325], 'type': 'Point'}, 'properties': {}}",106097,N,Promotional Spaces,53.1618369,Y,Promotional Spaces:  Piazza Italia,335,N,N,N,1214,106097,,,Y,,N,0,,Piazza Italia
"{'lon': 144.9750014223981, 'lat': -37.81891336935055}","{'type': 'Feature', 'geometry': {'coordinates': [144.9750014223981, -37.81891336935055], 'type': 'Point'}, 'properties': {}}",573368,N,Birrarung Marr,0.0,Y,Birrarung Marr:  BM - Middle Terrace,0,N,N,N,409,0,,,Y,,N,0,H,BM - Middle Terrace
"{'lon': 144.96168143118967, 'lat': -37.78234866992262}","{'type': 'Feature', 'geometry': {'coordinates': [144.96168143118967, -37.78234866992262], 'type': 'Point'}, 'properties': {}}",107696,N,Princes Park,0.0,Y,Princes Park:  PP - Lawn 3 / Northern CarPark,0,Y,N,N,216,0,Y,,Y,,N,0,M,PP - Lawn 3 / Northern CarPark
"{'lon': 144.9825785045082, 'lat': -37.84036620841432}","{'type': 'Feature', 'geometry': {'coordinates': [144.9825785045082, -37.84036620841432], 'type': 'Point'}, 'properties': {}}",103756,N,Fawkner Park,89.91851442,Y,Fawkner Park:  FP - Lawn 15_SB7_SUB1,139,Y,N,N,61,587543,Y,,Y,,N,0,M,FP - Lawn 15_SB7_SUB1
"{'lon': 144.97284434800815, 'lat': -37.796310238750024}","{'type': 'Feature', 'geometry': {'coordinates': [144.97284434800815, -37.796310238750024], 'type': 'Point'}, 'properties': {}}",107223,Y,Other Park Locations,10.15483954,Y,Other Park Locations:  Canning & Palmerston,258,N,N,N,347,107223,,,Y,,N,0,L,Canning & Palmerston
"{'lon': 144.9873669018947, 'lat': -37.81143226898333}","{'type': 'Feature', 'geometry': {'coordinates': [144.9873669018947, -37.81143226898333], 'type': 'Point'}, 'properties': {}}",107620,Y,Other Park Locations,70.42207444,Y,Other Park Locations:  Powlett Reserve,130,N,N,N,385,526105,,,Y,,N,0,L,Powlett Reserve
"{'lon': 144.96202212305715, 'lat': -37.82105703258188}","{'type': 'Feature', 'geometry': {'coordinates': [144.96202212305715, -37.82105703258188], 'type': 'Point'}, 'properties': {}}",573923,N,Promotional Spaces,43.7550729,Y,Promotional Spaces:  Queensbridge Square,208,N,N,N,1210,596471,,,Y,,N,22909,,Queensbridge Square
"{'lon': 144.98007344833556, 'lat': -37.810716928218625}","{'type': 'Feature', 'geometry': {'coordinates': [144.98007344833556, -37.810716928218625], 'type': 'Point'}, 'properties': {}}",103807,N,Fitzroy Gardens,92.41920853,Y,Fitzroy Gardens:  FT - Lawn 4,94,Y,N,N,109,100358,,,Y,,Y,0,M,FT - Lawn 4
